{
  "type": "FeatureCollection",
  "features": [
    {
      "type": "Feature",
      "properties": {
        "name": "Bounded locality route 1",
        "iteration": 1,
        "point_count": 4,
        "order": [
          "Coral Sea",
          "Maryvale (Livingstone Shire)",
          "Pickanjinnie",
          "Strathmore (Mareeba Shire)"
        ]
      },
      "geometry": {
        "type": "LineString",
        "coordinates": [
          [
            151.73222,
            -22.50944
          ],
          [
            150.62333,
            -22.98528
          ],
          [
            149.10278,
            -26.44167
          ],
          [
            142.73472,
            -17.19556
          ]
        ]
      }
    },
    {
      "type": "Feature",
      "properties": {
        "iteration": 1,
        "reference_number": "48589",
        "place_name": "Coral Sea",
        "lga_name": "Livingstone Shire",
        "sequence": 1
      },
      "geometry": {
        "type": "Point",
        "coordinates": [
          151.73222,
          -22.50944
        ]
      }
    },
    {
      "type": "Feature",
      "properties": {
        "iteration": 1,
        "reference_number": "48751",
        "place_name": "Maryvale (Livingstone Shire)",
        "lga_name": "Livingstone Shire",
        "sequence": 2
      },
      "geometry": {
        "type": "Point",
        "coordinates": [
          150.62333,
          -22.98528
        ]
      }
    },
    {
      "type": "Feature",
      "properties": {
        "iteration": 1,
        "reference_number": "49163",
        "place_name": "Pickanjinnie",
        "lga_name": "Maranoa Regional",
        "sequence": 3
      },
      "geometry": {
        "type": "Point",
        "coordinates": [
          149.10278,
          -26.44167
        ]
      }
    },
    {
      "type": "Feature",
      "properties": {
        "iteration": 1,
        "reference_number": "48882",
        "place_name": "Strathmore (Mareeba Shire)",
        "lga_name": "Mareeba Shire",
        "sequence": 4
      },
      "geometry": {
        "type": "Point",
        "coordinates": [
          142.73472,
          -17.19556
        ]
      }
    },
    {
      "type": "Feature",
      "properties": {
        "name": "Bounded locality route 2",
        "iteration": 2,
        "point_count": 5,
        "order": [
          "Cooroibah",
          "Glamorgan Vale",
          "Jaffa",
          "Savannah",
          "Gidya"
        ]
      },
      "geometry": {
        "type": "LineString",
        "coordinates": [
          [
            153.00111,
            -26.33194
          ],
          [
            152.63444,
            -27.51528
          ],
          [
            145.99306,
            -17.78556
          ],
          [
            141.87889,
            -19.21583
          ],
          [
            139.77972,
            -19.25556
          ]
        ]
      }
    },
    {
      "type": "Feature",
      "properties": {
        "iteration": 2,
        "reference_number": "48582",
        "place_name": "Cooroibah",
        "lga_name": "Noosa Shire",
        "sequence": 1
      },
      "geometry": {
        "type": "Point",
        "coordinates": [
          153.00111,
          -26.33194
        ]
      }
    },
    {
      "type": "Feature",
      "properties": {
        "iteration": 2,
        "reference_number": "47273",
        "place_name": "Glamorgan Vale",
        "lga_name": "Somerset Regional",
        "sequence": 2
      },
      "geometry": {
        "type": "Point",
        "coordinates": [
          152.63444,
          -27.51528
        ]
      }
    },
    {
      "type": "Feature",
      "properties": {
        "iteration": 2,
        "reference_number": "45712",
        "place_name": "Jaffa",
        "lga_name": "Cassowary Coast Regional",
        "sequence": 3
      },
      "geometry": {
        "type": "Point",
        "coordinates": [
          145.99306,
          -17.78556
        ]
      }
    },
    {
      "type": "Feature",
      "properties": {
        "iteration": 2,
        "reference_number": "42917",
        "place_name": "Savannah",
        "lga_name": "Carpentaria Shire",
        "sequence": 4
      },
      "geometry": {
        "type": "Point",
        "coordinates": [
          141.87889,
          -19.21583
        ]
      }
    },
    {
      "type": "Feature",
      "properties": {
        "iteration": 2,
        "reference_number": "42540",
        "place_name": "Gidya",
        "lga_name": "Burke Shire",
        "sequence": 5
      },
      "geometry": {
        "type": "Point",
        "coordinates": [
          139.77972,
          -19.25556
        ]
      }
    },
    {
      "type": "Feature",
      "properties": {
        "name": "Bounded locality route 3",
        "iteration": 3,
        "point_count": 4,
        "order": [
          "Deepwater",
          "Russell Island",
          "Mount Kelly",
          "Jaffa"
        ]
      },
      "geometry": {
        "type": "LineString",
        "coordinates": [
          [
            151.94861,
            -24.39583
          ],
          [
            153.38306,
            -27.67417
          ],
          [
            147.315,
            -19.66722
          ],
          [
            145.99306,
            -17.78556
          ]
        ]
      }
    },
    {
      "type": "Feature",
      "properties": {
        "iteration": 3,
        "reference_number": "46602",
        "place_name": "Deepwater",
        "lga_name": "Gladstone Regional",
        "sequence": 1
      },
      "geometry": {
        "type": "Point",
        "coordinates": [
          151.94861,
          -24.39583
        ]
      }
    },
    {
      "type": "Feature",
      "properties": {
        "iteration": 3,
        "reference_number": "43649",
        "place_name": "Russell Island",
        "lga_name": "Redland City",
        "sequence": 2
      },
      "geometry": {
        "type": "Point",
        "coordinates": [
          153.38306,
          -27.67417
        ]
      }
    },
    {
      "type": "Feature",
      "properties": {
        "iteration": 3,
        "reference_number": "44669",
        "place_name": "Mount Kelly",
        "lga_name": "Burdekin Shire",
        "sequence": 3
      },
      "geometry": {
        "type": "Point",
        "coordinates": [
          147.315,
          -19.66722
        ]
      }
    },
    {
      "type": "Feature",
      "properties": {
        "iteration": 3,
        "reference_number": "45712",
        "place_name": "Jaffa",
        "lga_name": "Cassowary Coast Regional",
        "sequence": 4
      },
      "geometry": {
        "type": "Point",
        "coordinates": [
          145.99306,
          -17.78556
        ]
      }
    },
    {
      "type": "Feature",
      "properties": {
        "name": "Bounded locality route 4",
        "iteration": 4,
        "point_count": 5,
        "order": [
          "Melrose",
          "Marshlands",
          "Abercorn",
          "Branyan",
          "Storm King"
        ]
      },
      "geometry": {
        "type": "LineString",
        "coordinates": [
          [
            151.62611,
            -26.26083
          ],
          [
            151.75722,
            -26.15389
          ],
          [
            151.14833,
            -25.14139
          ],
          [
            152.26472,
            -24.91778
          ],
          [
            151.97972,
            -28.72611
          ]
        ]
      }
    },
    {
      "type": "Feature",
      "properties": {
        "iteration": 4,
        "reference_number": "46242",
        "place_name": "Melrose",
        "lga_name": "South Burnett Regional",
        "sequence": 1
      },
      "geometry": {
        "type": "Point",
        "coordinates": [
          151.62611,
          -26.26083
        ]
      }
    },
    {
      "type": "Feature",
      "properties": {
        "iteration": 4,
        "reference_number": "46241",
        "place_name": "Marshlands",
        "lga_name": "South Burnett Regional",
        "sequence": 2
      },
      "geometry": {
        "type": "Point",
        "coordinates": [
          151.75722,
          -26.15389
        ]
      }
    },
    {
      "type": "Feature",
      "properties": {
        "iteration": 4,
        "reference_number": "45310",
        "place_name": "Abercorn",
        "lga_name": "North Burnett Regional",
        "sequence": 3
      },
      "geometry": {
        "type": "Point",
        "coordinates": [
          151.14833,
          -25.14139
        ]
      }
    },
    {
      "type": "Feature",
      "properties": {
        "iteration": 4,
        "reference_number": "48369",
        "place_name": "Branyan",
        "lga_name": "Bundaberg Regional",
        "sequence": 4
      },
      "geometry": {
        "type": "Point",
        "coordinates": [
          152.26472,
          -24.91778
        ]
      }
    },
    {
      "type": "Feature",
      "properties": {
        "iteration": 4,
        "reference_number": "45979",
        "place_name": "Storm King",
        "lga_name": "Southern Downs Regional",
        "sequence": 5
      },
      "geometry": {
        "type": "Point",
        "coordinates": [
          151.97972,
          -28.72611
        ]
      }
    },
    {
      "type": "Feature",
      "properties": {
        "name": "Bounded locality route 5",
        "iteration": 5,
        "point_count": 4,
        "order": [
          "Baffle West",
          "Bundoora",
          "Wooderson",
          "Wangetti"
        ]
      },
      "geometry": {
        "type": "LineString",
        "coordinates": [
          [
            148.62889,
            -25.59556
          ],
          [
            148.46333,
            -22.97528
          ],
          [
            151.08806,
            -24.10417
          ],
          [
            145.56389,
            -16.66139
          ]
        ]
      }
    },
    {
      "type": "Feature",
      "properties": {
        "iteration": 5,
        "reference_number": "47407",
        "place_name": "Baffle West",
        "lga_name": "Maranoa Regional",
        "sequence": 1
      },
      "geometry": {
        "type": "Point",
        "coordinates": [
          148.62889,
          -25.59556
        ]
      }
    },
    {
      "type": "Feature",
      "properties": {
        "iteration": 5,
        "reference_number": "46922",
        "place_name": "Bundoora",
        "lga_name": "Central Highlands Regional",
        "sequence": 2
      },
      "geometry": {
        "type": "Point",
        "coordinates": [
          148.46333,
          -22.97528
        ]
      }
    },
    {
      "type": "Feature",
      "properties": {
        "iteration": 5,
        "reference_number": "52257",
        "place_name": "Wooderson",
        "lga_name": "Gladstone Regional",
        "sequence": 3
      },
      "geometry": {
        "type": "Point",
        "coordinates": [
          151.08806,
          -24.10417
        ]
      }
    },
    {
      "type": "Feature",
      "properties": {
        "iteration": 5,
        "reference_number": "48921",
        "place_name": "Wangetti",
        "lga_name": "Douglas Shire",
        "sequence": 4
      },
      "geometry": {
        "type": "Point",
        "coordinates": [
          145.56389,
          -16.66139
        ]
      }
    }
  ]
}