{
  "type": "FeatureCollection",
  "features": [
    {
      "type": "Feature",
      "properties": {
        "name": "Bounded locality route 1",
        "iteration": 1,
        "point_count": 5,
        "order": [
          "Evelyn",
          "Oak Valley",
          "Kuttabul",
          "Coolmunda",
          "The Glen"
        ],
        "stroke": "#e6194b",
        "stroke-width": 2,
        "stroke-opacity": 1
      },
      "geometry": {
        "type": "LineString",
        "coordinates": [
          [
            145.48917,
            -17.50972
          ],
          [
            146.81889,
            -19.41
          ],
          [
            148.89361,
            -21.02694
          ],
          [
            151.23222,
            -28.43806
          ],
          [
            151.91694,
            -28.33611
          ]
        ]
      }
    },
    {
      "type": "Feature",
      "properties": {
        "iteration": 1,
        "reference_number": "48629",
        "place_name": "Evelyn",
        "lga_name": "Tablelands Regional",
        "sequence": 1,
        "marker-color": "#e6194b"
      },
      "geometry": {
        "type": "Point",
        "coordinates": [
          145.48917,
          -17.50972
        ]
      }
    },
    {
      "type": "Feature",
      "properties": {
        "iteration": 1,
        "reference_number": "44621",
        "place_name": "Oak Valley",
        "lga_name": "Townsville City",
        "sequence": 2,
        "marker-color": "#e6194b"
      },
      "geometry": {
        "type": "Point",
        "coordinates": [
          146.81889,
          -19.41
        ]
      }
    },
    {
      "type": "Feature",
      "properties": {
        "iteration": 1,
        "reference_number": "46800",
        "place_name": "Kuttabul",
        "lga_name": "Mackay Regional",
        "sequence": 3,
        "marker-color": "#e6194b"
      },
      "geometry": {
        "type": "Point",
        "coordinates": [
          148.89361,
          -21.02694
        ]
      }
    },
    {
      "type": "Feature",
      "properties": {
        "iteration": 1,
        "reference_number": "47806",
        "place_name": "Coolmunda",
        "lga_name": "Goondiwindi Regional",
        "sequence": 4,
        "marker-color": "#e6194b"
      },
      "geometry": {
        "type": "Point",
        "coordinates": [
          151.23222,
          -28.43806
        ]
      }
    },
    {
      "type": "Feature",
      "properties": {
        "iteration": 1,
        "reference_number": "45989",
        "place_name": "The Glen",
        "lga_name": "Southern Downs Regional",
        "sequence": 5,
        "marker-color": "#e6194b"
      },
      "geometry": {
        "type": "Point",
        "coordinates": [
          151.91694,
          -28.33611
        ]
      }
    },
    {
      "type": "Feature",
      "properties": {
        "name": "Bounded locality route 2",
        "iteration": 2,
        "point_count": 6,
        "order": [
          "Wyalla",
          "Oakdale",
          "Bellthorpe",
          "Nerimbera",
          "Sarina Range",
          "Iama Island"
        ],
        "stroke": "#3cb44b",
        "stroke-width": 2,
        "stroke-opacity": 1
      },
      "geometry": {
        "type": "LineString",
        "coordinates": [
          [
            152.07611,
            -26.46222
          ],
          [
            151.91278,
            -26.2
          ],
          [
            152.72333,
            -26.8575
          ],
          [
            150.595,
            -23.41361
          ],
          [
            149.10833,
            -21.55139
          ],
          [
            142.77417,
            -9.90111
          ]
        ]
      }
    },
    {
      "type": "Feature",
      "properties": {
        "iteration": 2,
        "reference_number": "46285",
        "place_name": "Wyalla",
        "lga_name": "South Burnett Regional",
        "sequence": 1,
        "marker-color": "#3cb44b"
      },
      "geometry": {
        "type": "Point",
        "coordinates": [
          152.07611,
          -26.46222
        ]
      }
    },
    {
      "type": "Feature",
      "properties": {
        "iteration": 2,
        "reference_number": "46254",
        "place_name": "Oakdale",
        "lga_name": "South Burnett Regional",
        "sequence": 2,
        "marker-color": "#3cb44b"
      },
      "geometry": {
        "type": "Point",
        "coordinates": [
          151.91278,
          -26.2
        ]
      }
    },
    {
      "type": "Feature",
      "properties": {
        "iteration": 2,
        "reference_number": "48330",
        "place_name": "Bellthorpe",
        "lga_name": "Moreton Bay City",
        "sequence": 3,
        "marker-color": "#3cb44b"
      },
      "geometry": {
        "type": "Point",
        "coordinates": [
          152.72333,
          -26.8575
        ]
      }
    },
    {
      "type": "Feature",
      "properties": {
        "iteration": 2,
        "reference_number": "48801",
        "place_name": "Nerimbera",
        "lga_name": "Livingstone Shire",
        "sequence": 4,
        "marker-color": "#3cb44b"
      },
      "geometry": {
        "type": "Point",
        "coordinates": [
          150.595,
          -23.41361
        ]
      }
    },
    {
      "type": "Feature",
      "properties": {
        "iteration": 2,
        "reference_number": "46835",
        "place_name": "Sarina Range",
        "lga_name": "Mackay Regional",
        "sequence": 5,
        "marker-color": "#3cb44b"
      },
      "geometry": {
        "type": "Point",
        "coordinates": [
          149.10833,
          -21.55139
        ]
      }
    },
    {
      "type": "Feature",
      "properties": {
        "iteration": 2,
        "reference_number": "46708",
        "place_name": "Iama Island",
        "lga_name": "Torres Strait Island Regional",
        "sequence": 6,
        "marker-color": "#3cb44b"
      },
      "geometry": {
        "type": "Point",
        "coordinates": [
          142.77417,
          -9.90111
        ]
      }
    },
    {
      "type": "Feature",
      "properties": {
        "name": "Bounded locality route 3",
        "iteration": 3,
        "point_count": 3,
        "order": [
          "Suttor",
          "Septimus",
          "Kumbia"
        ],
        "stroke": "#4363d8",
        "stroke-width": 2,
        "stroke-opacity": 1
      },
      "geometry": {
        "type": "LineString",
        "coordinates": [
          [
            147.89667,
            -21.34056
          ],
          [
            148.76278,
            -21.27694
          ],
          [
            151.65444,
            -26.69194
          ]
        ]
      }
    },
    {
      "type": "Feature",
      "properties": {
        "iteration": 3,
        "reference_number": "47037",
        "place_name": "Suttor",
        "lga_name": "Isaac Regional",
        "sequence": 1,
        "marker-color": "#4363d8"
      },
      "geometry": {
        "type": "Point",
        "coordinates": [
          147.89667,
          -21.34056
        ]
      }
    },
    {
      "type": "Feature",
      "properties": {
        "iteration": 3,
        "reference_number": "46837",
        "place_name": "Septimus",
        "lga_name": "Mackay Regional",
        "sequence": 2,
        "marker-color": "#4363d8"
      },
      "geometry": {
        "type": "Point",
        "coordinates": [
          148.76278,
          -21.27694
        ]
      }
    },
    {
      "type": "Feature",
      "properties": {
        "iteration": 3,
        "reference_number": "46235",
        "place_name": "Kumbia",
        "lga_name": "South Burnett Regional",
        "sequence": 3,
        "marker-color": "#4363d8"
      },
      "geometry": {
        "type": "Point",
        "coordinates": [
          151.65444,
          -26.69194
        ]
      }
    },
    {
      "type": "Feature",
      "properties": {
        "name": "Bounded locality route 4",
        "iteration": 4,
        "point_count": 5,
        "order": [
          "Sheep Station Creek",
          "Upper Kandanga",
          "Maclagan",
          "Electra",
          "Conjuboy"
        ],
        "stroke": "#f58231",
        "stroke-width": 2,
        "stroke-opacity": 1
      },
      "geometry": {
        "type": "LineString",
        "coordinates": [
          [
            152.505,
            -26.86306
          ],
          [
            152.52778,
            -26.44722
          ],
          [
            151.67722,
            -27.05889
          ],
          [
            152.11528,
            -25.00361
          ],
          [
            144.60194,
            -18.71944
          ]
        ]
      }
    },
    {
      "type": "Feature",
      "properties": {
        "iteration": 4,
        "reference_number": "49222",
        "place_name": "Sheep Station Creek",
        "lga_name": "Somerset Regional",
        "sequence": 1,
        "marker-color": "#f58231"
      },
      "geometry": {
        "type": "Point",
        "coordinates": [
          152.505,
          -26.86306
        ]
      }
    },
    {
      "type": "Feature",
      "properties": {
        "iteration": 4,
        "reference_number": "52487",
        "place_name": "Upper Kandanga",
        "lga_name": "Gympie Regional",
        "sequence": 2,
        "marker-color": "#f58231"
      },
      "geometry": {
        "type": "Point",
        "coordinates": [
          152.52778,
          -26.44722
        ]
      }
    },
    {
      "type": "Feature",
      "properties": {
        "iteration": 4,
        "reference_number": "47993",
        "place_name": "Maclagan",
        "lga_name": "Toowoomba Regional",
        "sequence": 3,
        "marker-color": "#f58231"
      },
      "geometry": {
        "type": "Point",
        "coordinates": [
          151.67722,
          -27.05889
        ]
      }
    },
    {
      "type": "Feature",
      "properties": {
        "iteration": 4,
        "reference_number": "44713",
        "place_name": "Electra",
        "lga_name": "Bundaberg Regional",
        "sequence": 4,
        "marker-color": "#f58231"
      },
      "geometry": {
        "type": "Point",
        "coordinates": [
          152.11528,
          -25.00361
        ]
      }
    },
    {
      "type": "Feature",
      "properties": {
        "iteration": 4,
        "reference_number": "41669",
        "place_name": "Conjuboy",
        "lga_name": "Etheridge Shire",
        "sequence": 5,
        "marker-color": "#f58231"
      },
      "geometry": {
        "type": "Point",
        "coordinates": [
          144.60194,
          -18.71944
        ]
      }
    },
    {
      "type": "Feature",
      "properties": {
        "name": "Bounded locality route 5",
        "iteration": 5,
        "point_count": 6,
        "order": [
          "Wheatlands",
          "Bell",
          "Mon Repos",
          "Gemini Mountains",
          "Cow Bay",
          "Four Ways"
        ],
        "stroke": "#911eb4",
        "stroke-width": 2,
        "stroke-opacity": 1
      },
      "geometry": {
        "type": "LineString",
        "coordinates": [
          [
            151.85528,
            -26.21917
          ],
          [
            151.43806,
            -26.91639
          ],
          [
            152.44056,
            -24.805
          ],
          [
            147.87222,
            -22.43917
          ],
          [
            145.43278,
            -16.22194
          ],
          [
            140.47333,
            -19.35333
          ]
        ]
      }
    },
    {
      "type": "Feature",
      "properties": {
        "iteration": 5,
        "reference_number": "46278",
        "place_name": "Wheatlands",
        "lga_name": "South Burnett Regional",
        "sequence": 1,
        "marker-color": "#911eb4"
      },
      "geometry": {
        "type": "Point",
        "coordinates": [
          151.85528,
          -26.21917
        ]
      }
    },
    {
      "type": "Feature",
      "properties": {
        "iteration": 5,
        "reference_number": "49277",
        "place_name": "Bell",
        "lga_name": "Western Downs Regional",
        "sequence": 2,
        "marker-color": "#911eb4"
      },
      "geometry": {
        "type": "Point",
        "coordinates": [
          151.43806,
          -26.91639
        ]
      }
    },
    {
      "type": "Feature",
      "properties": {
        "iteration": 5,
        "reference_number": "44747",
        "place_name": "Mon Repos",
        "lga_name": "Bundaberg Regional",
        "sequence": 3,
        "marker-color": "#911eb4"
      },
      "geometry": {
        "type": "Point",
        "coordinates": [
          152.44056,
          -24.805
        ]
      }
    },
    {
      "type": "Feature",
      "properties": {
        "iteration": 5,
        "reference_number": "47017",
        "place_name": "Gemini Mountains",
        "lga_name": "Isaac Regional",
        "sequence": 4,
        "marker-color": "#911eb4"
      },
      "geometry": {
        "type": "Point",
        "coordinates": [
          147.87222,
          -22.43917
        ]
      }
    },
    {
      "type": "Feature",
      "properties": {
        "iteration": 5,
        "reference_number": "48590",
        "place_name": "Cow Bay",
        "lga_name": "Douglas Shire",
        "sequence": 5,
        "marker-color": "#911eb4"
      },
      "geometry": {
        "type": "Point",
        "coordinates": [
          145.43278,
          -16.22194
        ]
      }
    },
    {
      "type": "Feature",
      "properties": {
        "iteration": 5,
        "reference_number": "42492",
        "place_name": "Four Ways",
        "lga_name": "Cloncurry Shire",
        "sequence": 6,
        "marker-color": "#911eb4"
      },
      "geometry": {
        "type": "Point",
        "coordinates": [
          140.47333,
          -19.35333
        ]
      }
    }
  ]
}