{
  "type": "FeatureCollection",
  "features": [
    {
      "type": "Feature",
      "properties": {
        "name": "Bounded locality route 1",
        "iteration": 1,
        "point_count": 4,
        "order": [
          "Newell",
          "Topaz",
          "South Mission Beach",
          "Crediton"
        ],
        "stroke": "#e6194b",
        "stroke-width": 2,
        "stroke-opacity": 1
      },
      "geometry": {
        "type": "LineString",
        "coordinates": [
          [
            145.40167,
            -16.42333
          ],
          [
            145.70722,
            -17.42444
          ],
          [
            146.08417,
            -17.95444
          ],
          [
            148.54694,
            -21.26889
          ]
        ]
      }
    },
    {
      "type": "Feature",
      "properties": {
        "iteration": 1,
        "reference_number": "48802",
        "place_name": "Newell",
        "lga_name": "Douglas Shire",
        "sequence": 1,
        "marker-color": "#e6194b"
      },
      "geometry": {
        "type": "Point",
        "coordinates": [
          145.40167,
          -16.42333
        ]
      }
    },
    {
      "type": "Feature",
      "properties": {
        "iteration": 1,
        "reference_number": "48904",
        "place_name": "Topaz",
        "lga_name": "Tablelands Regional",
        "sequence": 2,
        "marker-color": "#e6194b"
      },
      "geometry": {
        "type": "Point",
        "coordinates": [
          145.70722,
          -17.42444
        ]
      }
    },
    {
      "type": "Feature",
      "properties": {
        "iteration": 1,
        "reference_number": "45755",
        "place_name": "South Mission Beach",
        "lga_name": "Cassowary Coast Regional",
        "sequence": 3,
        "marker-color": "#e6194b"
      },
      "geometry": {
        "type": "Point",
        "coordinates": [
          146.08417,
          -17.95444
        ]
      }
    },
    {
      "type": "Feature",
      "properties": {
        "iteration": 1,
        "reference_number": "46771",
        "place_name": "Crediton",
        "lga_name": "Mackay Regional",
        "sequence": 4,
        "marker-color": "#e6194b"
      },
      "geometry": {
        "type": "Point",
        "coordinates": [
          148.54694,
          -21.26889
        ]
      }
    },
    {
      "type": "Feature",
      "properties": {
        "name": "Bounded locality route 2",
        "iteration": 2,
        "point_count": 4,
        "order": [
          "Colosseum",
          "Nebine",
          "Breddan",
          "Birkalla"
        ],
        "stroke": "#3cb44b",
        "stroke-width": 2,
        "stroke-opacity": 1
      },
      "geometry": {
        "type": "LineString",
        "coordinates": [
          [
            151.59583,
            -24.44167
          ],
          [
            146.81417,
            -28.06444
          ],
          [
            146.26806,
            -19.97194
          ],
          [
            145.94889,
            -17.91361
          ]
        ]
      }
    },
    {
      "type": "Feature",
      "properties": {
        "iteration": 2,
        "reference_number": "46599",
        "place_name": "Colosseum",
        "lga_name": "Gladstone Regional",
        "sequence": 1,
        "marker-color": "#3cb44b"
      },
      "geometry": {
        "type": "Point",
        "coordinates": [
          151.59583,
          -24.44167
        ]
      }
    },
    {
      "type": "Feature",
      "properties": {
        "iteration": 2,
        "reference_number": "42659",
        "place_name": "Nebine",
        "lga_name": "Paroo Shire",
        "sequence": 2,
        "marker-color": "#3cb44b"
      },
      "geometry": {
        "type": "Point",
        "coordinates": [
          146.81417,
          -28.06444
        ]
      }
    },
    {
      "type": "Feature",
      "properties": {
        "iteration": 2,
        "reference_number": "48128",
        "place_name": "Breddan",
        "lga_name": "Charters Towers Regional",
        "sequence": 3,
        "marker-color": "#3cb44b"
      },
      "geometry": {
        "type": "Point",
        "coordinates": [
          146.26806,
          -19.97194
        ]
      }
    },
    {
      "type": "Feature",
      "properties": {
        "iteration": 2,
        "reference_number": "45657",
        "place_name": "Birkalla",
        "lga_name": "Cassowary Coast Regional",
        "sequence": 4,
        "marker-color": "#3cb44b"
      },
      "geometry": {
        "type": "Point",
        "coordinates": [
          145.94889,
          -17.91361
        ]
      }
    },
    {
      "type": "Feature",
      "properties": {
        "name": "Bounded locality route 3",
        "iteration": 3,
        "point_count": 6,
        "order": [
          "Dotswood",
          "Glen Isla",
          "Glenrae",
          "Mount Marrow",
          "Upper Freestone",
          "Stanthorpe"
        ],
        "stroke": "#4363d8",
        "stroke-width": 2,
        "stroke-opacity": 1
      },
      "geometry": {
        "type": "LineString",
        "coordinates": [
          [
            146.22028,
            -19.56028
          ],
          [
            148.6175,
            -20.40639
          ],
          [
            151.37056,
            -25.64417
          ],
          [
            152.62083,
            -27.59778
          ],
          [
            152.22056,
            -28.12333
          ],
          [
            151.93556,
            -28.66222
          ]
        ]
      }
    },
    {
      "type": "Feature",
      "properties": {
        "iteration": 3,
        "reference_number": "49746",
        "place_name": "Dotswood",
        "lga_name": "Charters Towers Regional",
        "sequence": 1,
        "marker-color": "#4363d8"
      },
      "geometry": {
        "type": "Point",
        "coordinates": [
          146.22028,
          -19.56028
        ]
      }
    },
    {
      "type": "Feature",
      "properties": {
        "iteration": 3,
        "reference_number": "46870",
        "place_name": "Glen Isla",
        "lga_name": "Whitsunday Regional",
        "sequence": 2,
        "marker-color": "#4363d8"
      },
      "geometry": {
        "type": "Point",
        "coordinates": [
          148.6175,
          -20.40639
        ]
      }
    },
    {
      "type": "Feature",
      "properties": {
        "iteration": 3,
        "reference_number": "45352",
        "place_name": "Glenrae",
        "lga_name": "North Burnett Regional",
        "sequence": 3,
        "marker-color": "#4363d8"
      },
      "geometry": {
        "type": "Point",
        "coordinates": [
          151.37056,
          -25.64417
        ]
      }
    },
    {
      "type": "Feature",
      "properties": {
        "iteration": 3,
        "reference_number": "45059",
        "place_name": "Mount Marrow",
        "lga_name": "Ipswich City",
        "sequence": 4,
        "marker-color": "#4363d8"
      },
      "geometry": {
        "type": "Point",
        "coordinates": [
          152.62083,
          -27.59778
        ]
      }
    },
    {
      "type": "Feature",
      "properties": {
        "iteration": 3,
        "reference_number": "49508",
        "place_name": "Upper Freestone",
        "lga_name": "Southern Downs Regional",
        "sequence": 5,
        "marker-color": "#4363d8"
      },
      "geometry": {
        "type": "Point",
        "coordinates": [
          152.22056,
          -28.12333
        ]
      }
    },
    {
      "type": "Feature",
      "properties": {
        "iteration": 3,
        "reference_number": "45978",
        "place_name": "Stanthorpe",
        "lga_name": "Southern Downs Regional",
        "sequence": 6,
        "marker-color": "#4363d8"
      },
      "geometry": {
        "type": "Point",
        "coordinates": [
          151.93556,
          -28.66222
        ]
      }
    },
    {
      "type": "Feature",
      "properties": {
        "name": "Bounded locality route 4",
        "iteration": 4,
        "point_count": 3,
        "order": [
          "Mapleton",
          "Gatton",
          "Rubyvale"
        ],
        "stroke": "#f58231",
        "stroke-width": 2,
        "stroke-opacity": 1
      },
      "geometry": {
        "type": "LineString",
        "coordinates": [
          [
            152.85944,
            -26.62333
          ],
          [
            152.27278,
            -27.56528
          ],
          [
            147.64556,
            -23.4
          ]
        ]
      }
    },
    {
      "type": "Feature",
      "properties": {
        "iteration": 4,
        "reference_number": "48743",
        "place_name": "Mapleton",
        "lga_name": "Sunshine Coast Regional",
        "sequence": 1,
        "marker-color": "#f58231"
      },
      "geometry": {
        "type": "Point",
        "coordinates": [
          152.85944,
          -26.62333
        ]
      }
    },
    {
      "type": "Feature",
      "properties": {
        "iteration": 4,
        "reference_number": "44954",
        "place_name": "Gatton",
        "lga_name": "Lockyer Valley Regional",
        "sequence": 2,
        "marker-color": "#f58231"
      },
      "geometry": {
        "type": "Point",
        "coordinates": [
          152.27278,
          -27.56528
        ]
      }
    },
    {
      "type": "Feature",
      "properties": {
        "iteration": 4,
        "reference_number": "50496",
        "place_name": "Rubyvale",
        "lga_name": "Central Highlands Regional",
        "sequence": 3,
        "marker-color": "#f58231"
      },
      "geometry": {
        "type": "Point",
        "coordinates": [
          147.64556,
          -23.4
        ]
      }
    },
    {
      "type": "Feature",
      "properties": {
        "name": "Bounded locality route 5",
        "iteration": 5,
        "point_count": 5,
        "order": [
          "Crownthorpe (South Burnett Regional)",
          "Iredale",
          "Walter Hill",
          "North Johnstone",
          "Mona Mona"
        ],
        "stroke": "#911eb4",
        "stroke-width": 2,
        "stroke-opacity": 1
      },
      "geometry": {
        "type": "LineString",
        "coordinates": [
          [
            151.93778,
            -26.11444
          ],
          [
            152.10639,
            -27.57944
          ],
          [
            145.81278,
            -17.83167
          ],
          [
            145.66306,
            -17.33389
          ],
          [
            145.56083,
            -16.7325
          ]
        ]
      }
    },
    {
      "type": "Feature",
      "properties": {
        "iteration": 5,
        "reference_number": "47375",
        "place_name": "Crownthorpe (South Burnett Regional)",
        "lga_name": "South Burnett Regional",
        "sequence": 1,
        "marker-color": "#911eb4"
      },
      "geometry": {
        "type": "Point",
        "coordinates": [
          151.93778,
          -26.11444
        ]
      }
    },
    {
      "type": "Feature",
      "properties": {
        "iteration": 5,
        "reference_number": "44961",
        "place_name": "Iredale",
        "lga_name": "Lockyer Valley Regional",
        "sequence": 2,
        "marker-color": "#911eb4"
      },
      "geometry": {
        "type": "Point",
        "coordinates": [
          152.10639,
          -27.57944
        ]
      }
    },
    {
      "type": "Feature",
      "properties": {
        "iteration": 5,
        "reference_number": "45764",
        "place_name": "Walter Hill",
        "lga_name": "Cassowary Coast Regional",
        "sequence": 3,
        "marker-color": "#911eb4"
      },
      "geometry": {
        "type": "Point",
        "coordinates": [
          145.81278,
          -17.83167
        ]
      }
    },
    {
      "type": "Feature",
      "properties": {
        "iteration": 5,
        "reference_number": "48813",
        "place_name": "North Johnstone",
        "lga_name": "Tablelands Regional",
        "sequence": 4,
        "marker-color": "#911eb4"
      },
      "geometry": {
        "type": "Point",
        "coordinates": [
          145.66306,
          -17.33389
        ]
      }
    },
    {
      "type": "Feature",
      "properties": {
        "iteration": 5,
        "reference_number": "48765",
        "place_name": "Mona Mona",
        "lga_name": "Mareeba Shire",
        "sequence": 5,
        "marker-color": "#911eb4"
      },
      "geometry": {
        "type": "Point",
        "coordinates": [
          145.56083,
          -16.7325
        ]
      }
    }
  ]
}