{
  "type": "FeatureCollection",
  "features": [
    {
      "type": "Feature",
      "properties": {
        "name": "Bounded locality route 1",
        "iteration": 1,
        "point_count": 6,
        "order": [
          "Glenden",
          "Garradunga",
          "Mer Island",
          "Wieambilla",
          "Nukku",
          "Cement Mills"
        ],
        "stroke": "#e6194b",
        "stroke-width": 2,
        "stroke-opacity": 1
      },
      "geometry": {
        "type": "LineString",
        "coordinates": [
          [
            148.05528,
            -21.35611
          ],
          [
            146.00056,
            -17.45917
          ],
          [
            144.05167,
            -9.91722
          ],
          [
            150.40972,
            -26.9675
          ],
          [
            152.08028,
            -26.86778
          ],
          [
            151.57472,
            -28.37889
          ]
        ]
      }
    },
    {
      "type": "Feature",
      "properties": {
        "iteration": 1,
        "reference_number": "47018",
        "place_name": "Glenden",
        "lga_name": "Isaac Regional",
        "sequence": 1,
        "marker-color": "#e6194b"
      },
      "geometry": {
        "type": "Point",
        "coordinates": [
          148.05528,
          -21.35611
        ]
      }
    },
    {
      "type": "Feature",
      "properties": {
        "iteration": 1,
        "reference_number": "45699",
        "place_name": "Garradunga",
        "lga_name": "Cassowary Coast Regional",
        "sequence": 2,
        "marker-color": "#e6194b"
      },
      "geometry": {
        "type": "Point",
        "coordinates": [
          146.00056,
          -17.45917
        ]
      }
    },
    {
      "type": "Feature",
      "properties": {
        "iteration": 1,
        "reference_number": "46717",
        "place_name": "Mer Island",
        "lga_name": "Torres Strait Island Regional",
        "sequence": 3,
        "marker-color": "#e6194b"
      },
      "geometry": {
        "type": "Point",
        "coordinates": [
          144.05167,
          -9.91722
        ]
      }
    },
    {
      "type": "Feature",
      "properties": {
        "iteration": 1,
        "reference_number": "47759",
        "place_name": "Wieambilla",
        "lga_name": "Western Downs Regional",
        "sequence": 4,
        "marker-color": "#e6194b"
      },
      "geometry": {
        "type": "Point",
        "coordinates": [
          150.40972,
          -26.9675
        ]
      }
    },
    {
      "type": "Feature",
      "properties": {
        "iteration": 1,
        "reference_number": "46253",
        "place_name": "Nukku",
        "lga_name": "South Burnett Regional",
        "sequence": 5,
        "marker-color": "#e6194b"
      },
      "geometry": {
        "type": "Point",
        "coordinates": [
          152.08028,
          -26.86778
        ]
      }
    },
    {
      "type": "Feature",
      "properties": {
        "iteration": 1,
        "reference_number": "49640",
        "place_name": "Cement Mills",
        "lga_name": "Goondiwindi Regional",
        "sequence": 6,
        "marker-color": "#e6194b"
      },
      "geometry": {
        "type": "Point",
        "coordinates": [
          151.57472,
          -28.37889
        ]
      }
    },
    {
      "type": "Feature",
      "properties": {
        "name": "Bounded locality route 2",
        "iteration": 2,
        "point_count": 5,
        "order": [
          "Tara",
          "Mount Kynoch",
          "Bromelton",
          "Mooloo",
          "Coralie"
        ],
        "stroke": "#3cb44b",
        "stroke-width": 2,
        "stroke-opacity": 1
      },
      "geometry": {
        "type": "LineString",
        "coordinates": [
          [
            150.4475,
            -27.24917
          ],
          [
            151.94805715,
            -27.51028072
          ],
          [
            152.88361,
            -27.98667
          ],
          [
            152.61389,
            -26.29861
          ],
          [
            141.81389,
            -18.16806
          ]
        ]
      }
    },
    {
      "type": "Feature",
      "properties": {
        "iteration": 2,
        "reference_number": "47749",
        "place_name": "Tara",
        "lga_name": "Western Downs Regional",
        "sequence": 1,
        "marker-color": "#3cb44b"
      },
      "geometry": {
        "type": "Point",
        "coordinates": [
          150.4475,
          -27.24917
        ]
      }
    },
    {
      "type": "Feature",
      "properties": {
        "iteration": 2,
        "reference_number": "52629",
        "place_name": "Mount Kynoch",
        "lga_name": "Toowoomba Regional",
        "sequence": 2,
        "marker-color": "#3cb44b"
      },
      "geometry": {
        "type": "Point",
        "coordinates": [
          151.94805715,
          -27.51028072
        ]
      }
    },
    {
      "type": "Feature",
      "properties": {
        "iteration": 2,
        "reference_number": "49611",
        "place_name": "Bromelton",
        "lga_name": "Scenic Rim Regional",
        "sequence": 3,
        "marker-color": "#3cb44b"
      },
      "geometry": {
        "type": "Point",
        "coordinates": [
          152.88361,
          -27.98667
        ]
      }
    },
    {
      "type": "Feature",
      "properties": {
        "iteration": 2,
        "reference_number": "46363",
        "place_name": "Mooloo",
        "lga_name": "Gympie Regional",
        "sequence": 4,
        "marker-color": "#3cb44b"
      },
      "geometry": {
        "type": "Point",
        "coordinates": [
          152.61389,
          -26.29861
        ]
      }
    },
    {
      "type": "Feature",
      "properties": {
        "iteration": 2,
        "reference_number": "41771",
        "place_name": "Coralie",
        "lga_name": "Croydon Shire",
        "sequence": 5,
        "marker-color": "#3cb44b"
      },
      "geometry": {
        "type": "Point",
        "coordinates": [
          141.81389,
          -18.16806
        ]
      }
    },
    {
      "type": "Feature",
      "properties": {
        "name": "Bounded locality route 3",
        "iteration": 3,
        "point_count": 3,
        "order": [
          "Munruben",
          "Rush Creek",
          "Esk"
        ],
        "stroke": "#4363d8",
        "stroke-width": 2,
        "stroke-opacity": 1
      },
      "geometry": {
        "type": "LineString",
        "coordinates": [
          [
            153.03444,
            -27.74861
          ],
          [
            152.86667,
            -27.205
          ],
          [
            152.41778,
            -27.24833
          ]
        ]
      }
    },
    {
      "type": "Feature",
      "properties": {
        "iteration": 3,
        "reference_number": "48338",
        "place_name": "Munruben",
        "lga_name": "Logan City",
        "sequence": 1,
        "marker-color": "#4363d8"
      },
      "geometry": {
        "type": "Point",
        "coordinates": [
          153.03444,
          -27.74861
        ]
      }
    },
    {
      "type": "Feature",
      "properties": {
        "iteration": 3,
        "reference_number": "45467",
        "place_name": "Rush Creek",
        "lga_name": "Moreton Bay City",
        "sequence": 2,
        "marker-color": "#4363d8"
      },
      "geometry": {
        "type": "Point",
        "coordinates": [
          152.86667,
          -27.205
        ]
      }
    },
    {
      "type": "Feature",
      "properties": {
        "iteration": 3,
        "reference_number": "45517",
        "place_name": "Esk",
        "lga_name": "Somerset Regional",
        "sequence": 3,
        "marker-color": "#4363d8"
      },
      "geometry": {
        "type": "Point",
        "coordinates": [
          152.41778,
          -27.24833
        ]
      }
    },
    {
      "type": "Feature",
      "properties": {
        "name": "Bounded locality route 4",
        "iteration": 4,
        "point_count": 5,
        "order": [
          "Granadilla",
          "Hidden Valley",
          "Kanigan (Gympie Regional)",
          "Laidley South",
          "Upper Pilton (Southern Downs Regional)"
        ],
        "stroke": "#f58231",
        "stroke-width": 2,
        "stroke-opacity": 1
      },
      "geometry": {
        "type": "LineString",
        "coordinates": [
          [
            146.02556,
            -17.86583
          ],
          [
            150.71889,
            -23.16806
          ],
          [
            152.585,
            -25.95722
          ],
          [
            152.38694,
            -27.69111
          ],
          [
            152.12722,
            -27.95194
          ]
        ]
      }
    },
    {
      "type": "Feature",
      "properties": {
        "iteration": 4,
        "reference_number": "45705",
        "place_name": "Granadilla",
        "lga_name": "Cassowary Coast Regional",
        "sequence": 1,
        "marker-color": "#f58231"
      },
      "geometry": {
        "type": "Point",
        "coordinates": [
          146.02556,
          -17.86583
        ]
      }
    },
    {
      "type": "Feature",
      "properties": {
        "iteration": 4,
        "reference_number": "50256",
        "place_name": "Hidden Valley",
        "lga_name": "Livingstone Shire",
        "sequence": 2,
        "marker-color": "#f58231"
      },
      "geometry": {
        "type": "Point",
        "coordinates": [
          150.71889,
          -23.16806
        ]
      }
    },
    {
      "type": "Feature",
      "properties": {
        "iteration": 4,
        "reference_number": "46412",
        "place_name": "Kanigan (Gympie Regional)",
        "lga_name": "Gympie Regional",
        "sequence": 3,
        "marker-color": "#f58231"
      },
      "geometry": {
        "type": "Point",
        "coordinates": [
          152.585,
          -25.95722
        ]
      }
    },
    {
      "type": "Feature",
      "properties": {
        "iteration": 4,
        "reference_number": "52406",
        "place_name": "Laidley South",
        "lga_name": "Lockyer Valley Regional",
        "sequence": 4,
        "marker-color": "#f58231"
      },
      "geometry": {
        "type": "Point",
        "coordinates": [
          152.38694,
          -27.69111
        ]
      }
    },
    {
      "type": "Feature",
      "properties": {
        "iteration": 4,
        "reference_number": "49754",
        "place_name": "Upper Pilton (Southern Downs Regional)",
        "lga_name": "Southern Downs Regional",
        "sequence": 5,
        "marker-color": "#f58231"
      },
      "geometry": {
        "type": "Point",
        "coordinates": [
          152.12722,
          -27.95194
        ]
      }
    },
    {
      "type": "Feature",
      "properties": {
        "name": "Bounded locality route 5",
        "iteration": 5,
        "point_count": 3,
        "order": [
          "Veresdale (Scenic Rim Regional)",
          "Linden",
          "Mount Garnet"
        ],
        "stroke": "#911eb4",
        "stroke-width": 2,
        "stroke-opacity": 1
      },
      "geometry": {
        "type": "LineString",
        "coordinates": [
          [
            153.0075,
            -27.94472
          ],
          [
            146.38806,
            -27.82639
          ],
          [
            145.08556,
            -17.64194
          ]
        ]
      }
    },
    {
      "type": "Feature",
      "properties": {
        "iteration": 5,
        "reference_number": "45199",
        "place_name": "Veresdale (Scenic Rim Regional)",
        "lga_name": "Scenic Rim Regional",
        "sequence": 1,
        "marker-color": "#911eb4"
      },
      "geometry": {
        "type": "Point",
        "coordinates": [
          153.0075,
          -27.94472
        ]
      }
    },
    {
      "type": "Feature",
      "properties": {
        "iteration": 5,
        "reference_number": "42658",
        "place_name": "Linden",
        "lga_name": "Paroo Shire",
        "sequence": 2,
        "marker-color": "#911eb4"
      },
      "geometry": {
        "type": "Point",
        "coordinates": [
          146.38806,
          -27.82639
        ]
      }
    },
    {
      "type": "Feature",
      "properties": {
        "iteration": 5,
        "reference_number": "49795",
        "place_name": "Mount Garnet",
        "lga_name": "Tablelands Regional",
        "sequence": 3,
        "marker-color": "#911eb4"
      },
      "geometry": {
        "type": "Point",
        "coordinates": [
          145.08556,
          -17.64194
        ]
      }
    }
  ]
}