{
  "type": "FeatureCollection",
  "features": [
    {
      "type": "Feature",
      "properties": {
        "name": "Bounded locality route 1",
        "iteration": 1,
        "point_count": 3,
        "order": [
          "Selwyn",
          "Pioneers Rest",
          "Imbil"
        ],
        "stroke": "#e6194b",
        "stroke-width": 2,
        "stroke-opacity": 1
      },
      "geometry": {
        "type": "LineString",
        "coordinates": [
          [
            140.48722,
            -21.84889
          ],
          [
            152.57639,
            -25.66806
          ],
          [
            152.66111,
            -26.48194
          ]
        ]
      }
    },
    {
      "type": "Feature",
      "properties": {
        "iteration": 1,
        "reference_number": "42494",
        "place_name": "Selwyn",
        "lga_name": "Cloncurry Shire",
        "sequence": 1,
        "marker-color": "#e6194b"
      },
      "geometry": {
        "type": "Point",
        "coordinates": [
          140.48722,
          -21.84889
        ]
      }
    },
    {
      "type": "Feature",
      "properties": {
        "iteration": 1,
        "reference_number": "46667",
        "place_name": "Pioneers Rest",
        "lga_name": "Fraser Coast Regional",
        "sequence": 2,
        "marker-color": "#e6194b"
      },
      "geometry": {
        "type": "Point",
        "coordinates": [
          152.57639,
          -25.66806
        ]
      }
    },
    {
      "type": "Feature",
      "properties": {
        "iteration": 1,
        "reference_number": "46340",
        "place_name": "Imbil",
        "lga_name": "Gympie Regional",
        "sequence": 3,
        "marker-color": "#e6194b"
      },
      "geometry": {
        "type": "Point",
        "coordinates": [
          152.66111,
          -26.48194
        ]
      }
    },
    {
      "type": "Feature",
      "properties": {
        "name": "Bounded locality route 2",
        "iteration": 2,
        "point_count": 4,
        "order": [
          "Monogorilby",
          "Iredale",
          "Allandale",
          "Bauhinia (Central Highlands Regional)"
        ],
        "stroke": "#3cb44b",
        "stroke-width": 2,
        "stroke-opacity": 1
      },
      "geometry": {
        "type": "LineString",
        "coordinates": [
          [
            151.04833,
            -25.99694
          ],
          [
            152.10639,
            -27.57944
          ],
          [
            152.76417,
            -28.00611
          ],
          [
            149.27833,
            -24.54194
          ]
        ]
      }
    },
    {
      "type": "Feature",
      "properties": {
        "iteration": 2,
        "reference_number": "45390",
        "place_name": "Monogorilby",
        "lga_name": "North Burnett Regional",
        "sequence": 1,
        "marker-color": "#3cb44b"
      },
      "geometry": {
        "type": "Point",
        "coordinates": [
          151.04833,
          -25.99694
        ]
      }
    },
    {
      "type": "Feature",
      "properties": {
        "iteration": 2,
        "reference_number": "44961",
        "place_name": "Iredale",
        "lga_name": "Lockyer Valley Regional",
        "sequence": 2,
        "marker-color": "#3cb44b"
      },
      "geometry": {
        "type": "Point",
        "coordinates": [
          152.10639,
          -27.57944
        ]
      }
    },
    {
      "type": "Feature",
      "properties": {
        "iteration": 2,
        "reference_number": "45104",
        "place_name": "Allandale",
        "lga_name": "Scenic Rim Regional",
        "sequence": 3,
        "marker-color": "#3cb44b"
      },
      "geometry": {
        "type": "Point",
        "coordinates": [
          152.76417,
          -28.00611
        ]
      }
    },
    {
      "type": "Feature",
      "properties": {
        "iteration": 2,
        "reference_number": "49332",
        "place_name": "Bauhinia (Central Highlands Regional)",
        "lga_name": "Central Highlands Regional",
        "sequence": 4,
        "marker-color": "#3cb44b"
      },
      "geometry": {
        "type": "Point",
        "coordinates": [
          149.27833,
          -24.54194
        ]
      }
    },
    {
      "type": "Feature",
      "properties": {
        "name": "Bounded locality route 3",
        "iteration": 3,
        "point_count": 6,
        "order": [
          "Barringun",
          "Boyneside",
          "Sandy Ridges",
          "Towen Mountain",
          "Upper Tenthill",
          "Yuruga"
        ],
        "stroke": "#4363d8",
        "stroke-width": 2,
        "stroke-opacity": 1
      },
      "geometry": {
        "type": "LineString",
        "coordinates": [
          [
            145.79222,
            -28.86139
          ],
          [
            151.50806,
            -26.70806
          ],
          [
            152.03167,
            -26.51361
          ],
          [
            152.92611,
            -26.64833
          ],
          [
            152.21639,
            -27.65722
          ],
          [
            146.11944,
            -18.85833
          ]
        ]
      }
    },
    {
      "type": "Feature",
      "properties": {
        "iteration": 3,
        "reference_number": "42650",
        "place_name": "Barringun",
        "lga_name": "Paroo Shire",
        "sequence": 1,
        "marker-color": "#4363d8"
      },
      "geometry": {
        "type": "Point",
        "coordinates": [
          145.79222,
          -28.86139
        ]
      }
    },
    {
      "type": "Feature",
      "properties": {
        "iteration": 3,
        "reference_number": "46197",
        "place_name": "Boyneside",
        "lga_name": "South Burnett Regional",
        "sequence": 2,
        "marker-color": "#4363d8"
      },
      "geometry": {
        "type": "Point",
        "coordinates": [
          151.50806,
          -26.70806
        ]
      }
    },
    {
      "type": "Feature",
      "properties": {
        "iteration": 3,
        "reference_number": "46260",
        "place_name": "Sandy Ridges",
        "lga_name": "South Burnett Regional",
        "sequence": 3,
        "marker-color": "#4363d8"
      },
      "geometry": {
        "type": "Point",
        "coordinates": [
          152.03167,
          -26.51361
        ]
      }
    },
    {
      "type": "Feature",
      "properties": {
        "iteration": 3,
        "reference_number": "48905",
        "place_name": "Towen Mountain",
        "lga_name": "Sunshine Coast Regional",
        "sequence": 4,
        "marker-color": "#4363d8"
      },
      "geometry": {
        "type": "Point",
        "coordinates": [
          152.92611,
          -26.64833
        ]
      }
    },
    {
      "type": "Feature",
      "properties": {
        "iteration": 3,
        "reference_number": "44994",
        "place_name": "Upper Tenthill",
        "lga_name": "Lockyer Valley Regional",
        "sequence": 5,
        "marker-color": "#4363d8"
      },
      "geometry": {
        "type": "Point",
        "coordinates": [
          152.21639,
          -27.65722
        ]
      }
    },
    {
      "type": "Feature",
      "properties": {
        "iteration": 3,
        "reference_number": "42533",
        "place_name": "Yuruga",
        "lga_name": "Hinchinbrook Shire",
        "sequence": 6,
        "marker-color": "#4363d8"
      },
      "geometry": {
        "type": "Point",
        "coordinates": [
          146.11944,
          -18.85833
        ]
      }
    },
    {
      "type": "Feature",
      "properties": {
        "name": "Bounded locality route 4",
        "iteration": 4,
        "point_count": 3,
        "order": [
          "Gunalda (Gympie Regional)",
          "Swanfels",
          "Aramac"
        ],
        "stroke": "#f58231",
        "stroke-width": 2,
        "stroke-opacity": 1
      },
      "geometry": {
        "type": "LineString",
        "coordinates": [
          [
            152.59611,
            -25.99917
          ],
          [
            152.31889,
            -28.14056
          ],
          [
            145.38556,
            -22.49472
          ]
        ]
      }
    },
    {
      "type": "Feature",
      "properties": {
        "iteration": 4,
        "reference_number": "49520",
        "place_name": "Gunalda (Gympie Regional)",
        "lga_name": "Gympie Regional",
        "sequence": 1,
        "marker-color": "#f58231"
      },
      "geometry": {
        "type": "Point",
        "coordinates": [
          152.59611,
          -25.99917
        ]
      }
    },
    {
      "type": "Feature",
      "properties": {
        "iteration": 4,
        "reference_number": "45983",
        "place_name": "Swanfels",
        "lga_name": "Southern Downs Regional",
        "sequence": 2,
        "marker-color": "#f58231"
      },
      "geometry": {
        "type": "Point",
        "coordinates": [
          152.31889,
          -28.14056
        ]
      }
    },
    {
      "type": "Feature",
      "properties": {
        "iteration": 4,
        "reference_number": "52305",
        "place_name": "Aramac",
        "lga_name": "Barcaldine Regional",
        "sequence": 3,
        "marker-color": "#f58231"
      },
      "geometry": {
        "type": "Point",
        "coordinates": [
          145.38556,
          -22.49472
        ]
      }
    },
    {
      "type": "Feature",
      "properties": {
        "name": "Bounded locality route 5",
        "iteration": 5,
        "point_count": 6,
        "order": [
          "Charlestown",
          "Cooloolabin",
          "Toogoom",
          "Boulder Creek",
          "East Feluga",
          "Gilbert River"
        ],
        "stroke": "#911eb4",
        "stroke-width": 2,
        "stroke-opacity": 1
      },
      "geometry": {
        "type": "LineString",
        "coordinates": [
          [
            151.91667,
            -26.36667
          ],
          [
            152.90111,
            -26.54
          ],
          [
            152.68444,
            -25.25667
          ],
          [
            150.31583,
            -23.67194
          ],
          [
            145.99389,
            -17.89611
          ],
          [
            142.75306,
            -18.25611
          ]
        ]
      }
    },
    {
      "type": "Feature",
      "properties": {
        "iteration": 5,
        "reference_number": "46204",
        "place_name": "Charlestown",
        "lga_name": "South Burnett Regional",
        "sequence": 1,
        "marker-color": "#911eb4"
      },
      "geometry": {
        "type": "Point",
        "coordinates": [
          151.91667,
          -26.36667
        ]
      }
    },
    {
      "type": "Feature",
      "properties": {
        "iteration": 5,
        "reference_number": "49803",
        "place_name": "Cooloolabin",
        "lga_name": "Sunshine Coast Regional",
        "sequence": 2,
        "marker-color": "#911eb4"
      },
      "geometry": {
        "type": "Point",
        "coordinates": [
          152.90111,
          -26.54
        ]
      }
    },
    {
      "type": "Feature",
      "properties": {
        "iteration": 5,
        "reference_number": "46682",
        "place_name": "Toogoom",
        "lga_name": "Fraser Coast Regional",
        "sequence": 3,
        "marker-color": "#911eb4"
      },
      "geometry": {
        "type": "Point",
        "coordinates": [
          152.68444,
          -25.25667
        ]
      }
    },
    {
      "type": "Feature",
      "properties": {
        "iteration": 5,
        "reference_number": "48539",
        "place_name": "Boulder Creek",
        "lga_name": "Rockhampton Regional",
        "sequence": 4,
        "marker-color": "#911eb4"
      },
      "geometry": {
        "type": "Point",
        "coordinates": [
          150.31583,
          -23.67194
        ]
      }
    },
    {
      "type": "Feature",
      "properties": {
        "iteration": 5,
        "reference_number": "45669",
        "place_name": "East Feluga",
        "lga_name": "Cassowary Coast Regional",
        "sequence": 5,
        "marker-color": "#911eb4"
      },
      "geometry": {
        "type": "Point",
        "coordinates": [
          145.99389,
          -17.89611
        ]
      }
    },
    {
      "type": "Feature",
      "properties": {
        "iteration": 5,
        "reference_number": "41664",
        "place_name": "Gilbert River",
        "lga_name": "Etheridge Shire",
        "sequence": 6,
        "marker-color": "#911eb4"
      },
      "geometry": {
        "type": "Point",
        "coordinates": [
          142.75306,
          -18.25611
        ]
      }
    }
  ]
}