{
  "type": "FeatureCollection",
  "features": [
    {
      "type": "Feature",
      "properties": {
        "name": "Bounded locality route 1",
        "iteration": 1,
        "point_count": 3,
        "order": [
          "Carnarvon Park",
          "Lethebrook",
          "Washpool"
        ]
      },
      "geometry": {
        "type": "LineString",
        "coordinates": [
          [
            147.87333,
            -24.71833
          ],
          [
            148.6475,
            -20.53944
          ],
          [
            152.7675,
            -27.83722
          ]
        ]
      }
    },
    {
      "type": "Feature",
      "properties": {
        "iteration": 1,
        "reference_number": "46926",
        "place_name": "Carnarvon Park",
        "lga_name": "Central Highlands Regional",
        "sequence": 1
      },
      "geometry": {
        "type": "Point",
        "coordinates": [
          147.87333,
          -24.71833
        ]
      }
    },
    {
      "type": "Feature",
      "properties": {
        "iteration": 1,
        "reference_number": "46882",
        "place_name": "Lethebrook",
        "lga_name": "Whitsunday Regional",
        "sequence": 2
      },
      "geometry": {
        "type": "Point",
        "coordinates": [
          148.6475,
          -20.53944
        ]
      }
    },
    {
      "type": "Feature",
      "properties": {
        "iteration": 1,
        "reference_number": "45205",
        "place_name": "Washpool",
        "lga_name": "Scenic Rim Regional",
        "sequence": 3
      },
      "geometry": {
        "type": "Point",
        "coordinates": [
          152.7675,
          -27.83722
        ]
      }
    },
    {
      "type": "Feature",
      "properties": {
        "name": "Bounded locality route 2",
        "iteration": 2,
        "point_count": 4,
        "order": [
          "Abbeywood",
          "Undullah (Scenic Rim Regional)",
          "Ballaroo",
          "Erakala"
        ]
      },
      "geometry": {
        "type": "LineString",
        "coordinates": [
          [
            151.64556,
            -26.10389
          ],
          [
            152.8425,
            -27.86917
          ],
          [
            148.62222,
            -27.11444
          ],
          [
            149.11556,
            -21.13222
          ]
        ]
      }
    },
    {
      "type": "Feature",
      "properties": {
        "iteration": 2,
        "reference_number": "46185",
        "place_name": "Abbeywood",
        "lga_name": "South Burnett Regional",
        "sequence": 1
      },
      "geometry": {
        "type": "Point",
        "coordinates": [
          151.64556,
          -26.10389
        ]
      }
    },
    {
      "type": "Feature",
      "properties": {
        "iteration": 2,
        "reference_number": "45201",
        "place_name": "Undullah (Scenic Rim Regional)",
        "lga_name": "Scenic Rim Regional",
        "sequence": 2
      },
      "geometry": {
        "type": "Point",
        "coordinates": [
          152.8425,
          -27.86917
        ]
      }
    },
    {
      "type": "Feature",
      "properties": {
        "iteration": 2,
        "reference_number": "47408",
        "place_name": "Ballaroo",
        "lga_name": "Maranoa Regional",
        "sequence": 3
      },
      "geometry": {
        "type": "Point",
        "coordinates": [
          148.62222,
          -27.11444
        ]
      }
    },
    {
      "type": "Feature",
      "properties": {
        "iteration": 2,
        "reference_number": "48432",
        "place_name": "Erakala",
        "lga_name": "Mackay Regional",
        "sequence": 4
      },
      "geometry": {
        "type": "Point",
        "coordinates": [
          149.11556,
          -21.13222
        ]
      }
    },
    {
      "type": "Feature",
      "properties": {
        "name": "Bounded locality route 3",
        "iteration": 3,
        "point_count": 6,
        "order": [
          "Oakey",
          "Tinnanbar",
          "Walliebum",
          "Silver Creek",
          "Kurrimine Beach",
          "Barron Gorge"
        ]
      },
      "geometry": {
        "type": "LineString",
        "coordinates": [
          [
            151.705,
            -27.45083
          ],
          [
            152.96222,
            -25.775
          ],
          [
            152.71778,
            -25.42333
          ],
          [
            148.47667,
            -20.47472
          ],
          [
            146.09861,
            -17.76833
          ],
          [
            145.66444,
            -16.88167
          ]
        ]
      }
    },
    {
      "type": "Feature",
      "properties": {
        "iteration": 3,
        "reference_number": "49179",
        "place_name": "Oakey",
        "lga_name": "Toowoomba Regional",
        "sequence": 1
      },
      "geometry": {
        "type": "Point",
        "coordinates": [
          151.705,
          -27.45083
        ]
      }
    },
    {
      "type": "Feature",
      "properties": {
        "iteration": 3,
        "reference_number": "46681",
        "place_name": "Tinnanbar",
        "lga_name": "Fraser Coast Regional",
        "sequence": 2
      },
      "geometry": {
        "type": "Point",
        "coordinates": [
          152.96222,
          -25.775
        ]
      }
    },
    {
      "type": "Feature",
      "properties": {
        "iteration": 3,
        "reference_number": "46689",
        "place_name": "Walliebum",
        "lga_name": "Fraser Coast Regional",
        "sequence": 3
      },
      "geometry": {
        "type": "Point",
        "coordinates": [
          152.71778,
          -25.42333
        ]
      }
    },
    {
      "type": "Feature",
      "properties": {
        "iteration": 3,
        "reference_number": "46899",
        "place_name": "Silver Creek",
        "lga_name": "Whitsunday Regional",
        "sequence": 4
      },
      "geometry": {
        "type": "Point",
        "coordinates": [
          148.47667,
          -20.47472
        ]
      }
    },
    {
      "type": "Feature",
      "properties": {
        "iteration": 3,
        "reference_number": "45718",
        "place_name": "Kurrimine Beach",
        "lga_name": "Cassowary Coast Regional",
        "sequence": 5
      },
      "geometry": {
        "type": "Point",
        "coordinates": [
          146.09861,
          -17.76833
        ]
      }
    },
    {
      "type": "Feature",
      "properties": {
        "iteration": 3,
        "reference_number": "48514",
        "place_name": "Barron Gorge",
        "lga_name": "Cairns Regional",
        "sequence": 6
      },
      "geometry": {
        "type": "Point",
        "coordinates": [
          145.66444,
          -16.88167
        ]
      }
    },
    {
      "type": "Feature",
      "properties": {
        "name": "Bounded locality route 4",
        "iteration": 4,
        "point_count": 3,
        "order": [
          "North Gregory",
          "Ban Ban",
          "Wellington Point"
        ]
      },
      "geometry": {
        "type": "LineString",
        "coordinates": [
          [
            152.28861,
            -25.05111
          ],
          [
            151.82889,
            -25.70528
          ],
          [
            153.23583,
            -27.49806
          ]
        ]
      }
    },
    {
      "type": "Feature",
      "properties": {
        "iteration": 4,
        "reference_number": "48972",
        "place_name": "North Gregory",
        "lga_name": "Bundaberg Regional",
        "sequence": 1
      },
      "geometry": {
        "type": "Point",
        "coordinates": [
          152.28861,
          -25.05111
        ]
      }
    },
    {
      "type": "Feature",
      "properties": {
        "iteration": 4,
        "reference_number": "45312",
        "place_name": "Ban Ban",
        "lga_name": "North Burnett Regional",
        "sequence": 2
      },
      "geometry": {
        "type": "Point",
        "coordinates": [
          151.82889,
          -25.70528
        ]
      }
    },
    {
      "type": "Feature",
      "properties": {
        "iteration": 4,
        "reference_number": "43638",
        "place_name": "Wellington Point",
        "lga_name": "Redland City",
        "sequence": 3
      },
      "geometry": {
        "type": "Point",
        "coordinates": [
          153.23583,
          -27.49806
        ]
      }
    },
    {
      "type": "Feature",
      "properties": {
        "name": "Bounded locality route 5",
        "iteration": 5,
        "point_count": 4,
        "order": [
          "New Auckland",
          "Glen Esk",
          "Pilton",
          "Flinton"
        ]
      },
      "geometry": {
        "type": "LineString",
        "coordinates": [
          [
            151.23667,
            -23.88361
          ],
          [
            152.45528,
            -27.22333
          ],
          [
            152.07111,
            -27.8775
          ],
          [
            149.5775,
            -27.85361
          ]
        ]
      }
    },
    {
      "type": "Feature",
      "properties": {
        "iteration": 5,
        "reference_number": "48331",
        "place_name": "New Auckland",
        "lga_name": "Gladstone Regional",
        "sequence": 1
      },
      "geometry": {
        "type": "Point",
        "coordinates": [
          151.23667,
          -23.88361
        ]
      }
    },
    {
      "type": "Feature",
      "properties": {
        "iteration": 5,
        "reference_number": "45518",
        "place_name": "Glen Esk",
        "lga_name": "Somerset Regional",
        "sequence": 2
      },
      "geometry": {
        "type": "Point",
        "coordinates": [
          152.45528,
          -27.22333
        ]
      }
    },
    {
      "type": "Feature",
      "properties": {
        "iteration": 5,
        "reference_number": "48038",
        "place_name": "Pilton",
        "lga_name": "Toowoomba Regional",
        "sequence": 3
      },
      "geometry": {
        "type": "Point",
        "coordinates": [
          152.07111,
          -27.8775
        ]
      }
    },
    {
      "type": "Feature",
      "properties": {
        "iteration": 5,
        "reference_number": "50014",
        "place_name": "Flinton",
        "lga_name": "Western Downs Regional",
        "sequence": 4
      },
      "geometry": {
        "type": "Point",
        "coordinates": [
          149.5775,
          -27.85361
        ]
      }
    }
  ]
}