{
  "type": "FeatureCollection",
  "features": [
    {
      "type": "Feature",
      "properties": {
        "name": "Bounded locality route 1",
        "iteration": 1,
        "point_count": 6,
        "order": [
          "Ilbilbie",
          "Jardine",
          "Elliott",
          "Coolabine",
          "Braemeadows",
          "Bellfield"
        ],
        "stroke": "#e6194b",
        "stroke-width": 2,
        "stroke-opacity": 1
      },
      "geometry": {
        "type": "LineString",
        "coordinates": [
          [
            149.39806,
            -21.70194
          ],
          [
            150.40194,
            -23.05694
          ],
          [
            152.27806,
            -25.00472
          ],
          [
            152.78444,
            -26.59833
          ],
          [
            146.2625,
            -18.64861
          ],
          [
            143.185,
            -19.30583
          ]
        ]
      }
    },
    {
      "type": "Feature",
      "properties": {
        "iteration": 1,
        "reference_number": "49758",
        "place_name": "Ilbilbie",
        "lga_name": "Isaac Regional",
        "sequence": 1,
        "marker-color": "#e6194b"
      },
      "geometry": {
        "type": "Point",
        "coordinates": [
          149.39806,
          -21.70194
        ]
      }
    },
    {
      "type": "Feature",
      "properties": {
        "iteration": 1,
        "reference_number": "48683",
        "place_name": "Jardine",
        "lga_name": "Livingstone Shire",
        "sequence": 2,
        "marker-color": "#e6194b"
      },
      "geometry": {
        "type": "Point",
        "coordinates": [
          150.40194,
          -23.05694
        ]
      }
    },
    {
      "type": "Feature",
      "properties": {
        "iteration": 1,
        "reference_number": "48971",
        "place_name": "Elliott",
        "lga_name": "Bundaberg Regional",
        "sequence": 3,
        "marker-color": "#e6194b"
      },
      "geometry": {
        "type": "Point",
        "coordinates": [
          152.27806,
          -25.00472
        ]
      }
    },
    {
      "type": "Feature",
      "properties": {
        "iteration": 1,
        "reference_number": "48578",
        "place_name": "Coolabine",
        "lga_name": "Sunshine Coast Regional",
        "sequence": 4,
        "marker-color": "#e6194b"
      },
      "geometry": {
        "type": "Point",
        "coordinates": [
          152.78444,
          -26.59833
        ]
      }
    },
    {
      "type": "Feature",
      "properties": {
        "iteration": 1,
        "reference_number": "48286",
        "place_name": "Braemeadows",
        "lga_name": "Hinchinbrook Shire",
        "sequence": 5,
        "marker-color": "#e6194b"
      },
      "geometry": {
        "type": "Point",
        "coordinates": [
          146.2625,
          -18.64861
        ]
      }
    },
    {
      "type": "Feature",
      "properties": {
        "iteration": 1,
        "reference_number": "43183",
        "place_name": "Bellfield",
        "lga_name": "Croydon Shire",
        "sequence": 6,
        "marker-color": "#e6194b"
      },
      "geometry": {
        "type": "Point",
        "coordinates": [
          143.185,
          -19.30583
        ]
      }
    },
    {
      "type": "Feature",
      "properties": {
        "name": "Bounded locality route 2",
        "iteration": 2,
        "point_count": 5,
        "order": [
          "Purga",
          "Caffey",
          "Pie Creek",
          "Pacific Haven",
          "Blackdown"
        ],
        "stroke": "#3cb44b",
        "stroke-width": 2,
        "stroke-opacity": 1
      },
      "geometry": {
        "type": "LineString",
        "coordinates": [
          [
            152.71306,
            -27.69833
          ],
          [
            152.2125,
            -27.69694
          ],
          [
            152.61944,
            -26.24167
          ],
          [
            152.55528,
            -25.26778
          ],
          [
            149.12611,
            -23.89306
          ]
        ]
      }
    },
    {
      "type": "Feature",
      "properties": {
        "iteration": 2,
        "reference_number": "45070",
        "place_name": "Purga",
        "lga_name": "Ipswich City",
        "sequence": 1,
        "marker-color": "#3cb44b"
      },
      "geometry": {
        "type": "Point",
        "coordinates": [
          152.71306,
          -27.69833
        ]
      }
    },
    {
      "type": "Feature",
      "properties": {
        "iteration": 2,
        "reference_number": "44947",
        "place_name": "Caffey",
        "lga_name": "Lockyer Valley Regional",
        "sequence": 2,
        "marker-color": "#3cb44b"
      },
      "geometry": {
        "type": "Point",
        "coordinates": [
          152.2125,
          -27.69694
        ]
      }
    },
    {
      "type": "Feature",
      "properties": {
        "iteration": 2,
        "reference_number": "46373",
        "place_name": "Pie Creek",
        "lga_name": "Gympie Regional",
        "sequence": 3,
        "marker-color": "#3cb44b"
      },
      "geometry": {
        "type": "Point",
        "coordinates": [
          152.61944,
          -26.24167
        ]
      }
    },
    {
      "type": "Feature",
      "properties": {
        "iteration": 2,
        "reference_number": "46665",
        "place_name": "Pacific Haven",
        "lga_name": "Fraser Coast Regional",
        "sequence": 4,
        "marker-color": "#3cb44b"
      },
      "geometry": {
        "type": "Point",
        "coordinates": [
          152.55528,
          -25.26778
        ]
      }
    },
    {
      "type": "Feature",
      "properties": {
        "iteration": 2,
        "reference_number": "46917",
        "place_name": "Blackdown",
        "lga_name": "Central Highlands Regional",
        "sequence": 5,
        "marker-color": "#3cb44b"
      },
      "geometry": {
        "type": "Point",
        "coordinates": [
          149.12611,
          -23.89306
        ]
      }
    },
    {
      "type": "Feature",
      "properties": {
        "name": "Bounded locality route 3",
        "iteration": 3,
        "point_count": 6,
        "order": [
          "Humphery",
          "Booral",
          "Highgrove",
          "Mount Kynoch",
          "Amiens",
          "Moregatta"
        ],
        "stroke": "#4363d8",
        "stroke-width": 2,
        "stroke-opacity": 1
      },
      "geometry": {
        "type": "LineString",
        "coordinates": [
          [
            151.47333,
            -25.60667
          ],
          [
            152.89,
            -25.35389
          ],
          [
            151.7675,
            -27.10889
          ],
          [
            151.94805715,
            -27.51028072
          ],
          [
            151.81639,
            -28.59861
          ],
          [
            145.58194,
            -17.49139
          ]
        ]
      }
    },
    {
      "type": "Feature",
      "properties": {
        "iteration": 3,
        "reference_number": "47369",
        "place_name": "Humphery",
        "lga_name": "North Burnett Regional",
        "sequence": 1,
        "marker-color": "#4363d8"
      },
      "geometry": {
        "type": "Point",
        "coordinates": [
          151.47333,
          -25.60667
        ]
      }
    },
    {
      "type": "Feature",
      "properties": {
        "iteration": 3,
        "reference_number": "46633",
        "place_name": "Booral",
        "lga_name": "Fraser Coast Regional",
        "sequence": 2,
        "marker-color": "#4363d8"
      },
      "geometry": {
        "type": "Point",
        "coordinates": [
          152.89,
          -25.35389
        ]
      }
    },
    {
      "type": "Feature",
      "properties": {
        "iteration": 3,
        "reference_number": "47968",
        "place_name": "Highgrove",
        "lga_name": "Toowoomba Regional",
        "sequence": 3,
        "marker-color": "#4363d8"
      },
      "geometry": {
        "type": "Point",
        "coordinates": [
          151.7675,
          -27.10889
        ]
      }
    },
    {
      "type": "Feature",
      "properties": {
        "iteration": 3,
        "reference_number": "52629",
        "place_name": "Mount Kynoch",
        "lga_name": "Toowoomba Regional",
        "sequence": 4,
        "marker-color": "#4363d8"
      },
      "geometry": {
        "type": "Point",
        "coordinates": [
          151.94805715,
          -27.51028072
        ]
      }
    },
    {
      "type": "Feature",
      "properties": {
        "iteration": 3,
        "reference_number": "50091",
        "place_name": "Amiens",
        "lga_name": "Southern Downs Regional",
        "sequence": 5,
        "marker-color": "#4363d8"
      },
      "geometry": {
        "type": "Point",
        "coordinates": [
          151.81639,
          -28.59861
        ]
      }
    },
    {
      "type": "Feature",
      "properties": {
        "iteration": 3,
        "reference_number": "48773",
        "place_name": "Moregatta",
        "lga_name": "Tablelands Regional",
        "sequence": 6,
        "marker-color": "#4363d8"
      },
      "geometry": {
        "type": "Point",
        "coordinates": [
          145.58194,
          -17.49139
        ]
      }
    },
    {
      "type": "Feature",
      "properties": {
        "name": "Bounded locality route 4",
        "iteration": 4,
        "point_count": 3,
        "order": [
          "Jinghi",
          "Macalister",
          "Wowan"
        ],
        "stroke": "#f58231",
        "stroke-width": 2,
        "stroke-opacity": 1
      },
      "geometry": {
        "type": "LineString",
        "coordinates": [
          [
            151.10694,
            -26.64472
          ],
          [
            151.06972,
            -27.035
          ],
          [
            150.16333,
            -23.93694
          ]
        ]
      }
    },
    {
      "type": "Feature",
      "properties": {
        "iteration": 4,
        "reference_number": "47717",
        "place_name": "Jinghi",
        "lga_name": "Western Downs Regional",
        "sequence": 1,
        "marker-color": "#f58231"
      },
      "geometry": {
        "type": "Point",
        "coordinates": [
          151.10694,
          -26.64472
        ]
      }
    },
    {
      "type": "Feature",
      "properties": {
        "iteration": 4,
        "reference_number": "49274",
        "place_name": "Macalister",
        "lga_name": "Western Downs Regional",
        "sequence": 2,
        "marker-color": "#f58231"
      },
      "geometry": {
        "type": "Point",
        "coordinates": [
          151.06972,
          -27.035
        ]
      }
    },
    {
      "type": "Feature",
      "properties": {
        "iteration": 4,
        "reference_number": "49581",
        "place_name": "Wowan",
        "lga_name": "Banana Shire",
        "sequence": 3,
        "marker-color": "#f58231"
      },
      "geometry": {
        "type": "Point",
        "coordinates": [
          150.16333,
          -23.93694
        ]
      }
    },
    {
      "type": "Feature",
      "properties": {
        "name": "Bounded locality route 5",
        "iteration": 5,
        "point_count": 6,
        "order": [
          "Swan Creek",
          "Pratten",
          "Riverleigh",
          "Coringa",
          "Pacific Heights",
          "St Helens Beach"
        ],
        "stroke": "#911eb4",
        "stroke-width": 2,
        "stroke-opacity": 1
      },
      "geometry": {
        "type": "LineString",
        "coordinates": [
          [
            152.14111,
            -28.19806
          ],
          [
            151.74611,
            -28.09139
          ],
          [
            151.22333,
            -25.58444
          ],
          [
            151.965,
            -25.3775
          ],
          [
            150.73306,
            -23.10028
          ],
          [
            148.78778,
            -20.85361
          ]
        ]
      }
    },
    {
      "type": "Feature",
      "properties": {
        "iteration": 5,
        "reference_number": "45982",
        "place_name": "Swan Creek",
        "lga_name": "Southern Downs Regional",
        "sequence": 1,
        "marker-color": "#911eb4"
      },
      "geometry": {
        "type": "Point",
        "coordinates": [
          152.14111,
          -28.19806
        ]
      }
    },
    {
      "type": "Feature",
      "properties": {
        "iteration": 5,
        "reference_number": "45969",
        "place_name": "Pratten",
        "lga_name": "Southern Downs Regional",
        "sequence": 2,
        "marker-color": "#911eb4"
      },
      "geometry": {
        "type": "Point",
        "coordinates": [
          151.74611,
          -28.09139
        ]
      }
    },
    {
      "type": "Feature",
      "properties": {
        "iteration": 5,
        "reference_number": "45413",
        "place_name": "Riverleigh",
        "lga_name": "North Burnett Regional",
        "sequence": 3,
        "marker-color": "#911eb4"
      },
      "geometry": {
        "type": "Point",
        "coordinates": [
          151.22333,
          -25.58444
        ]
      }
    },
    {
      "type": "Feature",
      "properties": {
        "iteration": 5,
        "reference_number": "45336",
        "place_name": "Coringa",
        "lga_name": "North Burnett Regional",
        "sequence": 4,
        "marker-color": "#911eb4"
      },
      "geometry": {
        "type": "Point",
        "coordinates": [
          151.965,
          -25.3775
        ]
      }
    },
    {
      "type": "Feature",
      "properties": {
        "iteration": 5,
        "reference_number": "48820",
        "place_name": "Pacific Heights",
        "lga_name": "Livingstone Shire",
        "sequence": 5,
        "marker-color": "#911eb4"
      },
      "geometry": {
        "type": "Point",
        "coordinates": [
          150.73306,
          -23.10028
        ]
      }
    },
    {
      "type": "Feature",
      "properties": {
        "iteration": 5,
        "reference_number": "46841",
        "place_name": "St Helens Beach",
        "lga_name": "Mackay Regional",
        "sequence": 6,
        "marker-color": "#911eb4"
      },
      "geometry": {
        "type": "Point",
        "coordinates": [
          148.78778,
          -20.85361
        ]
      }
    }
  ]
}