{
  "type": "FeatureCollection",
  "features": [
    {
      "type": "Feature",
      "properties": {
        "name": "Bounded locality route 1",
        "iteration": 1,
        "point_count": 3,
        "order": [
          "North Isis",
          "Kurwongbah",
          "The Falls"
        ]
      },
      "geometry": {
        "type": "LineString",
        "coordinates": [
          [
            152.27056,
            -25.17333
          ],
          [
            152.91944,
            -27.22556
          ],
          [
            152.39472,
            -28.31722
          ]
        ]
      }
    },
    {
      "type": "Feature",
      "properties": {
        "iteration": 1,
        "reference_number": "47654",
        "place_name": "North Isis",
        "lga_name": "Bundaberg Regional",
        "sequence": 1
      },
      "geometry": {
        "type": "Point",
        "coordinates": [
          152.27056,
          -25.17333
        ]
      }
    },
    {
      "type": "Feature",
      "properties": {
        "iteration": 1,
        "reference_number": "49810",
        "place_name": "Kurwongbah",
        "lga_name": "Moreton Bay City",
        "sequence": 2
      },
      "geometry": {
        "type": "Point",
        "coordinates": [
          152.91944,
          -27.22556
        ]
      }
    },
    {
      "type": "Feature",
      "properties": {
        "iteration": 1,
        "reference_number": "50082",
        "place_name": "The Falls",
        "lga_name": "Southern Downs Regional",
        "sequence": 3
      },
      "geometry": {
        "type": "Point",
        "coordinates": [
          152.39472,
          -28.31722
        ]
      }
    },
    {
      "type": "Feature",
      "properties": {
        "name": "Bounded locality route 2",
        "iteration": 2,
        "point_count": 3,
        "order": [
          "Hivesville",
          "Elliott",
          "Coorumbene"
        ]
      },
      "geometry": {
        "type": "LineString",
        "coordinates": [
          [
            151.69417,
            -26.17528
          ],
          [
            152.27806,
            -25.00472
          ],
          [
            148.74861,
            -24.55944
          ]
        ]
      }
    },
    {
      "type": "Feature",
      "properties": {
        "iteration": 2,
        "reference_number": "46225",
        "place_name": "Hivesville",
        "lga_name": "South Burnett Regional",
        "sequence": 1
      },
      "geometry": {
        "type": "Point",
        "coordinates": [
          151.69417,
          -26.17528
        ]
      }
    },
    {
      "type": "Feature",
      "properties": {
        "iteration": 2,
        "reference_number": "48971",
        "place_name": "Elliott",
        "lga_name": "Bundaberg Regional",
        "sequence": 2
      },
      "geometry": {
        "type": "Point",
        "coordinates": [
          152.27806,
          -25.00472
        ]
      }
    },
    {
      "type": "Feature",
      "properties": {
        "iteration": 2,
        "reference_number": "46943",
        "place_name": "Coorumbene",
        "lga_name": "Central Highlands Regional",
        "sequence": 3
      },
      "geometry": {
        "type": "Point",
        "coordinates": [
          148.74861,
          -24.55944
        ]
      }
    },
    {
      "type": "Feature",
      "properties": {
        "name": "Bounded locality route 3",
        "iteration": 3,
        "point_count": 6,
        "order": [
          "Ball Bay",
          "Etty Bay",
          "Isisford",
          "Sturt (Boulia Shire)",
          "Jimbour West",
          "Borallon"
        ]
      },
      "geometry": {
        "type": "LineString",
        "coordinates": [
          [
            148.98722,
            -20.92944
          ],
          [
            146.08167,
            -17.56528
          ],
          [
            144.16389,
            -24.57167
          ],
          [
            138.25306,
            -23.30361
          ],
          [
            151.0925,
            -26.875
          ],
          [
            152.70111,
            -27.5025
          ]
        ]
      }
    },
    {
      "type": "Feature",
      "properties": {
        "iteration": 3,
        "reference_number": "46758",
        "place_name": "Ball Bay",
        "lga_name": "Mackay Regional",
        "sequence": 1
      },
      "geometry": {
        "type": "Point",
        "coordinates": [
          148.98722,
          -20.92944
        ]
      }
    },
    {
      "type": "Feature",
      "properties": {
        "iteration": 3,
        "reference_number": "45696",
        "place_name": "Etty Bay",
        "lga_name": "Cassowary Coast Regional",
        "sequence": 2
      },
      "geometry": {
        "type": "Point",
        "coordinates": [
          146.08167,
          -17.56528
        ]
      }
    },
    {
      "type": "Feature",
      "properties": {
        "iteration": 3,
        "reference_number": "52076",
        "place_name": "Isisford",
        "lga_name": "Longreach Regional",
        "sequence": 3
      },
      "geometry": {
        "type": "Point",
        "coordinates": [
          144.16389,
          -24.57167
        ]
      }
    },
    {
      "type": "Feature",
      "properties": {
        "iteration": 3,
        "reference_number": "42337",
        "place_name": "Sturt (Boulia Shire)",
        "lga_name": "Boulia Shire",
        "sequence": 4
      },
      "geometry": {
        "type": "Point",
        "coordinates": [
          138.25306,
          -23.30361
        ]
      }
    },
    {
      "type": "Feature",
      "properties": {
        "iteration": 3,
        "reference_number": "47716",
        "place_name": "Jimbour West",
        "lga_name": "Western Downs Regional",
        "sequence": 5
      },
      "geometry": {
        "type": "Point",
        "coordinates": [
          151.0925,
          -26.875
        ]
      }
    },
    {
      "type": "Feature",
      "properties": {
        "iteration": 3,
        "reference_number": "48319",
        "place_name": "Borallon",
        "lga_name": "Somerset Regional",
        "sequence": 6
      },
      "geometry": {
        "type": "Point",
        "coordinates": [
          152.70111,
          -27.5025
        ]
      }
    },
    {
      "type": "Feature",
      "properties": {
        "name": "Bounded locality route 4",
        "iteration": 4,
        "point_count": 5,
        "order": [
          "Jimbour West",
          "Anduramba",
          "Ballard",
          "Frazerview",
          "Greenvale"
        ]
      },
      "geometry": {
        "type": "LineString",
        "coordinates": [
          [
            151.0925,
            -26.875
          ],
          [
            152.11917,
            -27.07
          ],
          [
            151.98056,
            -27.49944
          ],
          [
            152.52167,
            -27.9375
          ],
          [
            145.12,
            -18.92778
          ]
        ]
      }
    },
    {
      "type": "Feature",
      "properties": {
        "iteration": 4,
        "reference_number": "47716",
        "place_name": "Jimbour West",
        "lga_name": "Western Downs Regional",
        "sequence": 1
      },
      "geometry": {
        "type": "Point",
        "coordinates": [
          151.0925,
          -26.875
        ]
      }
    },
    {
      "type": "Feature",
      "properties": {
        "iteration": 4,
        "reference_number": "47883",
        "place_name": "Anduramba",
        "lga_name": "Toowoomba Regional",
        "sequence": 2
      },
      "geometry": {
        "type": "Point",
        "coordinates": [
          152.11917,
          -27.07
        ]
      }
    },
    {
      "type": "Feature",
      "properties": {
        "iteration": 4,
        "reference_number": "52409",
        "place_name": "Ballard",
        "lga_name": "Lockyer Valley Regional",
        "sequence": 3
      },
      "geometry": {
        "type": "Point",
        "coordinates": [
          151.98056,
          -27.49944
        ]
      }
    },
    {
      "type": "Feature",
      "properties": {
        "iteration": 4,
        "reference_number": "45141",
        "place_name": "Frazerview",
        "lga_name": "Scenic Rim Regional",
        "sequence": 4
      },
      "geometry": {
        "type": "Point",
        "coordinates": [
          152.52167,
          -27.9375
        ]
      }
    },
    {
      "type": "Feature",
      "properties": {
        "iteration": 4,
        "reference_number": "49759",
        "place_name": "Greenvale",
        "lga_name": "Charters Towers Regional",
        "sequence": 5
      },
      "geometry": {
        "type": "Point",
        "coordinates": [
          145.12,
          -18.92778
        ]
      }
    },
    {
      "type": "Feature",
      "properties": {
        "name": "Bounded locality route 5",
        "iteration": 5,
        "point_count": 6,
        "order": [
          "Ironpot (Livingstone Shire)",
          "Dululu",
          "Monal",
          "Tuchekoi",
          "Broughton",
          "Danbulla"
        ]
      },
      "geometry": {
        "type": "LineString",
        "coordinates": [
          [
            150.59972,
            -23.27
          ],
          [
            150.27528,
            -23.84722
          ],
          [
            151.14833,
            -24.63306
          ],
          [
            152.76639,
            -26.40639
          ],
          [
            146.32556,
            -20.09778
          ],
          [
            145.62889,
            -17.15667
          ]
        ]
      }
    },
    {
      "type": "Feature",
      "properties": {
        "iteration": 5,
        "reference_number": "49339",
        "place_name": "Ironpot (Livingstone Shire)",
        "lga_name": "Livingstone Shire",
        "sequence": 1
      },
      "geometry": {
        "type": "Point",
        "coordinates": [
          150.59972,
          -23.27
        ]
      }
    },
    {
      "type": "Feature",
      "properties": {
        "iteration": 5,
        "reference_number": "49547",
        "place_name": "Dululu",
        "lga_name": "Banana Shire",
        "sequence": 2
      },
      "geometry": {
        "type": "Point",
        "coordinates": [
          150.27528,
          -23.84722
        ]
      }
    },
    {
      "type": "Feature",
      "properties": {
        "iteration": 5,
        "reference_number": "45389",
        "place_name": "Monal",
        "lga_name": "North Burnett Regional",
        "sequence": 3
      },
      "geometry": {
        "type": "Point",
        "coordinates": [
          151.14833,
          -24.63306
        ]
      }
    },
    {
      "type": "Feature",
      "properties": {
        "iteration": 5,
        "reference_number": "46390",
        "place_name": "Tuchekoi",
        "lga_name": "Gympie Regional",
        "sequence": 4
      },
      "geometry": {
        "type": "Point",
        "coordinates": [
          152.76639,
          -26.40639
        ]
      }
    },
    {
      "type": "Feature",
      "properties": {
        "iteration": 5,
        "reference_number": "52260",
        "place_name": "Broughton",
        "lga_name": "Charters Towers Regional",
        "sequence": 5
      },
      "geometry": {
        "type": "Point",
        "coordinates": [
          146.32556,
          -20.09778
        ]
      }
    },
    {
      "type": "Feature",
      "properties": {
        "iteration": 5,
        "reference_number": "50210",
        "place_name": "Danbulla",
        "lga_name": "Tablelands Regional",
        "sequence": 6
      },
      "geometry": {
        "type": "Point",
        "coordinates": [
          145.62889,
          -17.15667
        ]
      }
    }
  ]
}