{
  "type": "FeatureCollection",
  "features": [
    {
      "type": "Feature",
      "properties": {
        "name": "Bounded locality route 1",
        "iteration": 1,
        "point_count": 3,
        "order": [
          "Mooloolah Valley",
          "Euleilah",
          "Savannah"
        ],
        "stroke": "#e6194b",
        "stroke-width": 2,
        "stroke-opacity": 1
      },
      "geometry": {
        "type": "LineString",
        "coordinates": [
          [
            152.96333,
            -26.7625
          ],
          [
            151.85694,
            -24.49167
          ],
          [
            141.87889,
            -19.21583
          ]
        ]
      }
    },
    {
      "type": "Feature",
      "properties": {
        "iteration": 1,
        "reference_number": "48769",
        "place_name": "Mooloolah Valley",
        "lga_name": "Sunshine Coast Regional",
        "sequence": 1,
        "marker-color": "#e6194b"
      },
      "geometry": {
        "type": "Point",
        "coordinates": [
          152.96333,
          -26.7625
        ]
      }
    },
    {
      "type": "Feature",
      "properties": {
        "iteration": 1,
        "reference_number": "46605",
        "place_name": "Euleilah",
        "lga_name": "Gladstone Regional",
        "sequence": 2,
        "marker-color": "#e6194b"
      },
      "geometry": {
        "type": "Point",
        "coordinates": [
          151.85694,
          -24.49167
        ]
      }
    },
    {
      "type": "Feature",
      "properties": {
        "iteration": 1,
        "reference_number": "42917",
        "place_name": "Savannah",
        "lga_name": "Carpentaria Shire",
        "sequence": 3,
        "marker-color": "#e6194b"
      },
      "geometry": {
        "type": "Point",
        "coordinates": [
          141.87889,
          -19.21583
        ]
      }
    },
    {
      "type": "Feature",
      "properties": {
        "name": "Bounded locality route 2",
        "iteration": 2,
        "point_count": 3,
        "order": [
          "Wetheron",
          "Greycliffe",
          "Canungra"
        ],
        "stroke": "#3cb44b",
        "stroke-width": 2,
        "stroke-opacity": 1
      },
      "geometry": {
        "type": "LineString",
        "coordinates": [
          [
            151.70944,
            -25.50528
          ],
          [
            150.29611,
            -24.23
          ],
          [
            153.13583,
            -28.03806
          ]
        ]
      }
    },
    {
      "type": "Feature",
      "properties": {
        "iteration": 2,
        "reference_number": "45424",
        "place_name": "Wetheron",
        "lga_name": "North Burnett Regional",
        "sequence": 1,
        "marker-color": "#3cb44b"
      },
      "geometry": {
        "type": "Point",
        "coordinates": [
          151.70944,
          -25.50528
        ]
      }
    },
    {
      "type": "Feature",
      "properties": {
        "iteration": 2,
        "reference_number": "49786",
        "place_name": "Greycliffe",
        "lga_name": "Banana Shire",
        "sequence": 2,
        "marker-color": "#3cb44b"
      },
      "geometry": {
        "type": "Point",
        "coordinates": [
          150.29611,
          -24.23
        ]
      }
    },
    {
      "type": "Feature",
      "properties": {
        "iteration": 2,
        "reference_number": "52643",
        "place_name": "Canungra",
        "lga_name": "Scenic Rim Regional",
        "sequence": 3,
        "marker-color": "#3cb44b"
      },
      "geometry": {
        "type": "Point",
        "coordinates": [
          153.13583,
          -28.03806
        ]
      }
    },
    {
      "type": "Feature",
      "properties": {
        "name": "Bounded locality route 3",
        "iteration": 3,
        "point_count": 6,
        "order": [
          "Drillham",
          "Gungaloon",
          "Mulambin",
          "Pinnacle",
          "Warburton",
          "Storm King"
        ],
        "stroke": "#4363d8",
        "stroke-width": 2,
        "stroke-opacity": 1
      },
      "geometry": {
        "type": "LineString",
        "coordinates": [
          [
            149.92139,
            -26.63083
          ],
          [
            152.46139,
            -25.52
          ],
          [
            150.80667,
            -23.19056
          ],
          [
            148.68694,
            -21.21194
          ],
          [
            140.91694,
            -22.46167
          ],
          [
            151.97972,
            -28.72611
          ]
        ]
      }
    },
    {
      "type": "Feature",
      "properties": {
        "iteration": 3,
        "reference_number": "47692",
        "place_name": "Drillham",
        "lga_name": "Western Downs Regional",
        "sequence": 1,
        "marker-color": "#4363d8"
      },
      "geometry": {
        "type": "Point",
        "coordinates": [
          149.92139,
          -26.63083
        ]
      }
    },
    {
      "type": "Feature",
      "properties": {
        "iteration": 3,
        "reference_number": "46654",
        "place_name": "Gungaloon",
        "lga_name": "Fraser Coast Regional",
        "sequence": 2,
        "marker-color": "#4363d8"
      },
      "geometry": {
        "type": "Point",
        "coordinates": [
          152.46139,
          -25.52
        ]
      }
    },
    {
      "type": "Feature",
      "properties": {
        "iteration": 3,
        "reference_number": "48794",
        "place_name": "Mulambin",
        "lga_name": "Livingstone Shire",
        "sequence": 3,
        "marker-color": "#4363d8"
      },
      "geometry": {
        "type": "Point",
        "coordinates": [
          150.80667,
          -23.19056
        ]
      }
    },
    {
      "type": "Feature",
      "properties": {
        "iteration": 3,
        "reference_number": "46931",
        "place_name": "Pinnacle",
        "lga_name": "Mackay Regional",
        "sequence": 4,
        "marker-color": "#4363d8"
      },
      "geometry": {
        "type": "Point",
        "coordinates": [
          148.68694,
          -21.21194
        ]
      }
    },
    {
      "type": "Feature",
      "properties": {
        "iteration": 3,
        "reference_number": "42346",
        "place_name": "Warburton",
        "lga_name": "Boulia Shire",
        "sequence": 5,
        "marker-color": "#4363d8"
      },
      "geometry": {
        "type": "Point",
        "coordinates": [
          140.91694,
          -22.46167
        ]
      }
    },
    {
      "type": "Feature",
      "properties": {
        "iteration": 3,
        "reference_number": "45979",
        "place_name": "Storm King",
        "lga_name": "Southern Downs Regional",
        "sequence": 6,
        "marker-color": "#4363d8"
      },
      "geometry": {
        "type": "Point",
        "coordinates": [
          151.97972,
          -28.72611
        ]
      }
    },
    {
      "type": "Feature",
      "properties": {
        "name": "Bounded locality route 4",
        "iteration": 4,
        "point_count": 6,
        "order": [
          "Bergen",
          "Vinegar Hill",
          "Felton",
          "Montrose (Southern Downs Regional)",
          "Broadmere",
          "Moranbah"
        ],
        "stroke": "#f58231",
        "stroke-width": 2,
        "stroke-opacity": 1
      },
      "geometry": {
        "type": "LineString",
        "coordinates": [
          [
            151.92083,
            -27.24
          ],
          [
            152.26,
            -27.46611
          ],
          [
            151.73722,
            -27.74917
          ],
          [
            151.7775,
            -28.16028
          ],
          [
            149.555,
            -25.49778
          ],
          [
            147.87972,
            -21.94194
          ]
        ]
      }
    },
    {
      "type": "Feature",
      "properties": {
        "iteration": 4,
        "reference_number": "49255",
        "place_name": "Bergen",
        "lga_name": "Toowoomba Regional",
        "sequence": 1,
        "marker-color": "#f58231"
      },
      "geometry": {
        "type": "Point",
        "coordinates": [
          151.92083,
          -27.24
        ]
      }
    },
    {
      "type": "Feature",
      "properties": {
        "iteration": 4,
        "reference_number": "44996",
        "place_name": "Vinegar Hill",
        "lga_name": "Lockyer Valley Regional",
        "sequence": 2,
        "marker-color": "#f58231"
      },
      "geometry": {
        "type": "Point",
        "coordinates": [
          152.26,
          -27.46611
        ]
      }
    },
    {
      "type": "Feature",
      "properties": {
        "iteration": 4,
        "reference_number": "49261",
        "place_name": "Felton",
        "lga_name": "Toowoomba Regional",
        "sequence": 3,
        "marker-color": "#f58231"
      },
      "geometry": {
        "type": "Point",
        "coordinates": [
          151.73722,
          -27.74917
        ]
      }
    },
    {
      "type": "Feature",
      "properties": {
        "iteration": 4,
        "reference_number": "45953",
        "place_name": "Montrose (Southern Downs Regional)",
        "lga_name": "Southern Downs Regional",
        "sequence": 4,
        "marker-color": "#f58231"
      },
      "geometry": {
        "type": "Point",
        "coordinates": [
          151.7775,
          -28.16028
        ]
      }
    },
    {
      "type": "Feature",
      "properties": {
        "iteration": 4,
        "reference_number": "49538",
        "place_name": "Broadmere",
        "lga_name": "Banana Shire",
        "sequence": 5,
        "marker-color": "#f58231"
      },
      "geometry": {
        "type": "Point",
        "coordinates": [
          149.555,
          -25.49778
        ]
      }
    },
    {
      "type": "Feature",
      "properties": {
        "iteration": 4,
        "reference_number": "49384",
        "place_name": "Moranbah",
        "lga_name": "Isaac Regional",
        "sequence": 6,
        "marker-color": "#f58231"
      },
      "geometry": {
        "type": "Point",
        "coordinates": [
          147.87972,
          -21.94194
        ]
      }
    },
    {
      "type": "Feature",
      "properties": {
        "name": "Bounded locality route 5",
        "iteration": 5,
        "point_count": 5,
        "order": [
          "Napranum",
          "Elphinstone (Isaac Regional)",
          "Murphys Creek",
          "Laidley Heights",
          "Southbrook"
        ],
        "stroke": "#911eb4",
        "stroke-width": 2,
        "stroke-opacity": 1
      },
      "geometry": {
        "type": "LineString",
        "coordinates": [
          [
            141.88833333,
            -12.68222222
          ],
          [
            148.185,
            -21.47972
          ],
          [
            152.03194,
            -27.46
          ],
          [
            152.36889,
            -27.62917
          ],
          [
            151.73944,
            -27.69139
          ]
        ]
      }
    },
    {
      "type": "Feature",
      "properties": {
        "iteration": 5,
        "reference_number": "52665",
        "place_name": "Napranum",
        "lga_name": "Napranum Aboriginal Shire",
        "sequence": 1,
        "marker-color": "#911eb4"
      },
      "geometry": {
        "type": "Point",
        "coordinates": [
          141.88833333,
          -12.68222222
        ]
      }
    },
    {
      "type": "Feature",
      "properties": {
        "iteration": 5,
        "reference_number": "47043",
        "place_name": "Elphinstone (Isaac Regional)",
        "lga_name": "Isaac Regional",
        "sequence": 2,
        "marker-color": "#911eb4"
      },
      "geometry": {
        "type": "Point",
        "coordinates": [
          148.185,
          -21.47972
        ]
      }
    },
    {
      "type": "Feature",
      "properties": {
        "iteration": 5,
        "reference_number": "50110",
        "place_name": "Murphys Creek",
        "lga_name": "Lockyer Valley Regional",
        "sequence": 3,
        "marker-color": "#911eb4"
      },
      "geometry": {
        "type": "Point",
        "coordinates": [
          152.03194,
          -27.46
        ]
      }
    },
    {
      "type": "Feature",
      "properties": {
        "iteration": 5,
        "reference_number": "44966",
        "place_name": "Laidley Heights",
        "lga_name": "Lockyer Valley Regional",
        "sequence": 4,
        "marker-color": "#911eb4"
      },
      "geometry": {
        "type": "Point",
        "coordinates": [
          152.36889,
          -27.62917
        ]
      }
    },
    {
      "type": "Feature",
      "properties": {
        "iteration": 5,
        "reference_number": "48062",
        "place_name": "Southbrook",
        "lga_name": "Toowoomba Regional",
        "sequence": 5,
        "marker-color": "#911eb4"
      },
      "geometry": {
        "type": "Point",
        "coordinates": [
          151.73944,
          -27.69139
        ]
      }
    }
  ]
}