{
  "type": "FeatureCollection",
  "features": [
    {
      "type": "Feature",
      "properties": {
        "name": "Bounded locality route 1",
        "iteration": 1,
        "point_count": 5,
        "order": [
          "Mount Macarthur",
          "Brooloo",
          "Munbilla",
          "Morgan Park",
          "Silverwood"
        ],
        "stroke": "#e6194b",
        "stroke-width": 2,
        "stroke-opacity": 1
      },
      "geometry": {
        "type": "LineString",
        "coordinates": [
          [
            148.21444,
            -22.90028
          ],
          [
            152.70556,
            -26.50833
          ],
          [
            152.65306,
            -27.88278
          ],
          [
            152.04278,
            -28.25806
          ],
          [
            152.00722,
            -28.35083
          ]
        ]
      }
    },
    {
      "type": "Feature",
      "properties": {
        "iteration": 1,
        "reference_number": "46967",
        "place_name": "Mount Macarthur",
        "lga_name": "Central Highlands Regional",
        "sequence": 1,
        "marker-color": "#e6194b"
      },
      "geometry": {
        "type": "Point",
        "coordinates": [
          148.21444,
          -22.90028
        ]
      }
    },
    {
      "type": "Feature",
      "properties": {
        "iteration": 1,
        "reference_number": "46310",
        "place_name": "Brooloo",
        "lga_name": "Gympie Regional",
        "sequence": 2,
        "marker-color": "#e6194b"
      },
      "geometry": {
        "type": "Point",
        "coordinates": [
          152.70556,
          -26.50833
        ]
      }
    },
    {
      "type": "Feature",
      "properties": {
        "iteration": 1,
        "reference_number": "45175",
        "place_name": "Munbilla",
        "lga_name": "Scenic Rim Regional",
        "sequence": 3,
        "marker-color": "#e6194b"
      },
      "geometry": {
        "type": "Point",
        "coordinates": [
          152.65306,
          -27.88278
        ]
      }
    },
    {
      "type": "Feature",
      "properties": {
        "iteration": 1,
        "reference_number": "45954",
        "place_name": "Morgan Park",
        "lga_name": "Southern Downs Regional",
        "sequence": 4,
        "marker-color": "#e6194b"
      },
      "geometry": {
        "type": "Point",
        "coordinates": [
          152.04278,
          -28.25806
        ]
      }
    },
    {
      "type": "Feature",
      "properties": {
        "iteration": 1,
        "reference_number": "45974",
        "place_name": "Silverwood",
        "lga_name": "Southern Downs Regional",
        "sequence": 5,
        "marker-color": "#e6194b"
      },
      "geometry": {
        "type": "Point",
        "coordinates": [
          152.00722,
          -28.35083
        ]
      }
    },
    {
      "type": "Feature",
      "properties": {
        "name": "Bounded locality route 2",
        "iteration": 2,
        "point_count": 5,
        "order": [
          "Kimberley",
          "Mount Peter",
          "Groper Creek",
          "Wateranga",
          "Boondooma"
        ],
        "stroke": "#3cb44b",
        "stroke-width": 2,
        "stroke-opacity": 1
      },
      "geometry": {
        "type": "LineString",
        "coordinates": [
          [
            145.4575,
            -16.27472
          ],
          [
            145.73722,
            -17.06278
          ],
          [
            147.57111,
            -19.69667
          ],
          [
            151.83028,
            -25.38167
          ],
          [
            151.21778,
            -26.15667
          ]
        ]
      }
    },
    {
      "type": "Feature",
      "properties": {
        "iteration": 2,
        "reference_number": "48702",
        "place_name": "Kimberley",
        "lga_name": "Douglas Shire",
        "sequence": 1,
        "marker-color": "#3cb44b"
      },
      "geometry": {
        "type": "Point",
        "coordinates": [
          145.4575,
          -16.27472
        ]
      }
    },
    {
      "type": "Feature",
      "properties": {
        "iteration": 2,
        "reference_number": "50119",
        "place_name": "Mount Peter",
        "lga_name": "Cairns Regional",
        "sequence": 2,
        "marker-color": "#3cb44b"
      },
      "geometry": {
        "type": "Point",
        "coordinates": [
          145.73722,
          -17.06278
        ]
      }
    },
    {
      "type": "Feature",
      "properties": {
        "iteration": 2,
        "reference_number": "49457",
        "place_name": "Groper Creek",
        "lga_name": "Burdekin Shire",
        "sequence": 3,
        "marker-color": "#3cb44b"
      },
      "geometry": {
        "type": "Point",
        "coordinates": [
          147.57111,
          -19.69667
        ]
      }
    },
    {
      "type": "Feature",
      "properties": {
        "iteration": 2,
        "reference_number": "45423",
        "place_name": "Wateranga",
        "lga_name": "North Burnett Regional",
        "sequence": 4,
        "marker-color": "#3cb44b"
      },
      "geometry": {
        "type": "Point",
        "coordinates": [
          151.83028,
          -25.38167
        ]
      }
    },
    {
      "type": "Feature",
      "properties": {
        "iteration": 2,
        "reference_number": "46287",
        "place_name": "Boondooma",
        "lga_name": "South Burnett Regional",
        "sequence": 5,
        "marker-color": "#3cb44b"
      },
      "geometry": {
        "type": "Point",
        "coordinates": [
          151.21778,
          -26.15667
        ]
      }
    },
    {
      "type": "Feature",
      "properties": {
        "name": "Bounded locality route 3",
        "iteration": 3,
        "point_count": 3,
        "order": [
          "Boigu Island",
          "Peacock Siding",
          "Ridgewood"
        ],
        "stroke": "#4363d8",
        "stroke-width": 2,
        "stroke-opacity": 1
      },
      "geometry": {
        "type": "LineString",
        "coordinates": [
          [
            142.21278,
            -9.25944
          ],
          [
            146.00611,
            -18.69194
          ],
          [
            152.83361,
            -26.46111
          ]
        ]
      }
    },
    {
      "type": "Feature",
      "properties": {
        "iteration": 3,
        "reference_number": "46701",
        "place_name": "Boigu Island",
        "lga_name": "Torres Strait Island Regional",
        "sequence": 1,
        "marker-color": "#4363d8"
      },
      "geometry": {
        "type": "Point",
        "coordinates": [
          142.21278,
          -9.25944
        ]
      }
    },
    {
      "type": "Feature",
      "properties": {
        "iteration": 3,
        "reference_number": "42526",
        "place_name": "Peacock Siding",
        "lga_name": "Hinchinbrook Shire",
        "sequence": 2,
        "marker-color": "#4363d8"
      },
      "geometry": {
        "type": "Point",
        "coordinates": [
          146.00611,
          -18.69194
        ]
      }
    },
    {
      "type": "Feature",
      "properties": {
        "iteration": 3,
        "reference_number": "48855",
        "place_name": "Ridgewood",
        "lga_name": "Noosa Shire",
        "sequence": 3,
        "marker-color": "#4363d8"
      },
      "geometry": {
        "type": "Point",
        "coordinates": [
          152.83361,
          -26.46111
        ]
      }
    },
    {
      "type": "Feature",
      "properties": {
        "name": "Bounded locality route 4",
        "iteration": 4,
        "point_count": 4,
        "order": [
          "Leslie",
          "Bybera",
          "Walterhall",
          "Wooroonooran (Cassowary Coast Regional)"
        ],
        "stroke": "#f58231",
        "stroke-width": 2,
        "stroke-opacity": 1
      },
      "geometry": {
        "type": "LineString",
        "coordinates": [
          [
            151.91667,
            -28.1725
          ],
          [
            150.93917,
            -28.2675
          ],
          [
            150.38333,
            -23.62917
          ],
          [
            145.78083,
            -17.55667
          ]
        ]
      }
    },
    {
      "type": "Feature",
      "properties": {
        "iteration": 4,
        "reference_number": "45945",
        "place_name": "Leslie",
        "lga_name": "Southern Downs Regional",
        "sequence": 1,
        "marker-color": "#f58231"
      },
      "geometry": {
        "type": "Point",
        "coordinates": [
          151.91667,
          -28.1725
        ]
      }
    },
    {
      "type": "Feature",
      "properties": {
        "iteration": 4,
        "reference_number": "47801",
        "place_name": "Bybera",
        "lga_name": "Goondiwindi Regional",
        "sequence": 2,
        "marker-color": "#f58231"
      },
      "geometry": {
        "type": "Point",
        "coordinates": [
          150.93917,
          -28.2675
        ]
      }
    },
    {
      "type": "Feature",
      "properties": {
        "iteration": 4,
        "reference_number": "48919",
        "place_name": "Walterhall",
        "lga_name": "Rockhampton Regional",
        "sequence": 3,
        "marker-color": "#f58231"
      },
      "geometry": {
        "type": "Point",
        "coordinates": [
          150.38333,
          -23.62917
        ]
      }
    },
    {
      "type": "Feature",
      "properties": {
        "iteration": 4,
        "reference_number": "45771",
        "place_name": "Wooroonooran (Cassowary Coast Regional)",
        "lga_name": "Cassowary Coast Regional",
        "sequence": 4,
        "marker-color": "#f58231"
      },
      "geometry": {
        "type": "Point",
        "coordinates": [
          145.78083,
          -17.55667
        ]
      }
    },
    {
      "type": "Feature",
      "properties": {
        "name": "Bounded locality route 5",
        "iteration": 5,
        "point_count": 5,
        "order": [
          "Cotherstone",
          "Captain Creek",
          "Condamine Plains",
          "Junction View",
          "Sarabah"
        ],
        "stroke": "#911eb4",
        "stroke-width": 2,
        "stroke-opacity": 1
      },
      "geometry": {
        "type": "LineString",
        "coordinates": [
          [
            148.27444,
            -22.78806
          ],
          [
            151.77917,
            -24.28611
          ],
          [
            151.28333,
            -27.66667
          ],
          [
            152.18306,
            -27.81083
          ],
          [
            153.12028,
            -28.11889
          ]
        ]
      }
    },
    {
      "type": "Feature",
      "properties": {
        "iteration": 5,
        "reference_number": "46944",
        "place_name": "Cotherstone",
        "lga_name": "Central Highlands Regional",
        "sequence": 1,
        "marker-color": "#911eb4"
      },
      "geometry": {
        "type": "Point",
        "coordinates": [
          148.27444,
          -22.78806
        ]
      }
    },
    {
      "type": "Feature",
      "properties": {
        "iteration": 5,
        "reference_number": "46598",
        "place_name": "Captain Creek",
        "lga_name": "Gladstone Regional",
        "sequence": 2,
        "marker-color": "#911eb4"
      },
      "geometry": {
        "type": "Point",
        "coordinates": [
          151.77917,
          -24.28611
        ]
      }
    },
    {
      "type": "Feature",
      "properties": {
        "iteration": 5,
        "reference_number": "49370",
        "place_name": "Condamine Plains",
        "lga_name": "Toowoomba Regional",
        "sequence": 3,
        "marker-color": "#911eb4"
      },
      "geometry": {
        "type": "Point",
        "coordinates": [
          151.28333,
          -27.66667
        ]
      }
    },
    {
      "type": "Feature",
      "properties": {
        "iteration": 5,
        "reference_number": "44962",
        "place_name": "Junction View",
        "lga_name": "Lockyer Valley Regional",
        "sequence": 4,
        "marker-color": "#911eb4"
      },
      "geometry": {
        "type": "Point",
        "coordinates": [
          152.18306,
          -27.81083
        ]
      }
    },
    {
      "type": "Feature",
      "properties": {
        "iteration": 5,
        "reference_number": "45186",
        "place_name": "Sarabah",
        "lga_name": "Scenic Rim Regional",
        "sequence": 5,
        "marker-color": "#911eb4"
      },
      "geometry": {
        "type": "Point",
        "coordinates": [
          153.12028,
          -28.11889
        ]
      }
    }
  ]
}