{
  "type": "FeatureCollection",
  "features": [
    {
      "type": "Feature",
      "properties": {
        "name": "Bounded locality route 1",
        "iteration": 1,
        "point_count": 3,
        "order": [
          "Kaban",
          "Weribone",
          "Lower Wonga"
        ],
        "stroke": "#e6194b",
        "stroke-width": 2,
        "stroke-opacity": 1
      },
      "geometry": {
        "type": "LineString",
        "coordinates": [
          [
            145.38194,
            -17.50778
          ],
          [
            148.88222,
            -27.20389
          ],
          [
            152.47139,
            -26.10528
          ]
        ]
      }
    },
    {
      "type": "Feature",
      "properties": {
        "iteration": 1,
        "reference_number": "48687",
        "place_name": "Kaban",
        "lga_name": "Tablelands Regional",
        "sequence": 1,
        "marker-color": "#e6194b"
      },
      "geometry": {
        "type": "Point",
        "coordinates": [
          145.38194,
          -17.50778
        ]
      }
    },
    {
      "type": "Feature",
      "properties": {
        "iteration": 1,
        "reference_number": "49174",
        "place_name": "Weribone",
        "lga_name": "Maranoa Regional",
        "sequence": 2,
        "marker-color": "#e6194b"
      },
      "geometry": {
        "type": "Point",
        "coordinates": [
          148.88222,
          -27.20389
        ]
      }
    },
    {
      "type": "Feature",
      "properties": {
        "iteration": 1,
        "reference_number": "52337",
        "place_name": "Lower Wonga",
        "lga_name": "Gympie Regional",
        "sequence": 3,
        "marker-color": "#e6194b"
      },
      "geometry": {
        "type": "Point",
        "coordinates": [
          152.47139,
          -26.10528
        ]
      }
    },
    {
      "type": "Feature",
      "properties": {
        "name": "Bounded locality route 2",
        "iteration": 2,
        "point_count": 5,
        "order": [
          "Oman Ama",
          "Prince Henry Heights",
          "White Mountain",
          "Nukku",
          "Fairyland"
        ],
        "stroke": "#3cb44b",
        "stroke-width": 2,
        "stroke-opacity": 1
      },
      "geometry": {
        "type": "LineString",
        "coordinates": [
          [
            151.33528,
            -28.42194
          ],
          [
            151.99389,
            -27.55278
          ],
          [
            152.11889,
            -27.44361
          ],
          [
            152.08028,
            -26.86778
          ],
          [
            150.93361,
            -26.52806
          ]
        ]
      }
    },
    {
      "type": "Feature",
      "properties": {
        "iteration": 2,
        "reference_number": "49281",
        "place_name": "Oman Ama",
        "lga_name": "Goondiwindi Regional",
        "sequence": 1,
        "marker-color": "#3cb44b"
      },
      "geometry": {
        "type": "Point",
        "coordinates": [
          151.33528,
          -28.42194
        ]
      }
    },
    {
      "type": "Feature",
      "properties": {
        "iteration": 2,
        "reference_number": "48043",
        "place_name": "Prince Henry Heights",
        "lga_name": "Toowoomba Regional",
        "sequence": 2,
        "marker-color": "#3cb44b"
      },
      "geometry": {
        "type": "Point",
        "coordinates": [
          151.99389,
          -27.55278
        ]
      }
    },
    {
      "type": "Feature",
      "properties": {
        "iteration": 2,
        "reference_number": "44998",
        "place_name": "White Mountain",
        "lga_name": "Lockyer Valley Regional",
        "sequence": 3,
        "marker-color": "#3cb44b"
      },
      "geometry": {
        "type": "Point",
        "coordinates": [
          152.11889,
          -27.44361
        ]
      }
    },
    {
      "type": "Feature",
      "properties": {
        "iteration": 2,
        "reference_number": "46253",
        "place_name": "Nukku",
        "lga_name": "South Burnett Regional",
        "sequence": 4,
        "marker-color": "#3cb44b"
      },
      "geometry": {
        "type": "Point",
        "coordinates": [
          152.08028,
          -26.86778
        ]
      }
    },
    {
      "type": "Feature",
      "properties": {
        "iteration": 2,
        "reference_number": "47698",
        "place_name": "Fairyland",
        "lga_name": "Western Downs Regional",
        "sequence": 5,
        "marker-color": "#3cb44b"
      },
      "geometry": {
        "type": "Point",
        "coordinates": [
          150.93361,
          -26.52806
        ]
      }
    },
    {
      "type": "Feature",
      "properties": {
        "name": "Bounded locality route 3",
        "iteration": 3,
        "point_count": 3,
        "order": [
          "Mount Enniskillen",
          "Widgee",
          "Maleny"
        ],
        "stroke": "#4363d8",
        "stroke-width": 2,
        "stroke-opacity": 1
      },
      "geometry": {
        "type": "LineString",
        "coordinates": [
          [
            146.05611,
            -24.67139
          ],
          [
            152.42,
            -26.21639
          ],
          [
            152.8525,
            -26.75583
          ]
        ]
      }
    },
    {
      "type": "Feature",
      "properties": {
        "iteration": 3,
        "reference_number": "47064",
        "place_name": "Mount Enniskillen",
        "lga_name": "Blackall-Tambo Regional",
        "sequence": 1,
        "marker-color": "#4363d8"
      },
      "geometry": {
        "type": "Point",
        "coordinates": [
          146.05611,
          -24.67139
        ]
      }
    },
    {
      "type": "Feature",
      "properties": {
        "iteration": 3,
        "reference_number": "46397",
        "place_name": "Widgee",
        "lga_name": "Gympie Regional",
        "sequence": 2,
        "marker-color": "#4363d8"
      },
      "geometry": {
        "type": "Point",
        "coordinates": [
          152.42,
          -26.21639
        ]
      }
    },
    {
      "type": "Feature",
      "properties": {
        "iteration": 3,
        "reference_number": "52217",
        "place_name": "Maleny",
        "lga_name": "Sunshine Coast Regional",
        "sequence": 3,
        "marker-color": "#4363d8"
      },
      "geometry": {
        "type": "Point",
        "coordinates": [
          152.8525,
          -26.75583
        ]
      }
    },
    {
      "type": "Feature",
      "properties": {
        "name": "Bounded locality route 4",
        "iteration": 4,
        "point_count": 4,
        "order": [
          "Waverley",
          "Toonpan",
          "Inkerman",
          "Bloomfield (Cook Shire)"
        ],
        "stroke": "#f58231",
        "stroke-width": 2,
        "stroke-opacity": 1
      },
      "geometry": {
        "type": "LineString",
        "coordinates": [
          [
            139.00917,
            -21.57694
          ],
          [
            146.87194,
            -19.50389
          ],
          [
            147.49111,
            -19.71083
          ],
          [
            145.32806,
            -15.85222
          ]
        ]
      }
    },
    {
      "type": "Feature",
      "properties": {
        "iteration": 4,
        "reference_number": "42348",
        "place_name": "Waverley",
        "lga_name": "Boulia Shire",
        "sequence": 1,
        "marker-color": "#f58231"
      },
      "geometry": {
        "type": "Point",
        "coordinates": [
          139.00917,
          -21.57694
        ]
      }
    },
    {
      "type": "Feature",
      "properties": {
        "iteration": 4,
        "reference_number": "44646",
        "place_name": "Toonpan",
        "lga_name": "Townsville City",
        "sequence": 2,
        "marker-color": "#f58231"
      },
      "geometry": {
        "type": "Point",
        "coordinates": [
          146.87194,
          -19.50389
        ]
      }
    },
    {
      "type": "Feature",
      "properties": {
        "iteration": 4,
        "reference_number": "49586",
        "place_name": "Inkerman",
        "lga_name": "Burdekin Shire",
        "sequence": 3,
        "marker-color": "#f58231"
      },
      "geometry": {
        "type": "Point",
        "coordinates": [
          147.49111,
          -19.71083
        ]
      }
    },
    {
      "type": "Feature",
      "properties": {
        "iteration": 4,
        "reference_number": "46122",
        "place_name": "Bloomfield (Cook Shire)",
        "lga_name": "Cook Shire",
        "sequence": 4,
        "marker-color": "#f58231"
      },
      "geometry": {
        "type": "Point",
        "coordinates": [
          145.32806,
          -15.85222
        ]
      }
    },
    {
      "type": "Feature",
      "properties": {
        "name": "Bounded locality route 5",
        "iteration": 5,
        "point_count": 4,
        "order": [
          "Warra",
          "Westmar",
          "Eubenangee (Cassowary Coast Regional)",
          "South Wellesley Islands"
        ],
        "stroke": "#911eb4",
        "stroke-width": 2,
        "stroke-opacity": 1
      },
      "geometry": {
        "type": "LineString",
        "coordinates": [
          [
            150.94417,
            -26.92639
          ],
          [
            149.75722,
            -27.8825
          ],
          [
            145.97444,
            -17.45333
          ],
          [
            139.36333,
            -17.00389
          ]
        ]
      }
    },
    {
      "type": "Feature",
      "properties": {
        "iteration": 5,
        "reference_number": "47755",
        "place_name": "Warra",
        "lga_name": "Western Downs Regional",
        "sequence": 1,
        "marker-color": "#911eb4"
      },
      "geometry": {
        "type": "Point",
        "coordinates": [
          150.94417,
          -26.92639
        ]
      }
    },
    {
      "type": "Feature",
      "properties": {
        "iteration": 5,
        "reference_number": "47758",
        "place_name": "Westmar",
        "lga_name": "Western Downs Regional",
        "sequence": 2,
        "marker-color": "#911eb4"
      },
      "geometry": {
        "type": "Point",
        "coordinates": [
          149.75722,
          -27.8825
        ]
      }
    },
    {
      "type": "Feature",
      "properties": {
        "iteration": 5,
        "reference_number": "45579",
        "place_name": "Eubenangee (Cassowary Coast Regional)",
        "lga_name": "Cassowary Coast Regional",
        "sequence": 3,
        "marker-color": "#911eb4"
      },
      "geometry": {
        "type": "Point",
        "coordinates": [
          145.97444,
          -17.45333
        ]
      }
    },
    {
      "type": "Feature",
      "properties": {
        "iteration": 5,
        "reference_number": "42537",
        "place_name": "South Wellesley Islands",
        "lga_name": "",
        "sequence": 4,
        "marker-color": "#911eb4"
      },
      "geometry": {
        "type": "Point",
        "coordinates": [
          139.36333,
          -17.00389
        ]
      }
    }
  ]
}