{
  "type": "FeatureCollection",
  "features": [
    {
      "type": "Feature",
      "properties": {
        "name": "Bounded locality route 1",
        "iteration": 1,
        "point_count": 5,
        "order": [
          "Watsons Crossing",
          "Punchs Creek",
          "Pirrinuan",
          "Blackswamp",
          "O'Bil Bil"
        ]
      },
      "geometry": {
        "type": "LineString",
        "coordinates": [
          [
            151.32556,
            -29.1125
          ],
          [
            151.4,
            -27.98333
          ],
          [
            151.23778,
            -27.0475
          ],
          [
            150.52667,
            -26.57667
          ],
          [
            151.25528,
            -25.52611
          ]
        ]
      }
    },
    {
      "type": "Feature",
      "properties": {
        "iteration": 1,
        "reference_number": "47835",
        "place_name": "Watsons Crossing",
        "lga_name": "Goondiwindi Regional",
        "sequence": 1
      },
      "geometry": {
        "type": "Point",
        "coordinates": [
          151.32556,
          -29.1125
        ]
      }
    },
    {
      "type": "Feature",
      "properties": {
        "iteration": 1,
        "reference_number": "48044",
        "place_name": "Punchs Creek",
        "lga_name": "Toowoomba Regional",
        "sequence": 2
      },
      "geometry": {
        "type": "Point",
        "coordinates": [
          151.4,
          -27.98333
        ]
      }
    },
    {
      "type": "Feature",
      "properties": {
        "iteration": 1,
        "reference_number": "49276",
        "place_name": "Pirrinuan",
        "lga_name": "Western Downs Regional",
        "sequence": 3
      },
      "geometry": {
        "type": "Point",
        "coordinates": [
          151.23778,
          -27.0475
        ]
      }
    },
    {
      "type": "Feature",
      "properties": {
        "iteration": 1,
        "reference_number": "47666",
        "place_name": "Blackswamp",
        "lga_name": "Western Downs Regional",
        "sequence": 4
      },
      "geometry": {
        "type": "Point",
        "coordinates": [
          150.52667,
          -26.57667
        ]
      }
    },
    {
      "type": "Feature",
      "properties": {
        "iteration": 1,
        "reference_number": "47621",
        "place_name": "O'Bil Bil",
        "lga_name": "North Burnett Regional",
        "sequence": 5
      },
      "geometry": {
        "type": "Point",
        "coordinates": [
          151.25528,
          -25.52611
        ]
      }
    },
    {
      "type": "Feature",
      "properties": {
        "name": "Bounded locality route 2",
        "iteration": 2,
        "point_count": 6,
        "order": [
          "Fairyland",
          "Chahpingah",
          "Tara",
          "Branchview",
          "Lake Mary",
          "Four Ways"
        ]
      },
      "geometry": {
        "type": "LineString",
        "coordinates": [
          [
            150.93361,
            -26.52806
          ],
          [
            151.3775,
            -26.47194
          ],
          [
            150.4475,
            -27.24917
          ],
          [
            151.35111,
            -27.61917
          ],
          [
            150.6225,
            -23.11639
          ],
          [
            140.47333,
            -19.35333
          ]
        ]
      }
    },
    {
      "type": "Feature",
      "properties": {
        "iteration": 2,
        "reference_number": "47698",
        "place_name": "Fairyland",
        "lga_name": "Western Downs Regional",
        "sequence": 1
      },
      "geometry": {
        "type": "Point",
        "coordinates": [
          150.93361,
          -26.52806
        ]
      }
    },
    {
      "type": "Feature",
      "properties": {
        "iteration": 2,
        "reference_number": "46203",
        "place_name": "Chahpingah",
        "lga_name": "South Burnett Regional",
        "sequence": 2
      },
      "geometry": {
        "type": "Point",
        "coordinates": [
          151.3775,
          -26.47194
        ]
      }
    },
    {
      "type": "Feature",
      "properties": {
        "iteration": 2,
        "reference_number": "47749",
        "place_name": "Tara",
        "lga_name": "Western Downs Regional",
        "sequence": 3
      },
      "geometry": {
        "type": "Point",
        "coordinates": [
          150.4475,
          -27.24917
        ]
      }
    },
    {
      "type": "Feature",
      "properties": {
        "iteration": 2,
        "reference_number": "49367",
        "place_name": "Branchview",
        "lga_name": "Toowoomba Regional",
        "sequence": 4
      },
      "geometry": {
        "type": "Point",
        "coordinates": [
          151.35111,
          -27.61917
        ]
      }
    },
    {
      "type": "Feature",
      "properties": {
        "iteration": 2,
        "reference_number": "50245",
        "place_name": "Lake Mary",
        "lga_name": "Livingstone Shire",
        "sequence": 5
      },
      "geometry": {
        "type": "Point",
        "coordinates": [
          150.6225,
          -23.11639
        ]
      }
    },
    {
      "type": "Feature",
      "properties": {
        "iteration": 2,
        "reference_number": "42492",
        "place_name": "Four Ways",
        "lga_name": "Cloncurry Shire",
        "sequence": 6
      },
      "geometry": {
        "type": "Point",
        "coordinates": [
          140.47333,
          -19.35333
        ]
      }
    },
    {
      "type": "Feature",
      "properties": {
        "name": "Bounded locality route 3",
        "iteration": 3,
        "point_count": 3,
        "order": [
          "Canning Creek (Goondiwindi Regional)",
          "Carters Ridge",
          "Japoonvale"
        ]
      },
      "geometry": {
        "type": "LineString",
        "coordinates": [
          [
            151.14472,
            -28.26806
          ],
          [
            152.77139,
            -26.4525
          ],
          [
            145.90861,
            -17.72833
          ]
        ]
      }
    },
    {
      "type": "Feature",
      "properties": {
        "iteration": 3,
        "reference_number": "47804",
        "place_name": "Canning Creek (Goondiwindi Regional)",
        "lga_name": "Goondiwindi Regional",
        "sequence": 1
      },
      "geometry": {
        "type": "Point",
        "coordinates": [
          151.14472,
          -28.26806
        ]
      }
    },
    {
      "type": "Feature",
      "properties": {
        "iteration": 3,
        "reference_number": "46313",
        "place_name": "Carters Ridge",
        "lga_name": "Gympie Regional",
        "sequence": 2
      },
      "geometry": {
        "type": "Point",
        "coordinates": [
          152.77139,
          -26.4525
        ]
      }
    },
    {
      "type": "Feature",
      "properties": {
        "iteration": 3,
        "reference_number": "45713",
        "place_name": "Japoonvale",
        "lga_name": "Cassowary Coast Regional",
        "sequence": 3
      },
      "geometry": {
        "type": "Point",
        "coordinates": [
          145.90861,
          -17.72833
        ]
      }
    },
    {
      "type": "Feature",
      "properties": {
        "name": "Bounded locality route 4",
        "iteration": 4,
        "point_count": 3,
        "order": [
          "Three Moon",
          "Canoona",
          "Landsborough"
        ]
      },
      "geometry": {
        "type": "LineString",
        "coordinates": [
          [
            151.13028,
            -24.915
          ],
          [
            150.14889,
            -23.015
          ],
          [
            152.98583,
            -26.81056
          ]
        ]
      }
    },
    {
      "type": "Feature",
      "properties": {
        "iteration": 4,
        "reference_number": "45419",
        "place_name": "Three Moon",
        "lga_name": "North Burnett Regional",
        "sequence": 1
      },
      "geometry": {
        "type": "Point",
        "coordinates": [
          151.13028,
          -24.915
        ]
      }
    },
    {
      "type": "Feature",
      "properties": {
        "iteration": 4,
        "reference_number": "48560",
        "place_name": "Canoona",
        "lga_name": "Livingstone Shire",
        "sequence": 2
      },
      "geometry": {
        "type": "Point",
        "coordinates": [
          150.14889,
          -23.015
        ]
      }
    },
    {
      "type": "Feature",
      "properties": {
        "iteration": 4,
        "reference_number": "50280",
        "place_name": "Landsborough",
        "lga_name": "Sunshine Coast Regional",
        "sequence": 3
      },
      "geometry": {
        "type": "Point",
        "coordinates": [
          152.98583,
          -26.81056
        ]
      }
    },
    {
      "type": "Feature",
      "properties": {
        "name": "Bounded locality route 5",
        "iteration": 5,
        "point_count": 4,
        "order": [
          "Djiru",
          "Dargal Road",
          "Dulacca",
          "Okeden"
        ]
      },
      "geometry": {
        "type": "LineString",
        "coordinates": [
          [
            146.07639,
            -17.85583
          ],
          [
            148.72639,
            -26.55833
          ],
          [
            149.76639,
            -26.69667
          ],
          [
            151.50111,
            -26.165
          ]
        ]
      }
    },
    {
      "type": "Feature",
      "properties": {
        "iteration": 5,
        "reference_number": "45667",
        "place_name": "Djiru",
        "lga_name": "Cassowary Coast Regional",
        "sequence": 1
      },
      "geometry": {
        "type": "Point",
        "coordinates": [
          146.07639,
          -17.85583
        ]
      }
    },
    {
      "type": "Feature",
      "properties": {
        "iteration": 5,
        "reference_number": "47418",
        "place_name": "Dargal Road",
        "lga_name": "Maranoa Regional",
        "sequence": 2
      },
      "geometry": {
        "type": "Point",
        "coordinates": [
          148.72639,
          -26.55833
        ]
      }
    },
    {
      "type": "Feature",
      "properties": {
        "iteration": 5,
        "reference_number": "47695",
        "place_name": "Dulacca",
        "lga_name": "Western Downs Regional",
        "sequence": 3
      },
      "geometry": {
        "type": "Point",
        "coordinates": [
          149.76639,
          -26.69667
        ]
      }
    },
    {
      "type": "Feature",
      "properties": {
        "iteration": 5,
        "reference_number": "46255",
        "place_name": "Okeden",
        "lga_name": "South Burnett Regional",
        "sequence": 4
      },
      "geometry": {
        "type": "Point",
        "coordinates": [
          151.50111,
          -26.165
        ]
      }
    }
  ]
}