{
  "type": "FeatureCollection",
  "features": [
    {
      "type": "Feature",
      "properties": {
        "name": "Bounded locality route 1",
        "iteration": 1,
        "point_count": 3,
        "order": [
          "Greenlands",
          "Mount Lawless",
          "Beecher"
        ],
        "stroke": "#e6194b",
        "stroke-width": 2,
        "stroke-opacity": 1
      },
      "geometry": {
        "type": "LineString",
        "coordinates": [
          [
            151.78639,
            -28.65333
          ],
          [
            151.64417,
            -25.54833
          ],
          [
            151.20472,
            -23.91111
          ]
        ]
      }
    },
    {
      "type": "Feature",
      "properties": {
        "iteration": 1,
        "reference_number": "50092",
        "place_name": "Greenlands",
        "lga_name": "Southern Downs Regional",
        "sequence": 1,
        "marker-color": "#e6194b"
      },
      "geometry": {
        "type": "Point",
        "coordinates": [
          151.78639,
          -28.65333
        ]
      }
    },
    {
      "type": "Feature",
      "properties": {
        "iteration": 1,
        "reference_number": "45394",
        "place_name": "Mount Lawless",
        "lga_name": "North Burnett Regional",
        "sequence": 2,
        "marker-color": "#e6194b"
      },
      "geometry": {
        "type": "Point",
        "coordinates": [
          151.64417,
          -25.54833
        ]
      }
    },
    {
      "type": "Feature",
      "properties": {
        "iteration": 1,
        "reference_number": "46588",
        "place_name": "Beecher",
        "lga_name": "Gladstone Regional",
        "sequence": 3,
        "marker-color": "#e6194b"
      },
      "geometry": {
        "type": "Point",
        "coordinates": [
          151.20472,
          -23.91111
        ]
      }
    },
    {
      "type": "Feature",
      "properties": {
        "name": "Bounded locality route 2",
        "iteration": 2,
        "point_count": 5,
        "order": [
          "Moorland",
          "Ocean View",
          "Mount Luke",
          "Strathfield",
          "Umagico (Northern Peninsula Area Regional)"
        ],
        "stroke": "#3cb44b",
        "stroke-width": 2,
        "stroke-opacity": 1
      },
      "geometry": {
        "type": "LineString",
        "coordinates": [
          [
            152.2075,
            -24.76361
          ],
          [
            152.79944,
            -27.12833
          ],
          [
            152.04111,
            -27.38917
          ],
          [
            148.54111,
            -21.745
          ],
          [
            142.39694,
            -10.91889
          ]
        ]
      }
    },
    {
      "type": "Feature",
      "properties": {
        "iteration": 2,
        "reference_number": "44750",
        "place_name": "Moorland",
        "lga_name": "Bundaberg Regional",
        "sequence": 1,
        "marker-color": "#3cb44b"
      },
      "geometry": {
        "type": "Point",
        "coordinates": [
          152.2075,
          -24.76361
        ]
      }
    },
    {
      "type": "Feature",
      "properties": {
        "iteration": 2,
        "reference_number": "45462",
        "place_name": "Ocean View",
        "lga_name": "Moreton Bay City",
        "sequence": 2,
        "marker-color": "#3cb44b"
      },
      "geometry": {
        "type": "Point",
        "coordinates": [
          152.79944,
          -27.12833
        ]
      }
    },
    {
      "type": "Feature",
      "properties": {
        "iteration": 2,
        "reference_number": "48013",
        "place_name": "Mount Luke",
        "lga_name": "Toowoomba Regional",
        "sequence": 3,
        "marker-color": "#3cb44b"
      },
      "geometry": {
        "type": "Point",
        "coordinates": [
          152.04111,
          -27.38917
        ]
      }
    },
    {
      "type": "Feature",
      "properties": {
        "iteration": 2,
        "reference_number": "47036",
        "place_name": "Strathfield",
        "lga_name": "Isaac Regional",
        "sequence": 4,
        "marker-color": "#3cb44b"
      },
      "geometry": {
        "type": "Point",
        "coordinates": [
          148.54111,
          -21.745
        ]
      }
    },
    {
      "type": "Feature",
      "properties": {
        "iteration": 2,
        "reference_number": "46109",
        "place_name": "Umagico (Northern Peninsula Area Regional)",
        "lga_name": "Northern Peninsula Area Regional",
        "sequence": 5,
        "marker-color": "#3cb44b"
      },
      "geometry": {
        "type": "Point",
        "coordinates": [
          142.39694,
          -10.91889
        ]
      }
    },
    {
      "type": "Feature",
      "properties": {
        "name": "Bounded locality route 3",
        "iteration": 3,
        "point_count": 5,
        "order": [
          "Strathfield",
          "Glendale",
          "Taroom (Banana Shire)",
          "Lowood",
          "Kooroomool"
        ],
        "stroke": "#4363d8",
        "stroke-width": 2,
        "stroke-opacity": 1
      },
      "geometry": {
        "type": "LineString",
        "coordinates": [
          [
            148.54111,
            -21.745
          ],
          [
            150.45444,
            -23.24583
          ],
          [
            149.85,
            -25.63333
          ],
          [
            152.57611,
            -27.465
          ],
          [
            145.71639,
            -17.93083
          ]
        ]
      }
    },
    {
      "type": "Feature",
      "properties": {
        "iteration": 3,
        "reference_number": "47036",
        "place_name": "Strathfield",
        "lga_name": "Isaac Regional",
        "sequence": 1,
        "marker-color": "#4363d8"
      },
      "geometry": {
        "type": "Point",
        "coordinates": [
          148.54111,
          -21.745
        ]
      }
    },
    {
      "type": "Feature",
      "properties": {
        "iteration": 3,
        "reference_number": "48653",
        "place_name": "Glendale",
        "lga_name": "Livingstone Shire",
        "sequence": 2,
        "marker-color": "#4363d8"
      },
      "geometry": {
        "type": "Point",
        "coordinates": [
          150.45444,
          -23.24583
        ]
      }
    },
    {
      "type": "Feature",
      "properties": {
        "iteration": 3,
        "reference_number": "49572",
        "place_name": "Taroom (Banana Shire)",
        "lga_name": "Banana Shire",
        "sequence": 3,
        "marker-color": "#4363d8"
      },
      "geometry": {
        "type": "Point",
        "coordinates": [
          149.85,
          -25.63333
        ]
      }
    },
    {
      "type": "Feature",
      "properties": {
        "iteration": 3,
        "reference_number": "44894",
        "place_name": "Lowood",
        "lga_name": "Somerset Regional",
        "sequence": 4,
        "marker-color": "#4363d8"
      },
      "geometry": {
        "type": "Point",
        "coordinates": [
          152.57611,
          -27.465
        ]
      }
    },
    {
      "type": "Feature",
      "properties": {
        "iteration": 3,
        "reference_number": "45717",
        "place_name": "Kooroomool",
        "lga_name": "Cassowary Coast Regional",
        "sequence": 5,
        "marker-color": "#4363d8"
      },
      "geometry": {
        "type": "Point",
        "coordinates": [
          145.71639,
          -17.93083
        ]
      }
    },
    {
      "type": "Feature",
      "properties": {
        "name": "Bounded locality route 4",
        "iteration": 4,
        "point_count": 3,
        "order": [
          "Fairdale",
          "Wateranga",
          "Upper Pilton (Toowoomba Regional)"
        ],
        "stroke": "#f58231",
        "stroke-width": 2,
        "stroke-opacity": 1
      },
      "geometry": {
        "type": "LineString",
        "coordinates": [
          [
            151.77056,
            -26.26778
          ],
          [
            151.83028,
            -25.38167
          ],
          [
            152.14694,
            -27.90444
          ]
        ]
      }
    },
    {
      "type": "Feature",
      "properties": {
        "iteration": 4,
        "reference_number": "46217",
        "place_name": "Fairdale",
        "lga_name": "South Burnett Regional",
        "sequence": 1,
        "marker-color": "#f58231"
      },
      "geometry": {
        "type": "Point",
        "coordinates": [
          151.77056,
          -26.26778
        ]
      }
    },
    {
      "type": "Feature",
      "properties": {
        "iteration": 4,
        "reference_number": "45423",
        "place_name": "Wateranga",
        "lga_name": "North Burnett Regional",
        "sequence": 2,
        "marker-color": "#f58231"
      },
      "geometry": {
        "type": "Point",
        "coordinates": [
          151.83028,
          -25.38167
        ]
      }
    },
    {
      "type": "Feature",
      "properties": {
        "iteration": 4,
        "reference_number": "49755",
        "place_name": "Upper Pilton (Toowoomba Regional)",
        "lga_name": "Toowoomba Regional",
        "sequence": 3,
        "marker-color": "#f58231"
      },
      "geometry": {
        "type": "Point",
        "coordinates": [
          152.14694,
          -27.90444
        ]
      }
    },
    {
      "type": "Feature",
      "properties": {
        "name": "Bounded locality route 5",
        "iteration": 5,
        "point_count": 6,
        "order": [
          "Pinnacles",
          "Jellinbah",
          "Braemore",
          "Mount Sylvia",
          "Leyburn (Toowoomba Regional)",
          "Cowan Cowan"
        ],
        "stroke": "#911eb4",
        "stroke-width": 2,
        "stroke-opacity": 1
      },
      "geometry": {
        "type": "LineString",
        "coordinates": [
          [
            146.67944,
            -19.44472
          ],
          [
            149.03556,
            -23.26556
          ],
          [
            152.38444,
            -27.04
          ],
          [
            152.22639,
            -27.73806
          ],
          [
            151.61778,
            -27.96528
          ],
          [
            153.36583,
            -27.12611
          ]
        ]
      }
    },
    {
      "type": "Feature",
      "properties": {
        "iteration": 5,
        "reference_number": "44628",
        "place_name": "Pinnacles",
        "lga_name": "Townsville City",
        "sequence": 1,
        "marker-color": "#911eb4"
      },
      "geometry": {
        "type": "Point",
        "coordinates": [
          146.67944,
          -19.44472
        ]
      }
    },
    {
      "type": "Feature",
      "properties": {
        "iteration": 5,
        "reference_number": "46958",
        "place_name": "Jellinbah",
        "lga_name": "Central Highlands Regional",
        "sequence": 2,
        "marker-color": "#911eb4"
      },
      "geometry": {
        "type": "Point",
        "coordinates": [
          149.03556,
          -23.26556
        ]
      }
    },
    {
      "type": "Feature",
      "properties": {
        "iteration": 5,
        "reference_number": "44837",
        "place_name": "Braemore",
        "lga_name": "Somerset Regional",
        "sequence": 3,
        "marker-color": "#911eb4"
      },
      "geometry": {
        "type": "Point",
        "coordinates": [
          152.38444,
          -27.04
        ]
      }
    },
    {
      "type": "Feature",
      "properties": {
        "iteration": 5,
        "reference_number": "44980",
        "place_name": "Mount Sylvia",
        "lga_name": "Lockyer Valley Regional",
        "sequence": 4,
        "marker-color": "#911eb4"
      },
      "geometry": {
        "type": "Point",
        "coordinates": [
          152.22639,
          -27.73806
        ]
      }
    },
    {
      "type": "Feature",
      "properties": {
        "iteration": 5,
        "reference_number": "47990",
        "place_name": "Leyburn (Toowoomba Regional)",
        "lga_name": "Toowoomba Regional",
        "sequence": 5,
        "marker-color": "#911eb4"
      },
      "geometry": {
        "type": "Point",
        "coordinates": [
          151.61778,
          -27.96528
        ]
      }
    },
    {
      "type": "Feature",
      "properties": {
        "iteration": 5,
        "reference_number": "49459",
        "place_name": "Cowan Cowan",
        "lga_name": "Brisbane City",
        "sequence": 6,
        "marker-color": "#911eb4"
      },
      "geometry": {
        "type": "Point",
        "coordinates": [
          153.36583,
          -27.12611
        ]
      }
    }
  ]
}