{
  "type": "FeatureCollection",
  "features": [
    {
      "type": "Feature",
      "properties": {
        "name": "Bounded locality route 1",
        "iteration": 1,
        "point_count": 6,
        "order": [
          "Wallumbilla South",
          "Montrose (Western Downs Regional)",
          "Pirrinuan",
          "Hodgleigh",
          "Radford",
          "New Harbourline"
        ]
      },
      "geometry": {
        "type": "LineString",
        "coordinates": [
          [
            149.18556,
            -26.74583
          ],
          [
            150.61722,
            -27.00389
          ],
          [
            151.23778,
            -27.0475
          ],
          [
            151.93861,
            -26.61083
          ],
          [
            152.64,
            -27.85028
          ],
          [
            146.06472,
            -17.62417
          ]
        ]
      }
    },
    {
      "type": "Feature",
      "properties": {
        "iteration": 1,
        "reference_number": "49161",
        "place_name": "Wallumbilla South",
        "lga_name": "Maranoa Regional",
        "sequence": 1
      },
      "geometry": {
        "type": "Point",
        "coordinates": [
          149.18556,
          -26.74583
        ]
      }
    },
    {
      "type": "Feature",
      "properties": {
        "iteration": 1,
        "reference_number": "47728",
        "place_name": "Montrose (Western Downs Regional)",
        "lga_name": "Western Downs Regional",
        "sequence": 2
      },
      "geometry": {
        "type": "Point",
        "coordinates": [
          150.61722,
          -27.00389
        ]
      }
    },
    {
      "type": "Feature",
      "properties": {
        "iteration": 1,
        "reference_number": "49276",
        "place_name": "Pirrinuan",
        "lga_name": "Western Downs Regional",
        "sequence": 3
      },
      "geometry": {
        "type": "Point",
        "coordinates": [
          151.23778,
          -27.0475
        ]
      }
    },
    {
      "type": "Feature",
      "properties": {
        "iteration": 1,
        "reference_number": "46226",
        "place_name": "Hodgleigh",
        "lga_name": "South Burnett Regional",
        "sequence": 4
      },
      "geometry": {
        "type": "Point",
        "coordinates": [
          151.93861,
          -26.61083
        ]
      }
    },
    {
      "type": "Feature",
      "properties": {
        "iteration": 1,
        "reference_number": "45181",
        "place_name": "Radford",
        "lga_name": "Scenic Rim Regional",
        "sequence": 5
      },
      "geometry": {
        "type": "Point",
        "coordinates": [
          152.64,
          -27.85028
        ]
      }
    },
    {
      "type": "Feature",
      "properties": {
        "iteration": 1,
        "reference_number": "45742",
        "place_name": "New Harbourline",
        "lga_name": "Cassowary Coast Regional",
        "sequence": 6
      },
      "geometry": {
        "type": "Point",
        "coordinates": [
          146.06472,
          -17.62417
        ]
      }
    },
    {
      "type": "Feature",
      "properties": {
        "name": "Bounded locality route 2",
        "iteration": 2,
        "point_count": 5,
        "order": [
          "Trebonne",
          "Karron",
          "Lonesome Creek",
          "Haly Creek",
          "Radford"
        ]
      },
      "geometry": {
        "type": "LineString",
        "coordinates": [
          [
            146.08,
            -18.64444
          ],
          [
            141.79194,
            -17.57111
          ],
          [
            150.10722,
            -24.87833
          ],
          [
            151.72611,
            -26.695
          ],
          [
            152.64,
            -27.85028
          ]
        ]
      }
    },
    {
      "type": "Feature",
      "properties": {
        "iteration": 2,
        "reference_number": "42529",
        "place_name": "Trebonne",
        "lga_name": "Hinchinbrook Shire",
        "sequence": 1
      },
      "geometry": {
        "type": "Point",
        "coordinates": [
          146.08,
          -18.64444
        ]
      }
    },
    {
      "type": "Feature",
      "properties": {
        "iteration": 2,
        "reference_number": "41769",
        "place_name": "Karron",
        "lga_name": "Croydon Shire",
        "sequence": 2
      },
      "geometry": {
        "type": "Point",
        "coordinates": [
          141.79194,
          -17.57111
        ]
      }
    },
    {
      "type": "Feature",
      "properties": {
        "iteration": 2,
        "reference_number": "49564",
        "place_name": "Lonesome Creek",
        "lga_name": "Banana Shire",
        "sequence": 3
      },
      "geometry": {
        "type": "Point",
        "coordinates": [
          150.10722,
          -24.87833
        ]
      }
    },
    {
      "type": "Feature",
      "properties": {
        "iteration": 2,
        "reference_number": "46224",
        "place_name": "Haly Creek",
        "lga_name": "South Burnett Regional",
        "sequence": 4
      },
      "geometry": {
        "type": "Point",
        "coordinates": [
          151.72611,
          -26.695
        ]
      }
    },
    {
      "type": "Feature",
      "properties": {
        "iteration": 2,
        "reference_number": "45181",
        "place_name": "Radford",
        "lga_name": "Scenic Rim Regional",
        "sequence": 5
      },
      "geometry": {
        "type": "Point",
        "coordinates": [
          152.64,
          -27.85028
        ]
      }
    },
    {
      "type": "Feature",
      "properties": {
        "name": "Bounded locality route 3",
        "iteration": 3,
        "point_count": 3,
        "order": [
          "Birkalla",
          "Walkerston",
          "Muirlea"
        ]
      },
      "geometry": {
        "type": "LineString",
        "coordinates": [
          [
            145.94889,
            -17.91361
          ],
          [
            149.06194,
            -21.15917
          ],
          [
            152.73306,
            -27.56861
          ]
        ]
      }
    },
    {
      "type": "Feature",
      "properties": {
        "iteration": 3,
        "reference_number": "45657",
        "place_name": "Birkalla",
        "lga_name": "Cassowary Coast Regional",
        "sequence": 1
      },
      "geometry": {
        "type": "Point",
        "coordinates": [
          145.94889,
          -17.91361
        ]
      }
    },
    {
      "type": "Feature",
      "properties": {
        "iteration": 3,
        "reference_number": "46846",
        "place_name": "Walkerston",
        "lga_name": "Mackay Regional",
        "sequence": 2
      },
      "geometry": {
        "type": "Point",
        "coordinates": [
          149.06194,
          -21.15917
        ]
      }
    },
    {
      "type": "Feature",
      "properties": {
        "iteration": 3,
        "reference_number": "48968",
        "place_name": "Muirlea",
        "lga_name": "Ipswich City",
        "sequence": 3
      },
      "geometry": {
        "type": "Point",
        "coordinates": [
          152.73306,
          -27.56861
        ]
      }
    },
    {
      "type": "Feature",
      "properties": {
        "name": "Bounded locality route 4",
        "iteration": 4,
        "point_count": 6,
        "order": [
          "Macalister Range",
          "Mungabunda",
          "Mungallala",
          "East Toowoomba",
          "Dundas",
          "Monkland"
        ]
      },
      "geometry": {
        "type": "LineString",
        "coordinates": [
          [
            145.65167,
            -16.75861
          ],
          [
            149.21083,
            -24.87639
          ],
          [
            147.54389,
            -26.44667
          ],
          [
            151.96889,
            -27.56222
          ],
          [
            152.68444,
            -27.29861
          ],
          [
            152.68611,
            -26.20972
          ]
        ]
      }
    },
    {
      "type": "Feature",
      "properties": {
        "iteration": 4,
        "reference_number": "49832",
        "place_name": "Macalister Range",
        "lga_name": "Cairns Regional",
        "sequence": 1
      },
      "geometry": {
        "type": "Point",
        "coordinates": [
          145.65167,
          -16.75861
        ]
      }
    },
    {
      "type": "Feature",
      "properties": {
        "iteration": 4,
        "reference_number": "46968",
        "place_name": "Mungabunda",
        "lga_name": "Central Highlands Regional",
        "sequence": 2
      },
      "geometry": {
        "type": "Point",
        "coordinates": [
          149.21083,
          -24.87639
        ]
      }
    },
    {
      "type": "Feature",
      "properties": {
        "iteration": 4,
        "reference_number": "47443",
        "place_name": "Mungallala",
        "lga_name": "Maranoa Regional",
        "sequence": 3
      },
      "geometry": {
        "type": "Point",
        "coordinates": [
          147.54389,
          -26.44667
        ]
      }
    },
    {
      "type": "Feature",
      "properties": {
        "iteration": 4,
        "reference_number": "47935",
        "place_name": "East Toowoomba",
        "lga_name": "Toowoomba Regional",
        "sequence": 4
      },
      "geometry": {
        "type": "Point",
        "coordinates": [
          151.96889,
          -27.56222
        ]
      }
    },
    {
      "type": "Feature",
      "properties": {
        "iteration": 4,
        "reference_number": "44862",
        "place_name": "Dundas",
        "lga_name": "Somerset Regional",
        "sequence": 5
      },
      "geometry": {
        "type": "Point",
        "coordinates": [
          152.68444,
          -27.29861
        ]
      }
    },
    {
      "type": "Feature",
      "properties": {
        "iteration": 4,
        "reference_number": "47106",
        "place_name": "Monkland",
        "lga_name": "Gympie Regional",
        "sequence": 6
      },
      "geometry": {
        "type": "Point",
        "coordinates": [
          152.68611,
          -26.20972
        ]
      }
    },
    {
      "type": "Feature",
      "properties": {
        "name": "Bounded locality route 5",
        "iteration": 5,
        "point_count": 5,
        "order": [
          "Blackbutt",
          "Banks Creek (Somerset Regional)",
          "Lamington",
          "Wura",
          "Djiru"
        ]
      },
      "geometry": {
        "type": "LineString",
        "coordinates": [
          [
            152.10528,
            -26.88583
          ],
          [
            152.71778,
            -27.41528
          ],
          [
            153.02444,
            -28.26806
          ],
          [
            150.33056,
            -23.79083
          ],
          [
            146.07639,
            -17.85583
          ]
        ]
      }
    },
    {
      "type": "Feature",
      "properties": {
        "iteration": 5,
        "reference_number": "50238",
        "place_name": "Blackbutt",
        "lga_name": "South Burnett Regional",
        "sequence": 1
      },
      "geometry": {
        "type": "Point",
        "coordinates": [
          152.10528,
          -26.88583
        ]
      }
    },
    {
      "type": "Feature",
      "properties": {
        "iteration": 5,
        "reference_number": "44834",
        "place_name": "Banks Creek (Somerset Regional)",
        "lga_name": "Somerset Regional",
        "sequence": 2
      },
      "geometry": {
        "type": "Point",
        "coordinates": [
          152.71778,
          -27.41528
        ]
      }
    },
    {
      "type": "Feature",
      "properties": {
        "iteration": 5,
        "reference_number": "45158",
        "place_name": "Lamington",
        "lga_name": "Scenic Rim Regional",
        "sequence": 3
      },
      "geometry": {
        "type": "Point",
        "coordinates": [
          153.02444,
          -28.26806
        ]
      }
    },
    {
      "type": "Feature",
      "properties": {
        "iteration": 5,
        "reference_number": "48948",
        "place_name": "Wura",
        "lga_name": "Rockhampton Regional",
        "sequence": 4
      },
      "geometry": {
        "type": "Point",
        "coordinates": [
          150.33056,
          -23.79083
        ]
      }
    },
    {
      "type": "Feature",
      "properties": {
        "iteration": 5,
        "reference_number": "45667",
        "place_name": "Djiru",
        "lga_name": "Cassowary Coast Regional",
        "sequence": 5
      },
      "geometry": {
        "type": "Point",
        "coordinates": [
          146.07639,
          -17.85583
        ]
      }
    }
  ]
}