{
  "type": "FeatureCollection",
  "features": [
    {
      "type": "Feature",
      "properties": {
        "name": "Bounded locality route 1",
        "iteration": 1,
        "point_count": 6,
        "order": [
          "Bauple Forest",
          "Corella",
          "Rainbow Beach",
          "Joskeleigh",
          "Wyuna",
          "Marathon"
        ]
      },
      "geometry": {
        "type": "LineString",
        "coordinates": [
          [
            152.68806,
            -25.88306
          ],
          [
            152.64167,
            -26.1125
          ],
          [
            153.07917,
            -25.90556
          ],
          [
            150.8,
            -23.38111
          ],
          [
            148.34583,
            -23.36722
          ],
          [
            143.65806,
            -20.91222
          ]
        ]
      }
    },
    {
      "type": "Feature",
      "properties": {
        "iteration": 1,
        "reference_number": "46626",
        "place_name": "Bauple Forest",
        "lga_name": "Fraser Coast Regional",
        "sequence": 1
      },
      "geometry": {
        "type": "Point",
        "coordinates": [
          152.68806,
          -25.88306
        ]
      }
    },
    {
      "type": "Feature",
      "properties": {
        "iteration": 1,
        "reference_number": "46321",
        "place_name": "Corella",
        "lga_name": "Gympie Regional",
        "sequence": 2
      },
      "geometry": {
        "type": "Point",
        "coordinates": [
          152.64167,
          -26.1125
        ]
      }
    },
    {
      "type": "Feature",
      "properties": {
        "iteration": 1,
        "reference_number": "47617",
        "place_name": "Rainbow Beach",
        "lga_name": "Gympie Regional",
        "sequence": 3
      },
      "geometry": {
        "type": "Point",
        "coordinates": [
          153.07917,
          -25.90556
        ]
      }
    },
    {
      "type": "Feature",
      "properties": {
        "iteration": 1,
        "reference_number": "48685",
        "place_name": "Joskeleigh",
        "lga_name": "Livingstone Shire",
        "sequence": 4
      },
      "geometry": {
        "type": "Point",
        "coordinates": [
          150.8,
          -23.38111
        ]
      }
    },
    {
      "type": "Feature",
      "properties": {
        "iteration": 1,
        "reference_number": "46989",
        "place_name": "Wyuna",
        "lga_name": "Central Highlands Regional",
        "sequence": 5
      },
      "geometry": {
        "type": "Point",
        "coordinates": [
          148.34583,
          -23.36722
        ]
      }
    },
    {
      "type": "Feature",
      "properties": {
        "iteration": 1,
        "reference_number": "52092",
        "place_name": "Marathon",
        "lga_name": "Flinders Shire",
        "sequence": 6
      },
      "geometry": {
        "type": "Point",
        "coordinates": [
          143.65806,
          -20.91222
        ]
      }
    },
    {
      "type": "Feature",
      "properties": {
        "name": "Bounded locality route 2",
        "iteration": 2,
        "point_count": 3,
        "order": [
          "Douglas (Toowoomba Regional)",
          "Greenview",
          "Blackwater"
        ]
      },
      "geometry": {
        "type": "LineString",
        "coordinates": [
          [
            151.9175,
            -27.33167
          ],
          [
            151.80806,
            -26.30944
          ],
          [
            148.77972,
            -23.47611
          ]
        ]
      }
    },
    {
      "type": "Feature",
      "properties": {
        "iteration": 2,
        "reference_number": "49256",
        "place_name": "Douglas (Toowoomba Regional)",
        "lga_name": "Toowoomba Regional",
        "sequence": 1
      },
      "geometry": {
        "type": "Point",
        "coordinates": [
          151.9175,
          -27.33167
        ]
      }
    },
    {
      "type": "Feature",
      "properties": {
        "iteration": 2,
        "reference_number": "46223",
        "place_name": "Greenview",
        "lga_name": "South Burnett Regional",
        "sequence": 2
      },
      "geometry": {
        "type": "Point",
        "coordinates": [
          151.80806,
          -26.30944
        ]
      }
    },
    {
      "type": "Feature",
      "properties": {
        "iteration": 2,
        "reference_number": "46918",
        "place_name": "Blackwater",
        "lga_name": "Central Highlands Regional",
        "sequence": 3
      },
      "geometry": {
        "type": "Point",
        "coordinates": [
          148.77972,
          -23.47611
        ]
      }
    },
    {
      "type": "Feature",
      "properties": {
        "name": "Bounded locality route 3",
        "iteration": 3,
        "point_count": 3,
        "order": [
          "Sandstone Point",
          "Ebenezer",
          "Boynewood"
        ]
      },
      "geometry": {
        "type": "LineString",
        "coordinates": [
          [
            153.12333,
            -27.07361
          ],
          [
            152.61528,
            -27.67806
          ],
          [
            151.27056,
            -25.63583
          ]
        ]
      }
    },
    {
      "type": "Feature",
      "properties": {
        "iteration": 3,
        "reference_number": "45495",
        "place_name": "Sandstone Point",
        "lga_name": "Moreton Bay City",
        "sequence": 1
      },
      "geometry": {
        "type": "Point",
        "coordinates": [
          153.12333,
          -27.07361
        ]
      }
    },
    {
      "type": "Feature",
      "properties": {
        "iteration": 3,
        "reference_number": "45045",
        "place_name": "Ebenezer",
        "lga_name": "Ipswich City",
        "sequence": 2
      },
      "geometry": {
        "type": "Point",
        "coordinates": [
          152.61528,
          -27.67806
        ]
      }
    },
    {
      "type": "Feature",
      "properties": {
        "iteration": 3,
        "reference_number": "47365",
        "place_name": "Boynewood",
        "lga_name": "North Burnett Regional",
        "sequence": 3
      },
      "geometry": {
        "type": "Point",
        "coordinates": [
          151.27056,
          -25.63583
        ]
      }
    },
    {
      "type": "Feature",
      "properties": {
        "name": "Bounded locality route 4",
        "iteration": 4,
        "point_count": 5,
        "order": [
          "Pinnacle",
          "Wallaroo (Central Highlands Regional)",
          "Windermere",
          "Cushnie",
          "Emu Vale"
        ]
      },
      "geometry": {
        "type": "LineString",
        "coordinates": [
          [
            148.68694,
            -21.21194
          ],
          [
            149.54556,
            -23.67444
          ],
          [
            152.43389,
            -24.86028
          ],
          [
            151.74278,
            -26.34139
          ],
          [
            152.34139,
            -28.19361
          ]
        ]
      }
    },
    {
      "type": "Feature",
      "properties": {
        "iteration": 4,
        "reference_number": "46931",
        "place_name": "Pinnacle",
        "lga_name": "Mackay Regional",
        "sequence": 1
      },
      "geometry": {
        "type": "Point",
        "coordinates": [
          148.68694,
          -21.21194
        ]
      }
    },
    {
      "type": "Feature",
      "properties": {
        "iteration": 4,
        "reference_number": "46982",
        "place_name": "Wallaroo (Central Highlands Regional)",
        "lga_name": "Central Highlands Regional",
        "sequence": 2
      },
      "geometry": {
        "type": "Point",
        "coordinates": [
          149.54556,
          -23.67444
        ]
      }
    },
    {
      "type": "Feature",
      "properties": {
        "iteration": 4,
        "reference_number": "44811",
        "place_name": "Windermere",
        "lga_name": "Bundaberg Regional",
        "sequence": 3
      },
      "geometry": {
        "type": "Point",
        "coordinates": [
          152.43389,
          -24.86028
        ]
      }
    },
    {
      "type": "Feature",
      "properties": {
        "iteration": 4,
        "reference_number": "46213",
        "place_name": "Cushnie",
        "lga_name": "South Burnett Regional",
        "sequence": 4
      },
      "geometry": {
        "type": "Point",
        "coordinates": [
          151.74278,
          -26.34139
        ]
      }
    },
    {
      "type": "Feature",
      "properties": {
        "iteration": 4,
        "reference_number": "45925",
        "place_name": "Emu Vale",
        "lga_name": "Southern Downs Regional",
        "sequence": 5
      },
      "geometry": {
        "type": "Point",
        "coordinates": [
          152.34139,
          -28.19361
        ]
      }
    },
    {
      "type": "Feature",
      "properties": {
        "name": "Bounded locality route 5",
        "iteration": 5,
        "point_count": 6,
        "order": [
          "Diamond Valley",
          "Maleny",
          "Lilydale",
          "Woolmer",
          "Moolboolaman",
          "Strathfield"
        ]
      },
      "geometry": {
        "type": "LineString",
        "coordinates": [
          [
            152.92639,
            -26.75611
          ],
          [
            152.8525,
            -26.75583
          ],
          [
            152.14056,
            -27.60778
          ],
          [
            151.91944,
            -27.44944
          ],
          [
            151.82056,
            -24.98639
          ],
          [
            148.54111,
            -21.745
          ]
        ]
      }
    },
    {
      "type": "Feature",
      "properties": {
        "iteration": 5,
        "reference_number": "50949",
        "place_name": "Diamond Valley",
        "lga_name": "Sunshine Coast Regional",
        "sequence": 1
      },
      "geometry": {
        "type": "Point",
        "coordinates": [
          152.92639,
          -26.75611
        ]
      }
    },
    {
      "type": "Feature",
      "properties": {
        "iteration": 5,
        "reference_number": "52217",
        "place_name": "Maleny",
        "lga_name": "Sunshine Coast Regional",
        "sequence": 2
      },
      "geometry": {
        "type": "Point",
        "coordinates": [
          152.8525,
          -26.75583
        ]
      }
    },
    {
      "type": "Feature",
      "properties": {
        "iteration": 5,
        "reference_number": "44972",
        "place_name": "Lilydale",
        "lga_name": "Lockyer Valley Regional",
        "sequence": 3
      },
      "geometry": {
        "type": "Point",
        "coordinates": [
          152.14056,
          -27.60778
        ]
      }
    },
    {
      "type": "Feature",
      "properties": {
        "iteration": 5,
        "reference_number": "50064",
        "place_name": "Woolmer",
        "lga_name": "Toowoomba Regional",
        "sequence": 4
      },
      "geometry": {
        "type": "Point",
        "coordinates": [
          151.91944,
          -27.44944
        ]
      }
    },
    {
      "type": "Feature",
      "properties": {
        "iteration": 5,
        "reference_number": "44748",
        "place_name": "Moolboolaman",
        "lga_name": "Bundaberg Regional",
        "sequence": 5
      },
      "geometry": {
        "type": "Point",
        "coordinates": [
          151.82056,
          -24.98639
        ]
      }
    },
    {
      "type": "Feature",
      "properties": {
        "iteration": 5,
        "reference_number": "47036",
        "place_name": "Strathfield",
        "lga_name": "Isaac Regional",
        "sequence": 6
      },
      "geometry": {
        "type": "Point",
        "coordinates": [
          148.54111,
          -21.745
        ]
      }
    }
  ]
}