{
  "type": "FeatureCollection",
  "features": [
    {
      "type": "Feature",
      "properties": {
        "name": "Bounded locality route 1",
        "iteration": 1,
        "point_count": 3,
        "order": [
          "Mission River (Cook Shire)",
          "Walkerston",
          "Three Moon"
        ]
      },
      "geometry": {
        "type": "LineString",
        "coordinates": [
          [
            142.01250819,
            -12.53693091
          ],
          [
            149.06194,
            -21.15917
          ],
          [
            151.13028,
            -24.915
          ]
        ]
      }
    },
    {
      "type": "Feature",
      "properties": {
        "iteration": 1,
        "reference_number": "46136",
        "place_name": "Mission River (Cook Shire)",
        "lga_name": "Cook Shire",
        "sequence": 1
      },
      "geometry": {
        "type": "Point",
        "coordinates": [
          142.01250819,
          -12.53693091
        ]
      }
    },
    {
      "type": "Feature",
      "properties": {
        "iteration": 1,
        "reference_number": "46846",
        "place_name": "Walkerston",
        "lga_name": "Mackay Regional",
        "sequence": 2
      },
      "geometry": {
        "type": "Point",
        "coordinates": [
          149.06194,
          -21.15917
        ]
      }
    },
    {
      "type": "Feature",
      "properties": {
        "iteration": 1,
        "reference_number": "45419",
        "place_name": "Three Moon",
        "lga_name": "North Burnett Regional",
        "sequence": 3
      },
      "geometry": {
        "type": "Point",
        "coordinates": [
          151.13028,
          -24.915
        ]
      }
    },
    {
      "type": "Feature",
      "properties": {
        "name": "Bounded locality route 2",
        "iteration": 2,
        "point_count": 4,
        "order": [
          "Ravensworth",
          "Woolgar",
          "Morven",
          "Thagoona"
        ]
      },
      "geometry": {
        "type": "LineString",
        "coordinates": [
          [
            143.63722,
            -17.29139
          ],
          [
            143.44056,
            -19.9925
          ],
          [
            147.11,
            -26.49917
          ],
          [
            152.63139,
            -27.62694
          ]
        ]
      }
    },
    {
      "type": "Feature",
      "properties": {
        "iteration": 2,
        "reference_number": "48850",
        "place_name": "Ravensworth",
        "lga_name": "Mareeba Shire",
        "sequence": 1
      },
      "geometry": {
        "type": "Point",
        "coordinates": [
          143.63722,
          -17.29139
        ]
      }
    },
    {
      "type": "Feature",
      "properties": {
        "iteration": 2,
        "reference_number": "42357",
        "place_name": "Woolgar",
        "lga_name": "Richmond Shire",
        "sequence": 2
      },
      "geometry": {
        "type": "Point",
        "coordinates": [
          143.44056,
          -19.9925
        ]
      }
    },
    {
      "type": "Feature",
      "properties": {
        "iteration": 2,
        "reference_number": "42928",
        "place_name": "Morven",
        "lga_name": "Murweh Shire",
        "sequence": 3
      },
      "geometry": {
        "type": "Point",
        "coordinates": [
          147.11,
          -26.49917
        ]
      }
    },
    {
      "type": "Feature",
      "properties": {
        "iteration": 2,
        "reference_number": "45084",
        "place_name": "Thagoona",
        "lga_name": "Ipswich City",
        "sequence": 4
      },
      "geometry": {
        "type": "Point",
        "coordinates": [
          152.63139,
          -27.62694
        ]
      }
    },
    {
      "type": "Feature",
      "properties": {
        "name": "Bounded locality route 3",
        "iteration": 3,
        "point_count": 5,
        "order": [
          "Whyanbeel",
          "Goldsborough",
          "Blue Mountain",
          "Bungeworgorai",
          "Kuridala"
        ]
      },
      "geometry": {
        "type": "LineString",
        "coordinates": [
          [
            145.35444,
            -16.35
          ],
          [
            145.73611,
            -17.19
          ],
          [
            148.99806,
            -21.45778
          ],
          [
            148.61139,
            -26.47806
          ],
          [
            140.3825,
            -21.10278
          ]
        ]
      }
    },
    {
      "type": "Feature",
      "properties": {
        "iteration": 3,
        "reference_number": "48934",
        "place_name": "Whyanbeel",
        "lga_name": "Douglas Shire",
        "sequence": 1
      },
      "geometry": {
        "type": "Point",
        "coordinates": [
          145.35444,
          -16.35
        ]
      }
    },
    {
      "type": "Feature",
      "properties": {
        "iteration": 3,
        "reference_number": "48659",
        "place_name": "Goldsborough",
        "lga_name": "Cairns Regional",
        "sequence": 2
      },
      "geometry": {
        "type": "Point",
        "coordinates": [
          145.73611,
          -17.19
        ]
      }
    },
    {
      "type": "Feature",
      "properties": {
        "iteration": 3,
        "reference_number": "47004",
        "place_name": "Blue Mountain",
        "lga_name": "Isaac Regional",
        "sequence": 3
      },
      "geometry": {
        "type": "Point",
        "coordinates": [
          148.99806,
          -21.45778
        ]
      }
    },
    {
      "type": "Feature",
      "properties": {
        "iteration": 3,
        "reference_number": "49172",
        "place_name": "Bungeworgorai",
        "lga_name": "Maranoa Regional",
        "sequence": 4
      },
      "geometry": {
        "type": "Point",
        "coordinates": [
          148.61139,
          -26.47806
        ]
      }
    },
    {
      "type": "Feature",
      "properties": {
        "iteration": 3,
        "reference_number": "44673",
        "place_name": "Kuridala",
        "lga_name": "Cloncurry Shire",
        "sequence": 5
      },
      "geometry": {
        "type": "Point",
        "coordinates": [
          140.3825,
          -21.10278
        ]
      }
    },
    {
      "type": "Feature",
      "properties": {
        "name": "Bounded locality route 4",
        "iteration": 4,
        "point_count": 5,
        "order": [
          "Goondiwindi",
          "Jimbour East",
          "Meringandan",
          "Kholo",
          "Lyons"
        ]
      },
      "geometry": {
        "type": "LineString",
        "coordinates": [
          [
            150.35444,
            -28.41806
          ],
          [
            151.28917,
            -26.92917
          ],
          [
            151.92111,
            -27.40278
          ],
          [
            152.77222,
            -27.52222
          ],
          [
            152.86361,
            -27.77139
          ]
        ]
      }
    },
    {
      "type": "Feature",
      "properties": {
        "iteration": 4,
        "reference_number": "50047",
        "place_name": "Goondiwindi",
        "lga_name": "Goondiwindi Regional",
        "sequence": 1
      },
      "geometry": {
        "type": "Point",
        "coordinates": [
          150.35444,
          -28.41806
        ]
      }
    },
    {
      "type": "Feature",
      "properties": {
        "iteration": 4,
        "reference_number": "49278",
        "place_name": "Jimbour East",
        "lga_name": "Western Downs Regional",
        "sequence": 2
      },
      "geometry": {
        "type": "Point",
        "coordinates": [
          151.28917,
          -26.92917
        ]
      }
    },
    {
      "type": "Feature",
      "properties": {
        "iteration": 4,
        "reference_number": "49182",
        "place_name": "Meringandan",
        "lga_name": "Toowoomba Regional",
        "sequence": 3
      },
      "geometry": {
        "type": "Point",
        "coordinates": [
          151.92111,
          -27.40278
        ]
      }
    },
    {
      "type": "Feature",
      "properties": {
        "iteration": 4,
        "reference_number": "18050",
        "place_name": "Kholo",
        "lga_name": "Brisbane City",
        "sequence": 4
      },
      "geometry": {
        "type": "Point",
        "coordinates": [
          152.77222,
          -27.52222
        ]
      }
    },
    {
      "type": "Feature",
      "properties": {
        "iteration": 4,
        "reference_number": "45303",
        "place_name": "Lyons",
        "lga_name": "Logan City",
        "sequence": 5
      },
      "geometry": {
        "type": "Point",
        "coordinates": [
          152.86361,
          -27.77139
        ]
      }
    },
    {
      "type": "Feature",
      "properties": {
        "name": "Bounded locality route 5",
        "iteration": 5,
        "point_count": 3,
        "order": [
          "Moongan",
          "Munna Creek (Fraser Coast Regional)",
          "Bambaroo"
        ]
      },
      "geometry": {
        "type": "LineString",
        "coordinates": [
          [
            150.39917,
            -23.60694
          ],
          [
            152.45417,
            -25.87222
          ],
          [
            146.18556,
            -18.8875
          ]
        ]
      }
    },
    {
      "type": "Feature",
      "properties": {
        "iteration": 5,
        "reference_number": "48771",
        "place_name": "Moongan",
        "lga_name": "Rockhampton Regional",
        "sequence": 1
      },
      "geometry": {
        "type": "Point",
        "coordinates": [
          150.39917,
          -23.60694
        ]
      }
    },
    {
      "type": "Feature",
      "properties": {
        "iteration": 5,
        "reference_number": "46743",
        "place_name": "Munna Creek (Fraser Coast Regional)",
        "lga_name": "Fraser Coast Regional",
        "sequence": 2
      },
      "geometry": {
        "type": "Point",
        "coordinates": [
          152.45417,
          -25.87222
        ]
      }
    },
    {
      "type": "Feature",
      "properties": {
        "iteration": 5,
        "reference_number": "46015",
        "place_name": "Bambaroo",
        "lga_name": "Hinchinbrook Shire",
        "sequence": 3
      },
      "geometry": {
        "type": "Point",
        "coordinates": [
          146.18556,
          -18.8875
        ]
      }
    }
  ]
}