{
  "type": "FeatureCollection",
  "features": [
    {
      "type": "Feature",
      "properties": {
        "name": "Bounded locality route 1",
        "iteration": 1,
        "point_count": 3,
        "order": [
          "Tinana",
          "Stockhaven",
          "Etna Creek"
        ],
        "stroke": "#e6194b",
        "stroke-width": 2,
        "stroke-opacity": 1
      },
      "geometry": {
        "type": "LineString",
        "coordinates": [
          [
            152.66944,
            -25.55556
          ],
          [
            151.95389,
            -25.715
          ],
          [
            150.42222,
            -23.22889
          ]
        ]
      }
    },
    {
      "type": "Feature",
      "properties": {
        "iteration": 1,
        "reference_number": "46736",
        "place_name": "Tinana",
        "lga_name": "Fraser Coast Regional",
        "sequence": 1,
        "marker-color": "#e6194b"
      },
      "geometry": {
        "type": "Point",
        "coordinates": [
          152.66944,
          -25.55556
        ]
      }
    },
    {
      "type": "Feature",
      "properties": {
        "iteration": 1,
        "reference_number": "45416",
        "place_name": "Stockhaven",
        "lga_name": "North Burnett Regional",
        "sequence": 2,
        "marker-color": "#e6194b"
      },
      "geometry": {
        "type": "Point",
        "coordinates": [
          151.95389,
          -25.715
        ]
      }
    },
    {
      "type": "Feature",
      "properties": {
        "iteration": 1,
        "reference_number": "48625",
        "place_name": "Etna Creek",
        "lga_name": "Livingstone Shire",
        "sequence": 3,
        "marker-color": "#e6194b"
      },
      "geometry": {
        "type": "Point",
        "coordinates": [
          150.42222,
          -23.22889
        ]
      }
    },
    {
      "type": "Feature",
      "properties": {
        "name": "Bounded locality route 2",
        "iteration": 2,
        "point_count": 5,
        "order": [
          "Blanchview",
          "Spring Mountain",
          "Rosemount",
          "Cobraball",
          "Hungerford (Paroo Shire)"
        ],
        "stroke": "#3cb44b",
        "stroke-width": 2,
        "stroke-opacity": 1
      },
      "geometry": {
        "type": "LineString",
        "coordinates": [
          [
            152.03083,
            -27.57667
          ],
          [
            152.88306,
            -27.70694
          ],
          [
            153.00111,
            -26.62333
          ],
          [
            150.61278,
            -23.15028
          ],
          [
            144.84917,
            -28.84944
          ]
        ]
      }
    },
    {
      "type": "Feature",
      "properties": {
        "iteration": 2,
        "reference_number": "45007",
        "place_name": "Blanchview",
        "lga_name": "Lockyer Valley Regional",
        "sequence": 1,
        "marker-color": "#3cb44b"
      },
      "geometry": {
        "type": "Point",
        "coordinates": [
          152.03083,
          -27.57667
        ]
      }
    },
    {
      "type": "Feature",
      "properties": {
        "iteration": 2,
        "reference_number": "50104",
        "place_name": "Spring Mountain",
        "lga_name": "Ipswich City",
        "sequence": 2,
        "marker-color": "#3cb44b"
      },
      "geometry": {
        "type": "Point",
        "coordinates": [
          152.88306,
          -27.70694
        ]
      }
    },
    {
      "type": "Feature",
      "properties": {
        "iteration": 2,
        "reference_number": "48861",
        "place_name": "Rosemount",
        "lga_name": "Sunshine Coast Regional",
        "sequence": 3,
        "marker-color": "#3cb44b"
      },
      "geometry": {
        "type": "Point",
        "coordinates": [
          153.00111,
          -26.62333
        ]
      }
    },
    {
      "type": "Feature",
      "properties": {
        "iteration": 2,
        "reference_number": "48572",
        "place_name": "Cobraball",
        "lga_name": "Livingstone Shire",
        "sequence": 4,
        "marker-color": "#3cb44b"
      },
      "geometry": {
        "type": "Point",
        "coordinates": [
          150.61278,
          -23.15028
        ]
      }
    },
    {
      "type": "Feature",
      "properties": {
        "iteration": 2,
        "reference_number": "50025",
        "place_name": "Hungerford (Paroo Shire)",
        "lga_name": "Paroo Shire",
        "sequence": 5,
        "marker-color": "#3cb44b"
      },
      "geometry": {
        "type": "Point",
        "coordinates": [
          144.84917,
          -28.84944
        ]
      }
    },
    {
      "type": "Feature",
      "properties": {
        "name": "Bounded locality route 3",
        "iteration": 3,
        "point_count": 3,
        "order": [
          "Elliott",
          "Yarraman",
          "Bromelton"
        ],
        "stroke": "#4363d8",
        "stroke-width": 2,
        "stroke-opacity": 1
      },
      "geometry": {
        "type": "LineString",
        "coordinates": [
          [
            152.27806,
            -25.00472
          ],
          [
            151.98,
            -26.82917
          ],
          [
            152.88361,
            -27.98667
          ]
        ]
      }
    },
    {
      "type": "Feature",
      "properties": {
        "iteration": 3,
        "reference_number": "48971",
        "place_name": "Elliott",
        "lga_name": "Bundaberg Regional",
        "sequence": 1,
        "marker-color": "#4363d8"
      },
      "geometry": {
        "type": "Point",
        "coordinates": [
          152.27806,
          -25.00472
        ]
      }
    },
    {
      "type": "Feature",
      "properties": {
        "iteration": 3,
        "reference_number": "48105",
        "place_name": "Yarraman",
        "lga_name": "Toowoomba Regional",
        "sequence": 2,
        "marker-color": "#4363d8"
      },
      "geometry": {
        "type": "Point",
        "coordinates": [
          151.98,
          -26.82917
        ]
      }
    },
    {
      "type": "Feature",
      "properties": {
        "iteration": 3,
        "reference_number": "49611",
        "place_name": "Bromelton",
        "lga_name": "Scenic Rim Regional",
        "sequence": 3,
        "marker-color": "#4363d8"
      },
      "geometry": {
        "type": "Point",
        "coordinates": [
          152.88361,
          -27.98667
        ]
      }
    },
    {
      "type": "Feature",
      "properties": {
        "name": "Bounded locality route 4",
        "iteration": 4,
        "point_count": 5,
        "order": [
          "Meridan Plains",
          "Gilston",
          "Watsons Crossing",
          "Woodbury",
          "Murrigal"
        ],
        "stroke": "#f58231",
        "stroke-width": 2,
        "stroke-opacity": 1
      },
      "geometry": {
        "type": "LineString",
        "coordinates": [
          [
            153.07889,
            -26.76333
          ],
          [
            153.30972,
            -28.03
          ],
          [
            151.32556,
            -29.1125
          ],
          [
            150.71722,
            -22.98028
          ],
          [
            145.90194,
            -18.05194
          ]
        ]
      }
    },
    {
      "type": "Feature",
      "properties": {
        "iteration": 4,
        "reference_number": "50398",
        "place_name": "Meridan Plains",
        "lga_name": "Sunshine Coast Regional",
        "sequence": 1,
        "marker-color": "#f58231"
      },
      "geometry": {
        "type": "Point",
        "coordinates": [
          153.07889,
          -26.76333
        ]
      }
    },
    {
      "type": "Feature",
      "properties": {
        "iteration": 4,
        "reference_number": "48133",
        "place_name": "Gilston",
        "lga_name": "Gold Coast City",
        "sequence": 2,
        "marker-color": "#f58231"
      },
      "geometry": {
        "type": "Point",
        "coordinates": [
          153.30972,
          -28.03
        ]
      }
    },
    {
      "type": "Feature",
      "properties": {
        "iteration": 4,
        "reference_number": "47835",
        "place_name": "Watsons Crossing",
        "lga_name": "Goondiwindi Regional",
        "sequence": 3,
        "marker-color": "#f58231"
      },
      "geometry": {
        "type": "Point",
        "coordinates": [
          151.32556,
          -29.1125
        ]
      }
    },
    {
      "type": "Feature",
      "properties": {
        "iteration": 4,
        "reference_number": "49342",
        "place_name": "Woodbury",
        "lga_name": "Livingstone Shire",
        "sequence": 4,
        "marker-color": "#f58231"
      },
      "geometry": {
        "type": "Point",
        "coordinates": [
          150.71722,
          -22.98028
        ]
      }
    },
    {
      "type": "Feature",
      "properties": {
        "iteration": 4,
        "reference_number": "45740",
        "place_name": "Murrigal",
        "lga_name": "Cassowary Coast Regional",
        "sequence": 5,
        "marker-color": "#f58231"
      },
      "geometry": {
        "type": "Point",
        "coordinates": [
          145.90194,
          -18.05194
        ]
      }
    },
    {
      "type": "Feature",
      "properties": {
        "name": "Bounded locality route 5",
        "iteration": 5,
        "point_count": 3,
        "order": [
          "Darlington",
          "Park Ridge South",
          "Grosmont (Western Downs Regional)"
        ],
        "stroke": "#911eb4",
        "stroke-width": 2,
        "stroke-opacity": 1
      },
      "geometry": {
        "type": "LineString",
        "coordinates": [
          [
            153.06639,
            -28.23333
          ],
          [
            153.035,
            -27.72722
          ],
          [
            149.76833,
            -25.96528
          ]
        ]
      }
    },
    {
      "type": "Feature",
      "properties": {
        "iteration": 5,
        "reference_number": "45135",
        "place_name": "Darlington",
        "lga_name": "Scenic Rim Regional",
        "sequence": 1,
        "marker-color": "#911eb4"
      },
      "geometry": {
        "type": "Point",
        "coordinates": [
          153.06639,
          -28.23333
        ]
      }
    },
    {
      "type": "Feature",
      "properties": {
        "iteration": 5,
        "reference_number": "45285",
        "place_name": "Park Ridge South",
        "lga_name": "Logan City",
        "sequence": 2,
        "marker-color": "#911eb4"
      },
      "geometry": {
        "type": "Point",
        "coordinates": [
          153.035,
          -27.72722
        ]
      }
    },
    {
      "type": "Feature",
      "properties": {
        "iteration": 5,
        "reference_number": "47705",
        "place_name": "Grosmont (Western Downs Regional)",
        "lga_name": "Western Downs Regional",
        "sequence": 3,
        "marker-color": "#911eb4"
      },
      "geometry": {
        "type": "Point",
        "coordinates": [
          149.76833,
          -25.96528
        ]
      }
    }
  ]
}