{
  "type": "FeatureCollection",
  "features": [
    {
      "type": "Feature",
      "properties": {
        "name": "Bounded locality route 1",
        "iteration": 1,
        "point_count": 6,
        "order": [
          "Burrum Heads",
          "Donnybrook",
          "Birnam (Toowoomba Regional)",
          "Pine Hills",
          "Curtis Island",
          "Peak Vale (Isaac Regional)"
        ],
        "stroke": "#e6194b",
        "stroke-width": 2,
        "stroke-opacity": 1
      },
      "geometry": {
        "type": "LineString",
        "coordinates": [
          [
            152.60806,
            -25.20806
          ],
          [
            153.05083,
            -27.0075
          ],
          [
            151.92417,
            -27.49278
          ],
          [
            149.94917,
            -26.89972
          ],
          [
            151.15306,
            -23.61694
          ],
          [
            147.38833,
            -23.07
          ]
        ]
      }
    },
    {
      "type": "Feature",
      "properties": {
        "iteration": 1,
        "reference_number": "46637",
        "place_name": "Burrum Heads",
        "lga_name": "Fraser Coast Regional",
        "sequence": 1,
        "marker-color": "#e6194b"
      },
      "geometry": {
        "type": "Point",
        "coordinates": [
          152.60806,
          -25.20806
        ]
      }
    },
    {
      "type": "Feature",
      "properties": {
        "iteration": 1,
        "reference_number": "45410",
        "place_name": "Donnybrook",
        "lga_name": "Moreton Bay City",
        "sequence": 2,
        "marker-color": "#e6194b"
      },
      "geometry": {
        "type": "Point",
        "coordinates": [
          153.05083,
          -27.0075
        ]
      }
    },
    {
      "type": "Feature",
      "properties": {
        "iteration": 1,
        "reference_number": "49203",
        "place_name": "Birnam (Toowoomba Regional)",
        "lga_name": "Toowoomba Regional",
        "sequence": 3,
        "marker-color": "#e6194b"
      },
      "geometry": {
        "type": "Point",
        "coordinates": [
          151.92417,
          -27.49278
        ]
      }
    },
    {
      "type": "Feature",
      "properties": {
        "iteration": 1,
        "reference_number": "47738",
        "place_name": "Pine Hills",
        "lga_name": "Western Downs Regional",
        "sequence": 4,
        "marker-color": "#e6194b"
      },
      "geometry": {
        "type": "Point",
        "coordinates": [
          149.94917,
          -26.89972
        ]
      }
    },
    {
      "type": "Feature",
      "properties": {
        "iteration": 1,
        "reference_number": "47384",
        "place_name": "Curtis Island",
        "lga_name": "Gladstone Regional",
        "sequence": 5,
        "marker-color": "#e6194b"
      },
      "geometry": {
        "type": "Point",
        "coordinates": [
          151.15306,
          -23.61694
        ]
      }
    },
    {
      "type": "Feature",
      "properties": {
        "iteration": 1,
        "reference_number": "52418",
        "place_name": "Peak Vale (Isaac Regional)",
        "lga_name": "Isaac Regional",
        "sequence": 6,
        "marker-color": "#e6194b"
      },
      "geometry": {
        "type": "Point",
        "coordinates": [
          147.38833,
          -23.07
        ]
      }
    },
    {
      "type": "Feature",
      "properties": {
        "name": "Bounded locality route 2",
        "iteration": 2,
        "point_count": 3,
        "order": [
          "Fairyland",
          "Maryborough West",
          "Marmor"
        ],
        "stroke": "#3cb44b",
        "stroke-width": 2,
        "stroke-opacity": 1
      },
      "geometry": {
        "type": "LineString",
        "coordinates": [
          [
            150.93361,
            -26.52806
          ],
          [
            152.67056,
            -25.5025
          ],
          [
            150.75806,
            -23.70278
          ]
        ]
      }
    },
    {
      "type": "Feature",
      "properties": {
        "iteration": 2,
        "reference_number": "47698",
        "place_name": "Fairyland",
        "lga_name": "Western Downs Regional",
        "sequence": 1,
        "marker-color": "#3cb44b"
      },
      "geometry": {
        "type": "Point",
        "coordinates": [
          150.93361,
          -26.52806
        ]
      }
    },
    {
      "type": "Feature",
      "properties": {
        "iteration": 2,
        "reference_number": "46661",
        "place_name": "Maryborough West",
        "lga_name": "Fraser Coast Regional",
        "sequence": 2,
        "marker-color": "#3cb44b"
      },
      "geometry": {
        "type": "Point",
        "coordinates": [
          152.67056,
          -25.5025
        ]
      }
    },
    {
      "type": "Feature",
      "properties": {
        "iteration": 2,
        "reference_number": "48748",
        "place_name": "Marmor",
        "lga_name": "Rockhampton Regional",
        "sequence": 3,
        "marker-color": "#3cb44b"
      },
      "geometry": {
        "type": "Point",
        "coordinates": [
          150.75806,
          -23.70278
        ]
      }
    },
    {
      "type": "Feature",
      "properties": {
        "name": "Bounded locality route 3",
        "iteration": 3,
        "point_count": 6,
        "order": [
          "Wyaga",
          "Marburg (Somerset Regional)",
          "Bulwer",
          "Kunioon",
          "Beach Holm",
          "Middleton"
        ],
        "stroke": "#4363d8",
        "stroke-width": 2,
        "stroke-opacity": 1
      },
      "geometry": {
        "type": "LineString",
        "coordinates": [
          [
            150.65167,
            -28.2
          ],
          [
            152.60111,
            -27.54861
          ],
          [
            153.36972,
            -27.07861
          ],
          [
            151.9025,
            -26.66917
          ],
          [
            146.64917,
            -19.20639
          ],
          [
            141.71111,
            -22.67861
          ]
        ]
      }
    },
    {
      "type": "Feature",
      "properties": {
        "iteration": 3,
        "reference_number": "50048",
        "place_name": "Wyaga",
        "lga_name": "Goondiwindi Regional",
        "sequence": 1,
        "marker-color": "#4363d8"
      },
      "geometry": {
        "type": "Point",
        "coordinates": [
          150.65167,
          -28.2
        ]
      }
    },
    {
      "type": "Feature",
      "properties": {
        "iteration": 3,
        "reference_number": "52628",
        "place_name": "Marburg (Somerset Regional)",
        "lga_name": "Somerset Regional",
        "sequence": 2,
        "marker-color": "#4363d8"
      },
      "geometry": {
        "type": "Point",
        "coordinates": [
          152.60111,
          -27.54861
        ]
      }
    },
    {
      "type": "Feature",
      "properties": {
        "iteration": 3,
        "reference_number": "49458",
        "place_name": "Bulwer",
        "lga_name": "Brisbane City",
        "sequence": 3,
        "marker-color": "#4363d8"
      },
      "geometry": {
        "type": "Point",
        "coordinates": [
          153.36972,
          -27.07861
        ]
      }
    },
    {
      "type": "Feature",
      "properties": {
        "iteration": 3,
        "reference_number": "46236",
        "place_name": "Kunioon",
        "lga_name": "South Burnett Regional",
        "sequence": 4,
        "marker-color": "#4363d8"
      },
      "geometry": {
        "type": "Point",
        "coordinates": [
          151.9025,
          -26.66917
        ]
      }
    },
    {
      "type": "Feature",
      "properties": {
        "iteration": 3,
        "reference_number": "50390",
        "place_name": "Beach Holm",
        "lga_name": "Townsville City",
        "sequence": 5,
        "marker-color": "#4363d8"
      },
      "geometry": {
        "type": "Point",
        "coordinates": [
          146.64917,
          -19.20639
        ]
      }
    },
    {
      "type": "Feature",
      "properties": {
        "iteration": 3,
        "reference_number": "22001",
        "place_name": "Middleton",
        "lga_name": "Winton Shire",
        "sequence": 6,
        "marker-color": "#4363d8"
      },
      "geometry": {
        "type": "Point",
        "coordinates": [
          141.71111,
          -22.67861
        ]
      }
    },
    {
      "type": "Feature",
      "properties": {
        "name": "Bounded locality route 4",
        "iteration": 4,
        "point_count": 4,
        "order": [
          "Woongarra",
          "Bucca",
          "Warwick",
          "Boogan"
        ],
        "stroke": "#f58231",
        "stroke-width": 2,
        "stroke-opacity": 1
      },
      "geometry": {
        "type": "LineString",
        "coordinates": [
          [
            152.41333,
            -24.89444
          ],
          [
            152.10083,
            -24.8625
          ],
          [
            152.02222,
            -28.21667
          ],
          [
            146.01194,
            -17.60861
          ]
        ]
      }
    },
    {
      "type": "Feature",
      "properties": {
        "iteration": 4,
        "reference_number": "48366",
        "place_name": "Woongarra",
        "lga_name": "Bundaberg Regional",
        "sequence": 1,
        "marker-color": "#f58231"
      },
      "geometry": {
        "type": "Point",
        "coordinates": [
          152.41333,
          -24.89444
        ]
      }
    },
    {
      "type": "Feature",
      "properties": {
        "iteration": 4,
        "reference_number": "47125",
        "place_name": "Bucca",
        "lga_name": "Bundaberg Regional",
        "sequence": 2,
        "marker-color": "#f58231"
      },
      "geometry": {
        "type": "Point",
        "coordinates": [
          152.10083,
          -24.8625
        ]
      }
    },
    {
      "type": "Feature",
      "properties": {
        "iteration": 4,
        "reference_number": "47653",
        "place_name": "Warwick",
        "lga_name": "Southern Downs Regional",
        "sequence": 3,
        "marker-color": "#f58231"
      },
      "geometry": {
        "type": "Point",
        "coordinates": [
          152.02222,
          -28.21667
        ]
      }
    },
    {
      "type": "Feature",
      "properties": {
        "iteration": 4,
        "reference_number": "45680",
        "place_name": "Boogan",
        "lga_name": "Cassowary Coast Regional",
        "sequence": 4,
        "marker-color": "#f58231"
      },
      "geometry": {
        "type": "Point",
        "coordinates": [
          146.01194,
          -17.60861
        ]
      }
    },
    {
      "type": "Feature",
      "properties": {
        "name": "Bounded locality route 5",
        "iteration": 5,
        "point_count": 4,
        "order": [
          "Coral Cove",
          "Glenfern",
          "Wilsons Plains",
          "Thane"
        ],
        "stroke": "#911eb4",
        "stroke-width": 2,
        "stroke-opacity": 1
      },
      "geometry": {
        "type": "LineString",
        "coordinates": [
          [
            152.47833,
            -24.88194
          ],
          [
            152.60667,
            -26.96639
          ],
          [
            152.65111,
            -27.84167
          ],
          [
            151.70333,
            -28.15972
          ]
        ]
      }
    },
    {
      "type": "Feature",
      "properties": {
        "iteration": 5,
        "reference_number": "44703",
        "place_name": "Coral Cove",
        "lga_name": "Bundaberg Regional",
        "sequence": 1,
        "marker-color": "#911eb4"
      },
      "geometry": {
        "type": "Point",
        "coordinates": [
          152.47833,
          -24.88194
        ]
      }
    },
    {
      "type": "Feature",
      "properties": {
        "iteration": 5,
        "reference_number": "44871",
        "place_name": "Glenfern",
        "lga_name": "Somerset Regional",
        "sequence": 2,
        "marker-color": "#911eb4"
      },
      "geometry": {
        "type": "Point",
        "coordinates": [
          152.60667,
          -26.96639
        ]
      }
    },
    {
      "type": "Feature",
      "properties": {
        "iteration": 5,
        "reference_number": "49610",
        "place_name": "Wilsons Plains",
        "lga_name": "Scenic Rim Regional",
        "sequence": 3,
        "marker-color": "#911eb4"
      },
      "geometry": {
        "type": "Point",
        "coordinates": [
          152.65111,
          -27.84167
        ]
      }
    },
    {
      "type": "Feature",
      "properties": {
        "iteration": 5,
        "reference_number": "45986",
        "place_name": "Thane",
        "lga_name": "Southern Downs Regional",
        "sequence": 4,
        "marker-color": "#911eb4"
      },
      "geometry": {
        "type": "Point",
        "coordinates": [
          151.70333,
          -28.15972
        ]
      }
    }
  ]
}