{
  "type": "FeatureCollection",
  "features": [
    {
      "type": "Feature",
      "properties": {
        "name": "Bounded locality route 1",
        "iteration": 1,
        "point_count": 6,
        "order": [
          "Walter Lever Estate",
          "Dumbleton",
          "Wattlebank",
          "Coomoo",
          "Consuelo",
          "Abbeywood"
        ],
        "stroke": "#e6194b",
        "stroke-width": 2,
        "stroke-opacity": 1
      },
      "geometry": {
        "type": "LineString",
        "coordinates": [
          [
            145.97694,
            -17.72389
          ],
          [
            149.07639,
            -21.135
          ],
          [
            150.4725,
            -23.12028
          ],
          [
            149.51528,
            -23.86056
          ],
          [
            148.32583,
            -24.70639
          ],
          [
            151.64556,
            -26.10389
          ]
        ]
      }
    },
    {
      "type": "Feature",
      "properties": {
        "iteration": 1,
        "reference_number": "45765",
        "place_name": "Walter Lever Estate",
        "lga_name": "Cassowary Coast Regional",
        "sequence": 1,
        "marker-color": "#e6194b"
      },
      "geometry": {
        "type": "Point",
        "coordinates": [
          145.97694,
          -17.72389
        ]
      }
    },
    {
      "type": "Feature",
      "properties": {
        "iteration": 1,
        "reference_number": "46777",
        "place_name": "Dumbleton",
        "lga_name": "Mackay Regional",
        "sequence": 2,
        "marker-color": "#e6194b"
      },
      "geometry": {
        "type": "Point",
        "coordinates": [
          149.07639,
          -21.135
        ]
      }
    },
    {
      "type": "Feature",
      "properties": {
        "iteration": 1,
        "reference_number": "49428",
        "place_name": "Wattlebank",
        "lga_name": "Livingstone Shire",
        "sequence": 3,
        "marker-color": "#e6194b"
      },
      "geometry": {
        "type": "Point",
        "coordinates": [
          150.4725,
          -23.12028
        ]
      }
    },
    {
      "type": "Feature",
      "properties": {
        "iteration": 1,
        "reference_number": "46942",
        "place_name": "Coomoo",
        "lga_name": "Central Highlands Regional",
        "sequence": 4,
        "marker-color": "#e6194b"
      },
      "geometry": {
        "type": "Point",
        "coordinates": [
          149.51528,
          -23.86056
        ]
      }
    },
    {
      "type": "Feature",
      "properties": {
        "iteration": 1,
        "reference_number": "46940",
        "place_name": "Consuelo",
        "lga_name": "Central Highlands Regional",
        "sequence": 5,
        "marker-color": "#e6194b"
      },
      "geometry": {
        "type": "Point",
        "coordinates": [
          148.32583,
          -24.70639
        ]
      }
    },
    {
      "type": "Feature",
      "properties": {
        "iteration": 1,
        "reference_number": "46185",
        "place_name": "Abbeywood",
        "lga_name": "South Burnett Regional",
        "sequence": 6,
        "marker-color": "#e6194b"
      },
      "geometry": {
        "type": "Point",
        "coordinates": [
          151.64556,
          -26.10389
        ]
      }
    },
    {
      "type": "Feature",
      "properties": {
        "name": "Bounded locality route 2",
        "iteration": 2,
        "point_count": 3,
        "order": [
          "Morinish South",
          "Mount Hutton",
          "Orange Hill"
        ],
        "stroke": "#3cb44b",
        "stroke-width": 2,
        "stroke-opacity": 1
      },
      "geometry": {
        "type": "LineString",
        "coordinates": [
          [
            150.02111,
            -23.36472
          ],
          [
            148.34667,
            -25.90889
          ],
          [
            148.79,
            -26.49139
          ]
        ]
      }
    },
    {
      "type": "Feature",
      "properties": {
        "iteration": 2,
        "reference_number": "48775",
        "place_name": "Morinish South",
        "lga_name": "Rockhampton Regional",
        "sequence": 1,
        "marker-color": "#3cb44b"
      },
      "geometry": {
        "type": "Point",
        "coordinates": [
          150.02111,
          -23.36472
        ]
      }
    },
    {
      "type": "Feature",
      "properties": {
        "iteration": 2,
        "reference_number": "47440",
        "place_name": "Mount Hutton",
        "lga_name": "Maranoa Regional",
        "sequence": 2,
        "marker-color": "#3cb44b"
      },
      "geometry": {
        "type": "Point",
        "coordinates": [
          148.34667,
          -25.90889
        ]
      }
    },
    {
      "type": "Feature",
      "properties": {
        "iteration": 2,
        "reference_number": "47448",
        "place_name": "Orange Hill",
        "lga_name": "Maranoa Regional",
        "sequence": 3,
        "marker-color": "#3cb44b"
      },
      "geometry": {
        "type": "Point",
        "coordinates": [
          148.79,
          -26.49139
        ]
      }
    },
    {
      "type": "Feature",
      "properties": {
        "name": "Bounded locality route 3",
        "iteration": 3,
        "point_count": 3,
        "order": [
          "Elphinstone (Toowoomba Regional)",
          "Wooroona",
          "East Trinity"
        ],
        "stroke": "#4363d8",
        "stroke-width": 2,
        "stroke-opacity": 1
      },
      "geometry": {
        "type": "LineString",
        "coordinates": [
          [
            151.90111,
            -27.98194
          ],
          [
            149.27306,
            -24.02194
          ],
          [
            145.82361,
            -16.92528
          ]
        ]
      }
    },
    {
      "type": "Feature",
      "properties": {
        "iteration": 3,
        "reference_number": "47937",
        "place_name": "Elphinstone (Toowoomba Regional)",
        "lga_name": "Toowoomba Regional",
        "sequence": 1,
        "marker-color": "#4363d8"
      },
      "geometry": {
        "type": "Point",
        "coordinates": [
          151.90111,
          -27.98194
        ]
      }
    },
    {
      "type": "Feature",
      "properties": {
        "iteration": 3,
        "reference_number": "46988",
        "place_name": "Wooroona",
        "lga_name": "Central Highlands Regional",
        "sequence": 2,
        "marker-color": "#4363d8"
      },
      "geometry": {
        "type": "Point",
        "coordinates": [
          149.27306,
          -24.02194
        ]
      }
    },
    {
      "type": "Feature",
      "properties": {
        "iteration": 3,
        "reference_number": "48616",
        "place_name": "East Trinity",
        "lga_name": "Cairns Regional",
        "sequence": 3,
        "marker-color": "#4363d8"
      },
      "geometry": {
        "type": "Point",
        "coordinates": [
          145.82361,
          -16.92528
        ]
      }
    },
    {
      "type": "Feature",
      "properties": {
        "name": "Bounded locality route 4",
        "iteration": 4,
        "point_count": 4,
        "order": [
          "Suttor",
          "Taranganba",
          "Curramore",
          "Strathmore (Etheridge Shire)"
        ],
        "stroke": "#f58231",
        "stroke-width": 2,
        "stroke-opacity": 1
      },
      "geometry": {
        "type": "LineString",
        "coordinates": [
          [
            147.89667,
            -21.34056
          ],
          [
            150.75306,
            -23.15028
          ],
          [
            152.75444,
            -26.67611
          ],
          [
            142.65972,
            -17.82056
          ]
        ]
      }
    },
    {
      "type": "Feature",
      "properties": {
        "iteration": 4,
        "reference_number": "47037",
        "place_name": "Suttor",
        "lga_name": "Isaac Regional",
        "sequence": 1,
        "marker-color": "#f58231"
      },
      "geometry": {
        "type": "Point",
        "coordinates": [
          147.89667,
          -21.34056
        ]
      }
    },
    {
      "type": "Feature",
      "properties": {
        "iteration": 4,
        "reference_number": "48889",
        "place_name": "Taranganba",
        "lga_name": "Livingstone Shire",
        "sequence": 2,
        "marker-color": "#f58231"
      },
      "geometry": {
        "type": "Point",
        "coordinates": [
          150.75306,
          -23.15028
        ]
      }
    },
    {
      "type": "Feature",
      "properties": {
        "iteration": 4,
        "reference_number": "50521",
        "place_name": "Curramore",
        "lga_name": "Sunshine Coast Regional",
        "sequence": 3,
        "marker-color": "#f58231"
      },
      "geometry": {
        "type": "Point",
        "coordinates": [
          152.75444,
          -26.67611
        ]
      }
    },
    {
      "type": "Feature",
      "properties": {
        "iteration": 4,
        "reference_number": "41663",
        "place_name": "Strathmore (Etheridge Shire)",
        "lga_name": "Etheridge Shire",
        "sequence": 4,
        "marker-color": "#f58231"
      },
      "geometry": {
        "type": "Point",
        "coordinates": [
          142.65972,
          -17.82056
        ]
      }
    },
    {
      "type": "Feature",
      "properties": {
        "name": "Bounded locality route 5",
        "iteration": 5,
        "point_count": 3,
        "order": [
          "Diamond Valley",
          "Scrubby Creek (Blackall-Tambo Regional)",
          "Mission Beach"
        ],
        "stroke": "#911eb4",
        "stroke-width": 2,
        "stroke-opacity": 1
      },
      "geometry": {
        "type": "LineString",
        "coordinates": [
          [
            152.92639,
            -26.75611
          ],
          [
            145.72028,
            -25.54833
          ],
          [
            146.10361,
            -17.86194
          ]
        ]
      }
    },
    {
      "type": "Feature",
      "properties": {
        "iteration": 5,
        "reference_number": "50949",
        "place_name": "Diamond Valley",
        "lga_name": "Sunshine Coast Regional",
        "sequence": 1,
        "marker-color": "#911eb4"
      },
      "geometry": {
        "type": "Point",
        "coordinates": [
          152.92639,
          -26.75611
        ]
      }
    },
    {
      "type": "Feature",
      "properties": {
        "iteration": 5,
        "reference_number": "47065",
        "place_name": "Scrubby Creek (Blackall-Tambo Regional)",
        "lga_name": "Blackall-Tambo Regional",
        "sequence": 2,
        "marker-color": "#911eb4"
      },
      "geometry": {
        "type": "Point",
        "coordinates": [
          145.72028,
          -25.54833
        ]
      }
    },
    {
      "type": "Feature",
      "properties": {
        "iteration": 5,
        "reference_number": "45732",
        "place_name": "Mission Beach",
        "lga_name": "Cassowary Coast Regional",
        "sequence": 3,
        "marker-color": "#911eb4"
      },
      "geometry": {
        "type": "Point",
        "coordinates": [
          146.10361,
          -17.86194
        ]
      }
    }
  ]
}