{
  "type": "FeatureCollection",
  "features": [
    {
      "type": "Feature",
      "properties": {
        "name": "Bounded locality route 1",
        "iteration": 1,
        "point_count": 5,
        "order": [
          "Westwood (Rockhampton Regional)",
          "Round Hill",
          "New Moonta",
          "Sommariva",
          "Gilberton (Etheridge Shire)"
        ],
        "stroke": "#e6194b",
        "stroke-width": 2,
        "stroke-opacity": 1
      },
      "geometry": {
        "type": "LineString",
        "coordinates": [
          [
            150.13833,
            -23.60306
          ],
          [
            151.88333,
            -24.27639
          ],
          [
            151.72889,
            -25.02472
          ],
          [
            146.70917,
            -26.40944
          ],
          [
            143.65139,
            -19.27389
          ]
        ]
      }
    },
    {
      "type": "Feature",
      "properties": {
        "iteration": 1,
        "reference_number": "48930",
        "place_name": "Westwood (Rockhampton Regional)",
        "lga_name": "Rockhampton Regional",
        "sequence": 1,
        "marker-color": "#e6194b"
      },
      "geometry": {
        "type": "Point",
        "coordinates": [
          150.13833,
          -23.60306
        ]
      }
    },
    {
      "type": "Feature",
      "properties": {
        "iteration": 1,
        "reference_number": "46621",
        "place_name": "Round Hill",
        "lga_name": "Gladstone Regional",
        "sequence": 2,
        "marker-color": "#e6194b"
      },
      "geometry": {
        "type": "Point",
        "coordinates": [
          151.88333,
          -24.27639
        ]
      }
    },
    {
      "type": "Feature",
      "properties": {
        "iteration": 1,
        "reference_number": "45512",
        "place_name": "New Moonta",
        "lga_name": "Bundaberg Regional",
        "sequence": 3,
        "marker-color": "#e6194b"
      },
      "geometry": {
        "type": "Point",
        "coordinates": [
          151.72889,
          -25.02472
        ]
      }
    },
    {
      "type": "Feature",
      "properties": {
        "iteration": 1,
        "reference_number": "50253",
        "place_name": "Sommariva",
        "lga_name": "Murweh Shire",
        "sequence": 4,
        "marker-color": "#e6194b"
      },
      "geometry": {
        "type": "Point",
        "coordinates": [
          146.70917,
          -26.40944
        ]
      }
    },
    {
      "type": "Feature",
      "properties": {
        "iteration": 1,
        "reference_number": "41674",
        "place_name": "Gilberton (Etheridge Shire)",
        "lga_name": "Etheridge Shire",
        "sequence": 5,
        "marker-color": "#e6194b"
      },
      "geometry": {
        "type": "Point",
        "coordinates": [
          143.65139,
          -19.27389
        ]
      }
    },
    {
      "type": "Feature",
      "properties": {
        "name": "Bounded locality route 2",
        "iteration": 2,
        "point_count": 4,
        "order": [
          "Mount Alma",
          "Ingoldsby",
          "Thane",
          "Yungaburra"
        ],
        "stroke": "#3cb44b",
        "stroke-width": 2,
        "stroke-opacity": 1
      },
      "geometry": {
        "type": "LineString",
        "coordinates": [
          [
            150.87556,
            -24.09056
          ],
          [
            152.26639,
            -27.73667
          ],
          [
            151.70333,
            -28.15972
          ],
          [
            145.59917,
            -17.2725
          ]
        ]
      }
    },
    {
      "type": "Feature",
      "properties": {
        "iteration": 2,
        "reference_number": "46613",
        "place_name": "Mount Alma",
        "lga_name": "Gladstone Regional",
        "sequence": 1,
        "marker-color": "#3cb44b"
      },
      "geometry": {
        "type": "Point",
        "coordinates": [
          150.87556,
          -24.09056
        ]
      }
    },
    {
      "type": "Feature",
      "properties": {
        "iteration": 2,
        "reference_number": "44960",
        "place_name": "Ingoldsby",
        "lga_name": "Lockyer Valley Regional",
        "sequence": 2,
        "marker-color": "#3cb44b"
      },
      "geometry": {
        "type": "Point",
        "coordinates": [
          152.26639,
          -27.73667
        ]
      }
    },
    {
      "type": "Feature",
      "properties": {
        "iteration": 2,
        "reference_number": "45986",
        "place_name": "Thane",
        "lga_name": "Southern Downs Regional",
        "sequence": 3,
        "marker-color": "#3cb44b"
      },
      "geometry": {
        "type": "Point",
        "coordinates": [
          151.70333,
          -28.15972
        ]
      }
    },
    {
      "type": "Feature",
      "properties": {
        "iteration": 2,
        "reference_number": "48957",
        "place_name": "Yungaburra",
        "lga_name": "Tablelands Regional",
        "sequence": 4,
        "marker-color": "#3cb44b"
      },
      "geometry": {
        "type": "Point",
        "coordinates": [
          145.59917,
          -17.2725
        ]
      }
    },
    {
      "type": "Feature",
      "properties": {
        "name": "Bounded locality route 3",
        "iteration": 3,
        "point_count": 3,
        "order": [
          "Tarzali",
          "Tolga",
          "Mount Marshall"
        ],
        "stroke": "#4363d8",
        "stroke-width": 2,
        "stroke-opacity": 1
      },
      "geometry": {
        "type": "LineString",
        "coordinates": [
          [
            145.57917,
            -17.43361
          ],
          [
            145.46194,
            -17.18722
          ],
          [
            152.03944,
            -28.07944
          ]
        ]
      }
    },
    {
      "type": "Feature",
      "properties": {
        "iteration": 3,
        "reference_number": "49860",
        "place_name": "Tarzali",
        "lga_name": "Tablelands Regional",
        "sequence": 1,
        "marker-color": "#4363d8"
      },
      "geometry": {
        "type": "Point",
        "coordinates": [
          145.57917,
          -17.43361
        ]
      }
    },
    {
      "type": "Feature",
      "properties": {
        "iteration": 3,
        "reference_number": "48903",
        "place_name": "Tolga",
        "lga_name": "Tablelands Regional",
        "sequence": 2,
        "marker-color": "#4363d8"
      },
      "geometry": {
        "type": "Point",
        "coordinates": [
          145.46194,
          -17.18722
        ]
      }
    },
    {
      "type": "Feature",
      "properties": {
        "iteration": 3,
        "reference_number": "45956",
        "place_name": "Mount Marshall",
        "lga_name": "Southern Downs Regional",
        "sequence": 3,
        "marker-color": "#4363d8"
      },
      "geometry": {
        "type": "Point",
        "coordinates": [
          152.03944,
          -28.07944
        ]
      }
    },
    {
      "type": "Feature",
      "properties": {
        "name": "Bounded locality route 4",
        "iteration": 4,
        "point_count": 3,
        "order": [
          "Humeburn",
          "Monsildale",
          "Crohamhurst"
        ],
        "stroke": "#f58231",
        "stroke-width": 2,
        "stroke-opacity": 1
      },
      "geometry": {
        "type": "LineString",
        "coordinates": [
          [
            145.27806,
            -27.41222
          ],
          [
            152.30944,
            -26.77333
          ],
          [
            152.86111,
            -26.80833
          ]
        ]
      }
    },
    {
      "type": "Feature",
      "properties": {
        "iteration": 4,
        "reference_number": "49191",
        "place_name": "Humeburn",
        "lga_name": "Paroo Shire",
        "sequence": 1,
        "marker-color": "#f58231"
      },
      "geometry": {
        "type": "Point",
        "coordinates": [
          145.27806,
          -27.41222
        ]
      }
    },
    {
      "type": "Feature",
      "properties": {
        "iteration": 4,
        "reference_number": "47623",
        "place_name": "Monsildale",
        "lga_name": "Somerset Regional",
        "sequence": 2,
        "marker-color": "#f58231"
      },
      "geometry": {
        "type": "Point",
        "coordinates": [
          152.30944,
          -26.77333
        ]
      }
    },
    {
      "type": "Feature",
      "properties": {
        "iteration": 4,
        "reference_number": "48592",
        "place_name": "Crohamhurst",
        "lga_name": "Sunshine Coast Regional",
        "sequence": 3,
        "marker-color": "#f58231"
      },
      "geometry": {
        "type": "Point",
        "coordinates": [
          152.86111,
          -26.80833
        ]
      }
    },
    {
      "type": "Feature",
      "properties": {
        "name": "Bounded locality route 5",
        "iteration": 5,
        "point_count": 4,
        "order": [
          "Crownthorpe (South Burnett Regional)",
          "K'gari",
          "Goondi",
          "Stokes"
        ],
        "stroke": "#911eb4",
        "stroke-width": 2,
        "stroke-opacity": 1
      },
      "geometry": {
        "type": "LineString",
        "coordinates": [
          [
            151.93778,
            -26.11444
          ],
          [
            153.14444,
            -25.24806
          ],
          [
            146.00556,
            -17.50417
          ],
          [
            140.50194,
            -18.67417
          ]
        ]
      }
    },
    {
      "type": "Feature",
      "properties": {
        "iteration": 5,
        "reference_number": "47375",
        "place_name": "Crownthorpe (South Burnett Regional)",
        "lga_name": "South Burnett Regional",
        "sequence": 1,
        "marker-color": "#911eb4"
      },
      "geometry": {
        "type": "Point",
        "coordinates": [
          151.93778,
          -26.11444
        ]
      }
    },
    {
      "type": "Feature",
      "properties": {
        "iteration": 5,
        "reference_number": "52247",
        "place_name": "K'gari",
        "lga_name": "Fraser Coast Regional",
        "sequence": 2,
        "marker-color": "#911eb4"
      },
      "geometry": {
        "type": "Point",
        "coordinates": [
          153.14444,
          -25.24806
        ]
      }
    },
    {
      "type": "Feature",
      "properties": {
        "iteration": 5,
        "reference_number": "45702",
        "place_name": "Goondi",
        "lga_name": "Cassowary Coast Regional",
        "sequence": 3,
        "marker-color": "#911eb4"
      },
      "geometry": {
        "type": "Point",
        "coordinates": [
          146.00556,
          -17.50417
        ]
      }
    },
    {
      "type": "Feature",
      "properties": {
        "iteration": 5,
        "reference_number": "42918",
        "place_name": "Stokes",
        "lga_name": "Carpentaria Shire",
        "sequence": 4,
        "marker-color": "#911eb4"
      },
      "geometry": {
        "type": "Point",
        "coordinates": [
          140.50194,
          -18.67417
        ]
      }
    }
  ]
}