{
  "type": "FeatureCollection",
  "features": [
    {
      "type": "Feature",
      "properties": {
        "name": "Bounded locality route 1",
        "iteration": 1,
        "point_count": 3,
        "order": [
          "Tungamull",
          "Bluff",
          "Julia Creek"
        ]
      },
      "geometry": {
        "type": "LineString",
        "coordinates": [
          [
            150.69694,
            -23.3325
          ],
          [
            149.05667,
            -23.49444
          ],
          [
            141.63806,
            -20.66028
          ]
        ]
      }
    },
    {
      "type": "Feature",
      "properties": {
        "iteration": 1,
        "reference_number": "49426",
        "place_name": "Tungamull",
        "lga_name": "Livingstone Shire",
        "sequence": 1
      },
      "geometry": {
        "type": "Point",
        "coordinates": [
          150.69694,
          -23.3325
        ]
      }
    },
    {
      "type": "Feature",
      "properties": {
        "iteration": 1,
        "reference_number": "46919",
        "place_name": "Bluff",
        "lga_name": "Central Highlands Regional",
        "sequence": 2
      },
      "geometry": {
        "type": "Point",
        "coordinates": [
          149.05667,
          -23.49444
        ]
      }
    },
    {
      "type": "Feature",
      "properties": {
        "iteration": 1,
        "reference_number": "42263",
        "place_name": "Julia Creek",
        "lga_name": "McKinlay Shire",
        "sequence": 3
      },
      "geometry": {
        "type": "Point",
        "coordinates": [
          141.63806,
          -20.66028
        ]
      }
    },
    {
      "type": "Feature",
      "properties": {
        "name": "Bounded locality route 2",
        "iteration": 2,
        "point_count": 3,
        "order": [
          "Struck Oil",
          "Upper Yarraman",
          "Andromache"
        ]
      },
      "geometry": {
        "type": "LineString",
        "coordinates": [
          [
            150.44639,
            -23.6125
          ],
          [
            151.89667,
            -26.88972
          ],
          [
            148.40972,
            -20.59583
          ]
        ]
      }
    },
    {
      "type": "Feature",
      "properties": {
        "iteration": 2,
        "reference_number": "48883",
        "place_name": "Struck Oil",
        "lga_name": "Rockhampton Regional",
        "sequence": 1
      },
      "geometry": {
        "type": "Point",
        "coordinates": [
          150.44639,
          -23.6125
        ]
      }
    },
    {
      "type": "Feature",
      "properties": {
        "iteration": 2,
        "reference_number": "50516",
        "place_name": "Upper Yarraman",
        "lga_name": "Toowoomba Regional",
        "sequence": 2
      },
      "geometry": {
        "type": "Point",
        "coordinates": [
          151.89667,
          -26.88972
        ]
      }
    },
    {
      "type": "Feature",
      "properties": {
        "iteration": 2,
        "reference_number": "46850",
        "place_name": "Andromache",
        "lga_name": "Whitsunday Regional",
        "sequence": 3
      },
      "geometry": {
        "type": "Point",
        "coordinates": [
          148.40972,
          -20.59583
        ]
      }
    },
    {
      "type": "Feature",
      "properties": {
        "name": "Bounded locality route 3",
        "iteration": 3,
        "point_count": 6,
        "order": [
          "Allenview",
          "Helidon Spa",
          "Highland Plains (Toowoomba Regional)",
          "Doonan (Sunshine Coast Regional)",
          "Trotter Creek",
          "Evans Landing"
        ]
      },
      "geometry": {
        "type": "LineString",
        "coordinates": [
          [
            152.91667,
            -27.91194
          ],
          [
            152.08944,
            -27.54361
          ],
          [
            151.75972,
            -27.27444
          ],
          [
            153.00528,
            -26.45222
          ],
          [
            150.37861,
            -23.69194
          ],
          [
            141.85361,
            -12.66194
          ]
        ]
      }
    },
    {
      "type": "Feature",
      "properties": {
        "iteration": 3,
        "reference_number": "45105",
        "place_name": "Allenview",
        "lga_name": "Scenic Rim Regional",
        "sequence": 1
      },
      "geometry": {
        "type": "Point",
        "coordinates": [
          152.91667,
          -27.91194
        ]
      }
    },
    {
      "type": "Feature",
      "properties": {
        "iteration": 3,
        "reference_number": "45004",
        "place_name": "Helidon Spa",
        "lga_name": "Lockyer Valley Regional",
        "sequence": 2
      },
      "geometry": {
        "type": "Point",
        "coordinates": [
          152.08944,
          -27.54361
        ]
      }
    },
    {
      "type": "Feature",
      "properties": {
        "iteration": 3,
        "reference_number": "47969",
        "place_name": "Highland Plains (Toowoomba Regional)",
        "lga_name": "Toowoomba Regional",
        "sequence": 3
      },
      "geometry": {
        "type": "Point",
        "coordinates": [
          151.75972,
          -27.27444
        ]
      }
    },
    {
      "type": "Feature",
      "properties": {
        "iteration": 3,
        "reference_number": "48611",
        "place_name": "Doonan (Sunshine Coast Regional)",
        "lga_name": "Sunshine Coast Regional",
        "sequence": 4
      },
      "geometry": {
        "type": "Point",
        "coordinates": [
          153.00528,
          -26.45222
        ]
      }
    },
    {
      "type": "Feature",
      "properties": {
        "iteration": 3,
        "reference_number": "48908",
        "place_name": "Trotter Creek",
        "lga_name": "Rockhampton Regional",
        "sequence": 5
      },
      "geometry": {
        "type": "Point",
        "coordinates": [
          150.37861,
          -23.69194
        ]
      }
    },
    {
      "type": "Feature",
      "properties": {
        "iteration": 3,
        "reference_number": "12015",
        "place_name": "Evans Landing",
        "lga_name": "Weipa Town",
        "sequence": 6
      },
      "geometry": {
        "type": "Point",
        "coordinates": [
          141.85361,
          -12.66194
        ]
      }
    },
    {
      "type": "Feature",
      "properties": {
        "name": "Bounded locality route 4",
        "iteration": 4,
        "point_count": 4,
        "order": [
          "Stapylton",
          "Bony Mountain",
          "Innes Park",
          "Maria Creeks"
        ]
      },
      "geometry": {
        "type": "LineString",
        "coordinates": [
          [
            153.24472,
            -27.73028
          ],
          [
            151.8425,
            -28.10056
          ],
          [
            152.46611,
            -24.86722
          ],
          [
            146.03417,
            -17.82361
          ]
        ]
      }
    },
    {
      "type": "Feature",
      "properties": {
        "iteration": 4,
        "reference_number": "46100",
        "place_name": "Stapylton",
        "lga_name": "Gold Coast City",
        "sequence": 1
      },
      "geometry": {
        "type": "Point",
        "coordinates": [
          153.24472,
          -27.73028
        ]
      }
    },
    {
      "type": "Feature",
      "properties": {
        "iteration": 4,
        "reference_number": "47645",
        "place_name": "Bony Mountain",
        "lga_name": "Southern Downs Regional",
        "sequence": 2
      },
      "geometry": {
        "type": "Point",
        "coordinates": [
          151.8425,
          -28.10056
        ]
      }
    },
    {
      "type": "Feature",
      "properties": {
        "iteration": 4,
        "reference_number": "44729",
        "place_name": "Innes Park",
        "lga_name": "Bundaberg Regional",
        "sequence": 3
      },
      "geometry": {
        "type": "Point",
        "coordinates": [
          152.46611,
          -24.86722
        ]
      }
    },
    {
      "type": "Feature",
      "properties": {
        "iteration": 4,
        "reference_number": "45724",
        "place_name": "Maria Creeks",
        "lga_name": "Cassowary Coast Regional",
        "sequence": 4
      },
      "geometry": {
        "type": "Point",
        "coordinates": [
          146.03417,
          -17.82361
        ]
      }
    },
    {
      "type": "Feature",
      "properties": {
        "name": "Bounded locality route 5",
        "iteration": 5,
        "point_count": 6,
        "order": [
          "Oakhurst",
          "Churchable",
          "Iredale",
          "Whetstone",
          "Joskeleigh",
          "Eungella"
        ]
      },
      "geometry": {
        "type": "LineString",
        "coordinates": [
          [
            152.62639,
            -25.5125
          ],
          [
            152.37556,
            -27.42528
          ],
          [
            152.10639,
            -27.57944
          ],
          [
            150.84861,
            -28.42111
          ],
          [
            150.8,
            -23.38111
          ],
          [
            148.48278,
            -21.11889
          ]
        ]
      }
    },
    {
      "type": "Feature",
      "properties": {
        "iteration": 5,
        "reference_number": "46731",
        "place_name": "Oakhurst",
        "lga_name": "Fraser Coast Regional",
        "sequence": 1
      },
      "geometry": {
        "type": "Point",
        "coordinates": [
          152.62639,
          -25.5125
        ]
      }
    },
    {
      "type": "Feature",
      "properties": {
        "iteration": 5,
        "reference_number": "44949",
        "place_name": "Churchable",
        "lga_name": "Lockyer Valley Regional",
        "sequence": 2
      },
      "geometry": {
        "type": "Point",
        "coordinates": [
          152.37556,
          -27.42528
        ]
      }
    },
    {
      "type": "Feature",
      "properties": {
        "iteration": 5,
        "reference_number": "44961",
        "place_name": "Iredale",
        "lga_name": "Lockyer Valley Regional",
        "sequence": 3
      },
      "geometry": {
        "type": "Point",
        "coordinates": [
          152.10639,
          -27.57944
        ]
      }
    },
    {
      "type": "Feature",
      "properties": {
        "iteration": 5,
        "reference_number": "47837",
        "place_name": "Whetstone",
        "lga_name": "Goondiwindi Regional",
        "sequence": 4
      },
      "geometry": {
        "type": "Point",
        "coordinates": [
          150.84861,
          -28.42111
        ]
      }
    },
    {
      "type": "Feature",
      "properties": {
        "iteration": 5,
        "reference_number": "48685",
        "place_name": "Joskeleigh",
        "lga_name": "Livingstone Shire",
        "sequence": 5
      },
      "geometry": {
        "type": "Point",
        "coordinates": [
          150.8,
          -23.38111
        ]
      }
    },
    {
      "type": "Feature",
      "properties": {
        "iteration": 5,
        "reference_number": "46782",
        "place_name": "Eungella",
        "lga_name": "Mackay Regional",
        "sequence": 6
      },
      "geometry": {
        "type": "Point",
        "coordinates": [
          148.48278,
          -21.11889
        ]
      }
    }
  ]
}