{
  "type": "FeatureCollection",
  "features": [
    {
      "type": "Feature",
      "properties": {
        "name": "Bounded locality route 1",
        "iteration": 1,
        "point_count": 4,
        "order": [
          "Boyne Valley",
          "Westmar",
          "Nundubbermere",
          "Cordelia"
        ]
      },
      "geometry": {
        "type": "LineString",
        "coordinates": [
          [
            151.29278,
            -24.45361
          ],
          [
            149.75722,
            -27.8825
          ],
          [
            151.76417,
            -28.73111
          ],
          [
            146.24611,
            -18.60528
          ]
        ]
      }
    },
    {
      "type": "Feature",
      "properties": {
        "iteration": 1,
        "reference_number": "46593",
        "place_name": "Boyne Valley",
        "lga_name": "Gladstone Regional",
        "sequence": 1
      },
      "geometry": {
        "type": "Point",
        "coordinates": [
          151.29278,
          -24.45361
        ]
      }
    },
    {
      "type": "Feature",
      "properties": {
        "iteration": 1,
        "reference_number": "47758",
        "place_name": "Westmar",
        "lga_name": "Western Downs Regional",
        "sequence": 2
      },
      "geometry": {
        "type": "Point",
        "coordinates": [
          149.75722,
          -27.8825
        ]
      }
    },
    {
      "type": "Feature",
      "properties": {
        "iteration": 1,
        "reference_number": "45962",
        "place_name": "Nundubbermere",
        "lga_name": "Southern Downs Regional",
        "sequence": 3
      },
      "geometry": {
        "type": "Point",
        "coordinates": [
          151.76417,
          -28.73111
        ]
      }
    },
    {
      "type": "Feature",
      "properties": {
        "iteration": 1,
        "reference_number": "42513",
        "place_name": "Cordelia",
        "lga_name": "Hinchinbrook Shire",
        "sequence": 4
      },
      "geometry": {
        "type": "Point",
        "coordinates": [
          146.24611,
          -18.60528
        ]
      }
    },
    {
      "type": "Feature",
      "properties": {
        "name": "Bounded locality route 2",
        "iteration": 2,
        "point_count": 4,
        "order": [
          "Natural Bridge",
          "Waraba",
          "Baralaba",
          "Bedourie"
        ]
      },
      "geometry": {
        "type": "LineString",
        "coordinates": [
          [
            153.22861,
            -28.22056
          ],
          [
            152.87833,
            -27.08667
          ],
          [
            149.92444,
            -24.31583
          ],
          [
            139.43889,
            -24.43167
          ]
        ]
      }
    },
    {
      "type": "Feature",
      "properties": {
        "iteration": 2,
        "reference_number": "47850",
        "place_name": "Natural Bridge",
        "lga_name": "Gold Coast City",
        "sequence": 1
      },
      "geometry": {
        "type": "Point",
        "coordinates": [
          153.22861,
          -28.22056
        ]
      }
    },
    {
      "type": "Feature",
      "properties": {
        "iteration": 2,
        "reference_number": "52236",
        "place_name": "Waraba",
        "lga_name": "Moreton Bay City",
        "sequence": 2
      },
      "geometry": {
        "type": "Point",
        "coordinates": [
          152.87833,
          -27.08667
        ]
      }
    },
    {
      "type": "Feature",
      "properties": {
        "iteration": 2,
        "reference_number": "49535",
        "place_name": "Baralaba",
        "lga_name": "Banana Shire",
        "sequence": 3
      },
      "geometry": {
        "type": "Point",
        "coordinates": [
          149.92444,
          -24.31583
        ]
      }
    },
    {
      "type": "Feature",
      "properties": {
        "iteration": 2,
        "reference_number": "41498",
        "place_name": "Bedourie",
        "lga_name": "Diamantina Shire",
        "sequence": 4
      },
      "geometry": {
        "type": "Point",
        "coordinates": [
          139.43889,
          -24.43167
        ]
      }
    },
    {
      "type": "Feature",
      "properties": {
        "name": "Bounded locality route 3",
        "iteration": 3,
        "point_count": 5,
        "order": [
          "Jackson South",
          "Dundas",
          "Eungella Dam",
          "Helens Hill",
          "Shell Pocket"
        ]
      },
      "geometry": {
        "type": "LineString",
        "coordinates": [
          [
            149.57222,
            -26.73139
          ],
          [
            152.68444,
            -27.29861
          ],
          [
            148.39083,
            -21.17694
          ],
          [
            146.125,
            -18.78722
          ],
          [
            145.98278,
            -17.81639
          ]
        ]
      }
    },
    {
      "type": "Feature",
      "properties": {
        "iteration": 3,
        "reference_number": "47433",
        "place_name": "Jackson South",
        "lga_name": "Maranoa Regional",
        "sequence": 1
      },
      "geometry": {
        "type": "Point",
        "coordinates": [
          149.57222,
          -26.73139
        ]
      }
    },
    {
      "type": "Feature",
      "properties": {
        "iteration": 3,
        "reference_number": "44862",
        "place_name": "Dundas",
        "lga_name": "Somerset Regional",
        "sequence": 2
      },
      "geometry": {
        "type": "Point",
        "coordinates": [
          152.68444,
          -27.29861
        ]
      }
    },
    {
      "type": "Feature",
      "properties": {
        "iteration": 3,
        "reference_number": "46783",
        "place_name": "Eungella Dam",
        "lga_name": "Mackay Regional",
        "sequence": 3
      },
      "geometry": {
        "type": "Point",
        "coordinates": [
          148.39083,
          -21.17694
        ]
      }
    },
    {
      "type": "Feature",
      "properties": {
        "iteration": 3,
        "reference_number": "42519",
        "place_name": "Helens Hill",
        "lga_name": "Hinchinbrook Shire",
        "sequence": 4
      },
      "geometry": {
        "type": "Point",
        "coordinates": [
          146.125,
          -18.78722
        ]
      }
    },
    {
      "type": "Feature",
      "properties": {
        "iteration": 3,
        "reference_number": "45750",
        "place_name": "Shell Pocket",
        "lga_name": "Cassowary Coast Regional",
        "sequence": 5
      },
      "geometry": {
        "type": "Point",
        "coordinates": [
          145.98278,
          -17.81639
        ]
      }
    },
    {
      "type": "Feature",
      "properties": {
        "name": "Bounded locality route 4",
        "iteration": 4,
        "point_count": 5,
        "order": [
          "Aurukun",
          "Humphery",
          "Rockville",
          "Scrubby Mountain",
          "Fassifern Valley"
        ]
      },
      "geometry": {
        "type": "LineString",
        "coordinates": [
          [
            141.81472,
            -13.60278
          ],
          [
            151.47333,
            -25.60667
          ],
          [
            151.93861,
            -27.53583
          ],
          [
            151.60111,
            -27.76917
          ],
          [
            152.60611,
            -27.97222
          ]
        ]
      }
    },
    {
      "type": "Feature",
      "properties": {
        "iteration": 4,
        "reference_number": "41768",
        "place_name": "Aurukun",
        "lga_name": "Aurukun Shire",
        "sequence": 1
      },
      "geometry": {
        "type": "Point",
        "coordinates": [
          141.81472,
          -13.60278
        ]
      }
    },
    {
      "type": "Feature",
      "properties": {
        "iteration": 4,
        "reference_number": "47369",
        "place_name": "Humphery",
        "lga_name": "North Burnett Regional",
        "sequence": 2
      },
      "geometry": {
        "type": "Point",
        "coordinates": [
          151.47333,
          -25.60667
        ]
      }
    },
    {
      "type": "Feature",
      "properties": {
        "iteration": 4,
        "reference_number": "48052",
        "place_name": "Rockville",
        "lga_name": "Toowoomba Regional",
        "sequence": 3
      },
      "geometry": {
        "type": "Point",
        "coordinates": [
          151.93861,
          -27.53583
        ]
      }
    },
    {
      "type": "Feature",
      "properties": {
        "iteration": 4,
        "reference_number": "48059",
        "place_name": "Scrubby Mountain",
        "lga_name": "Toowoomba Regional",
        "sequence": 4
      },
      "geometry": {
        "type": "Point",
        "coordinates": [
          151.60111,
          -27.76917
        ]
      }
    },
    {
      "type": "Feature",
      "properties": {
        "iteration": 4,
        "reference_number": "45138",
        "place_name": "Fassifern Valley",
        "lga_name": "Scenic Rim Regional",
        "sequence": 5
      },
      "geometry": {
        "type": "Point",
        "coordinates": [
          152.60611,
          -27.97222
        ]
      }
    },
    {
      "type": "Feature",
      "properties": {
        "name": "Bounded locality route 5",
        "iteration": 5,
        "point_count": 3,
        "order": [
          "Maidenhead",
          "Verrierdale",
          "Mount Urah"
        ]
      },
      "geometry": {
        "type": "LineString",
        "coordinates": [
          [
            151.385,
            -29.11944
          ],
          [
            153.01889,
            -26.48833
          ],
          [
            152.41528,
            -25.80556
          ]
        ]
      }
    },
    {
      "type": "Feature",
      "properties": {
        "iteration": 5,
        "reference_number": "47819",
        "place_name": "Maidenhead",
        "lga_name": "Goondiwindi Regional",
        "sequence": 1
      },
      "geometry": {
        "type": "Point",
        "coordinates": [
          151.385,
          -29.11944
        ]
      }
    },
    {
      "type": "Feature",
      "properties": {
        "iteration": 5,
        "reference_number": "49689",
        "place_name": "Verrierdale",
        "lga_name": "Sunshine Coast Regional",
        "sequence": 2
      },
      "geometry": {
        "type": "Point",
        "coordinates": [
          153.01889,
          -26.48833
        ]
      }
    },
    {
      "type": "Feature",
      "properties": {
        "iteration": 5,
        "reference_number": "48965",
        "place_name": "Mount Urah",
        "lga_name": "Fraser Coast Regional",
        "sequence": 3
      },
      "geometry": {
        "type": "Point",
        "coordinates": [
          152.41528,
          -25.80556
        ]
      }
    }
  ]
}