{
  "type": "FeatureCollection",
  "features": [
    {
      "type": "Feature",
      "properties": {
        "name": "Bounded locality route 1",
        "iteration": 1,
        "point_count": 4,
        "order": [
          "Boynedale",
          "Rhydding",
          "Montville",
          "Mount Walker West (Ipswich City)"
        ],
        "stroke": "#e6194b",
        "stroke-width": 2,
        "stroke-opacity": 1
      },
      "geometry": {
        "type": "LineString",
        "coordinates": [
          [
            151.28389,
            -24.23222
          ],
          [
            149.55583,
            -24.75611
          ],
          [
            152.89278,
            -26.69
          ],
          [
            152.48694,
            -27.76583
          ]
        ]
      }
    },
    {
      "type": "Feature",
      "properties": {
        "iteration": 1,
        "reference_number": "46594",
        "place_name": "Boynedale",
        "lga_name": "Gladstone Regional",
        "sequence": 1,
        "marker-color": "#e6194b"
      },
      "geometry": {
        "type": "Point",
        "coordinates": [
          151.28389,
          -24.23222
        ]
      }
    },
    {
      "type": "Feature",
      "properties": {
        "iteration": 1,
        "reference_number": "46974",
        "place_name": "Rhydding",
        "lga_name": "Central Highlands Regional",
        "sequence": 2,
        "marker-color": "#e6194b"
      },
      "geometry": {
        "type": "Point",
        "coordinates": [
          149.55583,
          -24.75611
        ]
      }
    },
    {
      "type": "Feature",
      "properties": {
        "iteration": 1,
        "reference_number": "51313",
        "place_name": "Montville",
        "lga_name": "Sunshine Coast Regional",
        "sequence": 3,
        "marker-color": "#e6194b"
      },
      "geometry": {
        "type": "Point",
        "coordinates": [
          152.89278,
          -26.69
        ]
      }
    },
    {
      "type": "Feature",
      "properties": {
        "iteration": 1,
        "reference_number": "45099",
        "place_name": "Mount Walker West (Ipswich City)",
        "lga_name": "Ipswich City",
        "sequence": 4,
        "marker-color": "#e6194b"
      },
      "geometry": {
        "type": "Point",
        "coordinates": [
          152.48694,
          -27.76583
        ]
      }
    },
    {
      "type": "Feature",
      "properties": {
        "name": "Bounded locality route 2",
        "iteration": 2,
        "point_count": 4,
        "order": [
          "Halifax",
          "Kooralgin",
          "Goombungee",
          "Jimna"
        ],
        "stroke": "#3cb44b",
        "stroke-width": 2,
        "stroke-opacity": 1
      },
      "geometry": {
        "type": "LineString",
        "coordinates": [
          [
            146.31778,
            -18.58278
          ],
          [
            151.93278,
            -26.925
          ],
          [
            151.85222,
            -27.30278
          ],
          [
            152.54111,
            -26.70306
          ]
        ]
      }
    },
    {
      "type": "Feature",
      "properties": {
        "iteration": 2,
        "reference_number": "42518",
        "place_name": "Halifax",
        "lga_name": "Hinchinbrook Shire",
        "sequence": 1,
        "marker-color": "#3cb44b"
      },
      "geometry": {
        "type": "Point",
        "coordinates": [
          146.31778,
          -18.58278
        ]
      }
    },
    {
      "type": "Feature",
      "properties": {
        "iteration": 2,
        "reference_number": "47984",
        "place_name": "Kooralgin",
        "lga_name": "Toowoomba Regional",
        "sequence": 2,
        "marker-color": "#3cb44b"
      },
      "geometry": {
        "type": "Point",
        "coordinates": [
          151.93278,
          -26.925
        ]
      }
    },
    {
      "type": "Feature",
      "properties": {
        "iteration": 2,
        "reference_number": "47952",
        "place_name": "Goombungee",
        "lga_name": "Toowoomba Regional",
        "sequence": 3,
        "marker-color": "#3cb44b"
      },
      "geometry": {
        "type": "Point",
        "coordinates": [
          151.85222,
          -27.30278
        ]
      }
    },
    {
      "type": "Feature",
      "properties": {
        "iteration": 2,
        "reference_number": "44876",
        "place_name": "Jimna",
        "lga_name": "Somerset Regional",
        "sequence": 4,
        "marker-color": "#3cb44b"
      },
      "geometry": {
        "type": "Point",
        "coordinates": [
          152.54111,
          -26.70306
        ]
      }
    },
    {
      "type": "Feature",
      "properties": {
        "name": "Bounded locality route 3",
        "iteration": 3,
        "point_count": 3,
        "order": [
          "Veresdale (Logan City)",
          "Kalapa",
          "Carnarvon Park"
        ],
        "stroke": "#4363d8",
        "stroke-width": 2,
        "stroke-opacity": 1
      },
      "geometry": {
        "type": "LineString",
        "coordinates": [
          [
            152.97472,
            -27.90944
          ],
          [
            150.205,
            -23.4525
          ],
          [
            147.87333,
            -24.71833
          ]
        ]
      }
    },
    {
      "type": "Feature",
      "properties": {
        "iteration": 3,
        "reference_number": "45292",
        "place_name": "Veresdale (Logan City)",
        "lga_name": "Logan City",
        "sequence": 1,
        "marker-color": "#4363d8"
      },
      "geometry": {
        "type": "Point",
        "coordinates": [
          152.97472,
          -27.90944
        ]
      }
    },
    {
      "type": "Feature",
      "properties": {
        "iteration": 3,
        "reference_number": "48690",
        "place_name": "Kalapa",
        "lga_name": "Rockhampton Regional",
        "sequence": 2,
        "marker-color": "#4363d8"
      },
      "geometry": {
        "type": "Point",
        "coordinates": [
          150.205,
          -23.4525
        ]
      }
    },
    {
      "type": "Feature",
      "properties": {
        "iteration": 3,
        "reference_number": "46926",
        "place_name": "Carnarvon Park",
        "lga_name": "Central Highlands Regional",
        "sequence": 3,
        "marker-color": "#4363d8"
      },
      "geometry": {
        "type": "Point",
        "coordinates": [
          147.87333,
          -24.71833
        ]
      }
    },
    {
      "type": "Feature",
      "properties": {
        "name": "Bounded locality route 4",
        "iteration": 4,
        "point_count": 6,
        "order": [
          "Lavelle",
          "Thanes Creek",
          "Steiglitz",
          "Taroomball",
          "Blackdown",
          "Elphinstone (Isaac Regional)"
        ],
        "stroke": "#f58231",
        "stroke-width": 2,
        "stroke-opacity": 1
      },
      "geometry": {
        "type": "LineString",
        "coordinates": [
          [
            151.28333,
            -28.0
          ],
          [
            151.67917,
            -28.11833
          ],
          [
            153.34444,
            -27.73778
          ],
          [
            150.75083,
            -23.17056
          ],
          [
            149.12611,
            -23.89306
          ],
          [
            148.185,
            -21.47972
          ]
        ]
      }
    },
    {
      "type": "Feature",
      "properties": {
        "iteration": 4,
        "reference_number": "47988",
        "place_name": "Lavelle",
        "lga_name": "Toowoomba Regional",
        "sequence": 1,
        "marker-color": "#f58231"
      },
      "geometry": {
        "type": "Point",
        "coordinates": [
          151.28333,
          -28.0
        ]
      }
    },
    {
      "type": "Feature",
      "properties": {
        "iteration": 4,
        "reference_number": "45987",
        "place_name": "Thanes Creek",
        "lga_name": "Southern Downs Regional",
        "sequence": 2,
        "marker-color": "#f58231"
      },
      "geometry": {
        "type": "Point",
        "coordinates": [
          151.67917,
          -28.11833
        ]
      }
    },
    {
      "type": "Feature",
      "properties": {
        "iteration": 4,
        "reference_number": "46101",
        "place_name": "Steiglitz",
        "lga_name": "Gold Coast City",
        "sequence": 3,
        "marker-color": "#f58231"
      },
      "geometry": {
        "type": "Point",
        "coordinates": [
          153.34444,
          -27.73778
        ]
      }
    },
    {
      "type": "Feature",
      "properties": {
        "iteration": 4,
        "reference_number": "50441",
        "place_name": "Taroomball",
        "lga_name": "Livingstone Shire",
        "sequence": 4,
        "marker-color": "#f58231"
      },
      "geometry": {
        "type": "Point",
        "coordinates": [
          150.75083,
          -23.17056
        ]
      }
    },
    {
      "type": "Feature",
      "properties": {
        "iteration": 4,
        "reference_number": "46917",
        "place_name": "Blackdown",
        "lga_name": "Central Highlands Regional",
        "sequence": 5,
        "marker-color": "#f58231"
      },
      "geometry": {
        "type": "Point",
        "coordinates": [
          149.12611,
          -23.89306
        ]
      }
    },
    {
      "type": "Feature",
      "properties": {
        "iteration": 4,
        "reference_number": "47043",
        "place_name": "Elphinstone (Isaac Regional)",
        "lga_name": "Isaac Regional",
        "sequence": 6,
        "marker-color": "#f58231"
      },
      "geometry": {
        "type": "Point",
        "coordinates": [
          148.185,
          -21.47972
        ]
      }
    },
    {
      "type": "Feature",
      "properties": {
        "name": "Bounded locality route 5",
        "iteration": 5,
        "point_count": 5,
        "order": [
          "Turallin",
          "Ropeley",
          "West Stowe",
          "Oakey Creek",
          "Anakie Siding"
        ],
        "stroke": "#911eb4",
        "stroke-width": 2,
        "stroke-opacity": 1
      },
      "geometry": {
        "type": "LineString",
        "coordinates": [
          [
            151.2,
            -27.83333
          ],
          [
            152.26389,
            -27.65639
          ],
          [
            151.12972,
            -23.92278
          ],
          [
            150.31611,
            -23.72917
          ],
          [
            147.8075,
            -23.575
          ]
        ]
      }
    },
    {
      "type": "Feature",
      "properties": {
        "iteration": 5,
        "reference_number": "48079",
        "place_name": "Turallin",
        "lga_name": "Toowoomba Regional",
        "sequence": 1,
        "marker-color": "#911eb4"
      },
      "geometry": {
        "type": "Point",
        "coordinates": [
          151.2,
          -27.83333
        ]
      }
    },
    {
      "type": "Feature",
      "properties": {
        "iteration": 5,
        "reference_number": "44988",
        "place_name": "Ropeley",
        "lga_name": "Lockyer Valley Regional",
        "sequence": 2,
        "marker-color": "#911eb4"
      },
      "geometry": {
        "type": "Point",
        "coordinates": [
          152.26389,
          -27.65639
        ]
      }
    },
    {
      "type": "Feature",
      "properties": {
        "iteration": 5,
        "reference_number": "49124",
        "place_name": "West Stowe",
        "lga_name": "Gladstone Regional",
        "sequence": 3,
        "marker-color": "#911eb4"
      },
      "geometry": {
        "type": "Point",
        "coordinates": [
          151.12972,
          -23.92278
        ]
      }
    },
    {
      "type": "Feature",
      "properties": {
        "iteration": 5,
        "reference_number": "48817",
        "place_name": "Oakey Creek",
        "lga_name": "Rockhampton Regional",
        "sequence": 4,
        "marker-color": "#911eb4"
      },
      "geometry": {
        "type": "Point",
        "coordinates": [
          150.31611,
          -23.72917
        ]
      }
    },
    {
      "type": "Feature",
      "properties": {
        "iteration": 5,
        "reference_number": "50495",
        "place_name": "Anakie Siding",
        "lga_name": "Central Highlands Regional",
        "sequence": 5,
        "marker-color": "#911eb4"
      },
      "geometry": {
        "type": "Point",
        "coordinates": [
          147.8075,
          -23.575
        ]
      }
    }
  ]
}