{
  "type": "FeatureCollection",
  "features": [
    {
      "type": "Feature",
      "properties": {
        "name": "Bounded locality route 1",
        "iteration": 1,
        "point_count": 3,
        "order": [
          "Green Island",
          "Maroon",
          "Silver Spur"
        ]
      },
      "geometry": {
        "type": "LineString",
        "coordinates": [
          [
            145.96833,
            -16.76278
          ],
          [
            152.68972,
            -28.19194
          ],
          [
            151.34,
            -28.83278
          ]
        ]
      }
    },
    {
      "type": "Feature",
      "properties": {
        "iteration": 1,
        "reference_number": "48663",
        "place_name": "Green Island",
        "lga_name": "Cairns Regional",
        "sequence": 1
      },
      "geometry": {
        "type": "Point",
        "coordinates": [
          145.96833,
          -16.76278
        ]
      }
    },
    {
      "type": "Feature",
      "properties": {
        "iteration": 1,
        "reference_number": "45161",
        "place_name": "Maroon",
        "lga_name": "Scenic Rim Regional",
        "sequence": 2
      },
      "geometry": {
        "type": "Point",
        "coordinates": [
          152.68972,
          -28.19194
        ]
      }
    },
    {
      "type": "Feature",
      "properties": {
        "iteration": 1,
        "reference_number": "47827",
        "place_name": "Silver Spur",
        "lga_name": "Goondiwindi Regional",
        "sequence": 3
      },
      "geometry": {
        "type": "Point",
        "coordinates": [
          151.34,
          -28.83278
        ]
      }
    },
    {
      "type": "Feature",
      "properties": {
        "name": "Bounded locality route 2",
        "iteration": 2,
        "point_count": 4,
        "order": [
          "Sheldon",
          "Dakabin",
          "Eerwah Vale (Sunshine Coast Regional)",
          "Maroon"
        ]
      },
      "geometry": {
        "type": "LineString",
        "coordinates": [
          [
            153.19778,
            -27.58583
          ],
          [
            152.98528,
            -27.22333
          ],
          [
            152.90944,
            -26.48167
          ],
          [
            152.68972,
            -28.19194
          ]
        ]
      }
    },
    {
      "type": "Feature",
      "properties": {
        "iteration": 2,
        "reference_number": "43633",
        "place_name": "Sheldon",
        "lga_name": "Redland City",
        "sequence": 1
      },
      "geometry": {
        "type": "Point",
        "coordinates": [
          153.19778,
          -27.58583
        ]
      }
    },
    {
      "type": "Feature",
      "properties": {
        "iteration": 2,
        "reference_number": "45387",
        "place_name": "Dakabin",
        "lga_name": "Moreton Bay City",
        "sequence": 2
      },
      "geometry": {
        "type": "Point",
        "coordinates": [
          152.98528,
          -27.22333
        ]
      }
    },
    {
      "type": "Feature",
      "properties": {
        "iteration": 2,
        "reference_number": "49235",
        "place_name": "Eerwah Vale (Sunshine Coast Regional)",
        "lga_name": "Sunshine Coast Regional",
        "sequence": 3
      },
      "geometry": {
        "type": "Point",
        "coordinates": [
          152.90944,
          -26.48167
        ]
      }
    },
    {
      "type": "Feature",
      "properties": {
        "iteration": 2,
        "reference_number": "45161",
        "place_name": "Maroon",
        "lga_name": "Scenic Rim Regional",
        "sequence": 4
      },
      "geometry": {
        "type": "Point",
        "coordinates": [
          152.68972,
          -28.19194
        ]
      }
    },
    {
      "type": "Feature",
      "properties": {
        "name": "Bounded locality route 3",
        "iteration": 3,
        "point_count": 4,
        "order": [
          "Monogorilby",
          "Mothar Mountain",
          "Campbells Pocket",
          "Linden"
        ]
      },
      "geometry": {
        "type": "LineString",
        "coordinates": [
          [
            151.04833,
            -25.99694
          ],
          [
            152.76249695,
            -26.23333359
          ],
          [
            152.80472,
            -27.07806
          ],
          [
            146.38806,
            -27.82639
          ]
        ]
      }
    },
    {
      "type": "Feature",
      "properties": {
        "iteration": 3,
        "reference_number": "45390",
        "place_name": "Monogorilby",
        "lga_name": "North Burnett Regional",
        "sequence": 1
      },
      "geometry": {
        "type": "Point",
        "coordinates": [
          151.04833,
          -25.99694
        ]
      }
    },
    {
      "type": "Feature",
      "properties": {
        "iteration": 3,
        "reference_number": "52632",
        "place_name": "Mothar Mountain",
        "lga_name": "Gympie Regional",
        "sequence": 2
      },
      "geometry": {
        "type": "Point",
        "coordinates": [
          152.76249695,
          -26.23333359
        ]
      }
    },
    {
      "type": "Feature",
      "properties": {
        "iteration": 3,
        "reference_number": "45433",
        "place_name": "Campbells Pocket",
        "lga_name": "Moreton Bay City",
        "sequence": 3
      },
      "geometry": {
        "type": "Point",
        "coordinates": [
          152.80472,
          -27.07806
        ]
      }
    },
    {
      "type": "Feature",
      "properties": {
        "iteration": 3,
        "reference_number": "42658",
        "place_name": "Linden",
        "lga_name": "Paroo Shire",
        "sequence": 4
      },
      "geometry": {
        "type": "Point",
        "coordinates": [
          146.38806,
          -27.82639
        ]
      }
    },
    {
      "type": "Feature",
      "properties": {
        "name": "Bounded locality route 4",
        "iteration": 4,
        "point_count": 3,
        "order": [
          "Harriet",
          "Oakdale",
          "Thornville"
        ]
      },
      "geometry": {
        "type": "LineString",
        "coordinates": [
          [
            151.58583,
            -25.74417
          ],
          [
            151.91278,
            -26.2
          ],
          [
            151.83167,
            -27.07194
          ]
        ]
      }
    },
    {
      "type": "Feature",
      "properties": {
        "iteration": 4,
        "reference_number": "45364",
        "place_name": "Harriet",
        "lga_name": "North Burnett Regional",
        "sequence": 1
      },
      "geometry": {
        "type": "Point",
        "coordinates": [
          151.58583,
          -25.74417
        ]
      }
    },
    {
      "type": "Feature",
      "properties": {
        "iteration": 4,
        "reference_number": "46254",
        "place_name": "Oakdale",
        "lga_name": "South Burnett Regional",
        "sequence": 2
      },
      "geometry": {
        "type": "Point",
        "coordinates": [
          151.91278,
          -26.2
        ]
      }
    },
    {
      "type": "Feature",
      "properties": {
        "iteration": 4,
        "reference_number": "49237",
        "place_name": "Thornville",
        "lga_name": "Toowoomba Regional",
        "sequence": 3
      },
      "geometry": {
        "type": "Point",
        "coordinates": [
          151.83167,
          -27.07194
        ]
      }
    },
    {
      "type": "Feature",
      "properties": {
        "name": "Bounded locality route 5",
        "iteration": 5,
        "point_count": 6,
        "order": [
          "Djuan",
          "Spring Creek (Lockyer Valley Regional)",
          "Leyburn (Toowoomba Regional)",
          "Tabooba",
          "Gilberton (Gold Coast City)",
          "Murgon"
        ]
      },
      "geometry": {
        "type": "LineString",
        "coordinates": [
          [
            151.91028,
            -27.18056
          ],
          [
            152.32194,
            -27.44167
          ],
          [
            151.61778,
            -27.96528
          ],
          [
            152.96694,
            -28.13583
          ],
          [
            153.27389,
            -27.7425
          ],
          [
            151.94417,
            -26.24083
          ]
        ]
      }
    },
    {
      "type": "Feature",
      "properties": {
        "iteration": 5,
        "reference_number": "49187",
        "place_name": "Djuan",
        "lga_name": "Toowoomba Regional",
        "sequence": 1
      },
      "geometry": {
        "type": "Point",
        "coordinates": [
          151.91028,
          -27.18056
        ]
      }
    },
    {
      "type": "Feature",
      "properties": {
        "iteration": 5,
        "reference_number": "44990",
        "place_name": "Spring Creek (Lockyer Valley Regional)",
        "lga_name": "Lockyer Valley Regional",
        "sequence": 2
      },
      "geometry": {
        "type": "Point",
        "coordinates": [
          152.32194,
          -27.44167
        ]
      }
    },
    {
      "type": "Feature",
      "properties": {
        "iteration": 5,
        "reference_number": "47990",
        "place_name": "Leyburn (Toowoomba Regional)",
        "lga_name": "Toowoomba Regional",
        "sequence": 3
      },
      "geometry": {
        "type": "Point",
        "coordinates": [
          151.61778,
          -27.96528
        ]
      }
    },
    {
      "type": "Feature",
      "properties": {
        "iteration": 5,
        "reference_number": "45189",
        "place_name": "Tabooba",
        "lga_name": "Scenic Rim Regional",
        "sequence": 4
      },
      "geometry": {
        "type": "Point",
        "coordinates": [
          152.96694,
          -28.13583
        ]
      }
    },
    {
      "type": "Feature",
      "properties": {
        "iteration": 5,
        "reference_number": "46048",
        "place_name": "Gilberton (Gold Coast City)",
        "lga_name": "Gold Coast City",
        "sequence": 5
      },
      "geometry": {
        "type": "Point",
        "coordinates": [
          153.27389,
          -27.7425
        ]
      }
    },
    {
      "type": "Feature",
      "properties": {
        "iteration": 5,
        "reference_number": "49848",
        "place_name": "Murgon",
        "lga_name": "South Burnett Regional",
        "sequence": 6
      },
      "geometry": {
        "type": "Point",
        "coordinates": [
          151.94417,
          -26.24083
        ]
      }
    }
  ]
}