{
  "type": "FeatureCollection",
  "features": [
    {
      "type": "Feature",
      "properties": {
        "name": "Bounded locality route 1",
        "iteration": 1,
        "point_count": 4,
        "order": [
          "Somerset (Torres Shire)",
          "Comoon Loop",
          "Foresthome",
          "Wallumbilla North"
        ],
        "stroke": "#e6194b",
        "stroke-width": 2,
        "stroke-opacity": 1
      },
      "geometry": {
        "type": "LineString",
        "coordinates": [
          [
            142.5175,
            -10.82028
          ],
          [
            146.03417,
            -17.56556
          ],
          [
            146.20528,
            -18.61139
          ],
          [
            149.24917,
            -26.43361
          ]
        ]
      }
    },
    {
      "type": "Feature",
      "properties": {
        "iteration": 1,
        "reference_number": "48328",
        "place_name": "Somerset (Torres Shire)",
        "lga_name": "Torres Shire",
        "sequence": 1,
        "marker-color": "#e6194b"
      },
      "geometry": {
        "type": "Point",
        "coordinates": [
          142.5175,
          -10.82028
        ]
      }
    },
    {
      "type": "Feature",
      "properties": {
        "iteration": 1,
        "reference_number": "45683",
        "place_name": "Comoon Loop",
        "lga_name": "Cassowary Coast Regional",
        "sequence": 2,
        "marker-color": "#e6194b"
      },
      "geometry": {
        "type": "Point",
        "coordinates": [
          146.03417,
          -17.56556
        ]
      }
    },
    {
      "type": "Feature",
      "properties": {
        "iteration": 1,
        "reference_number": "47382",
        "place_name": "Foresthome",
        "lga_name": "Hinchinbrook Shire",
        "sequence": 3,
        "marker-color": "#e6194b"
      },
      "geometry": {
        "type": "Point",
        "coordinates": [
          146.20528,
          -18.61139
        ]
      }
    },
    {
      "type": "Feature",
      "properties": {
        "iteration": 1,
        "reference_number": "50006",
        "place_name": "Wallumbilla North",
        "lga_name": "Maranoa Regional",
        "sequence": 4,
        "marker-color": "#e6194b"
      },
      "geometry": {
        "type": "Point",
        "coordinates": [
          149.24917,
          -26.43361
        ]
      }
    },
    {
      "type": "Feature",
      "properties": {
        "name": "Bounded locality route 2",
        "iteration": 2,
        "point_count": 4,
        "order": [
          "Kandanga Creek",
          "Perwillowen",
          "New Moonta",
          "Rosedale (Bundaberg Regional)"
        ],
        "stroke": "#3cb44b",
        "stroke-width": 2,
        "stroke-opacity": 1
      },
      "geometry": {
        "type": "LineString",
        "coordinates": [
          [
            152.62639,
            -26.40139
          ],
          [
            152.92611,
            -26.63583
          ],
          [
            151.72889,
            -25.02472
          ],
          [
            151.79833,
            -24.74833
          ]
        ]
      }
    },
    {
      "type": "Feature",
      "properties": {
        "iteration": 2,
        "reference_number": "46345",
        "place_name": "Kandanga Creek",
        "lga_name": "Gympie Regional",
        "sequence": 1,
        "marker-color": "#3cb44b"
      },
      "geometry": {
        "type": "Point",
        "coordinates": [
          152.62639,
          -26.40139
        ]
      }
    },
    {
      "type": "Feature",
      "properties": {
        "iteration": 2,
        "reference_number": "48839",
        "place_name": "Perwillowen",
        "lga_name": "Sunshine Coast Regional",
        "sequence": 2,
        "marker-color": "#3cb44b"
      },
      "geometry": {
        "type": "Point",
        "coordinates": [
          152.92611,
          -26.63583
        ]
      }
    },
    {
      "type": "Feature",
      "properties": {
        "iteration": 2,
        "reference_number": "45512",
        "place_name": "New Moonta",
        "lga_name": "Bundaberg Regional",
        "sequence": 3,
        "marker-color": "#3cb44b"
      },
      "geometry": {
        "type": "Point",
        "coordinates": [
          151.72889,
          -25.02472
        ]
      }
    },
    {
      "type": "Feature",
      "properties": {
        "iteration": 2,
        "reference_number": "44764",
        "place_name": "Rosedale (Bundaberg Regional)",
        "lga_name": "Bundaberg Regional",
        "sequence": 4,
        "marker-color": "#3cb44b"
      },
      "geometry": {
        "type": "Point",
        "coordinates": [
          151.79833,
          -24.74833
        ]
      }
    },
    {
      "type": "Feature",
      "properties": {
        "name": "Bounded locality route 3",
        "iteration": 3,
        "point_count": 5,
        "order": [
          "Wharps",
          "Lake Proserpine",
          "Noosa North Shore",
          "Innisplain",
          "The Summit"
        ],
        "stroke": "#4363d8",
        "stroke-width": 2,
        "stroke-opacity": 1
      },
      "geometry": {
        "type": "LineString",
        "coordinates": [
          [
            146.06639,
            -18.72944
          ],
          [
            148.29778,
            -20.41556
          ],
          [
            153.05111,
            -26.27333
          ],
          [
            152.90556,
            -28.17861
          ],
          [
            151.92833,
            -28.58306
          ]
        ]
      }
    },
    {
      "type": "Feature",
      "properties": {
        "iteration": 3,
        "reference_number": "42532",
        "place_name": "Wharps",
        "lga_name": "Hinchinbrook Shire",
        "sequence": 1,
        "marker-color": "#4363d8"
      },
      "geometry": {
        "type": "Point",
        "coordinates": [
          146.06639,
          -18.72944
        ]
      }
    },
    {
      "type": "Feature",
      "properties": {
        "iteration": 3,
        "reference_number": "46881",
        "place_name": "Lake Proserpine",
        "lga_name": "Whitsunday Regional",
        "sequence": 2,
        "marker-color": "#4363d8"
      },
      "geometry": {
        "type": "Point",
        "coordinates": [
          148.29778,
          -20.41556
        ]
      }
    },
    {
      "type": "Feature",
      "properties": {
        "iteration": 3,
        "reference_number": "48809",
        "place_name": "Noosa North Shore",
        "lga_name": "Noosa Shire",
        "sequence": 3,
        "marker-color": "#4363d8"
      },
      "geometry": {
        "type": "Point",
        "coordinates": [
          153.05111,
          -26.27333
        ]
      }
    },
    {
      "type": "Feature",
      "properties": {
        "iteration": 3,
        "reference_number": "45148",
        "place_name": "Innisplain",
        "lga_name": "Scenic Rim Regional",
        "sequence": 4,
        "marker-color": "#4363d8"
      },
      "geometry": {
        "type": "Point",
        "coordinates": [
          152.90556,
          -28.17861
        ]
      }
    },
    {
      "type": "Feature",
      "properties": {
        "iteration": 3,
        "reference_number": "45992",
        "place_name": "The Summit",
        "lga_name": "Southern Downs Regional",
        "sequence": 5,
        "marker-color": "#4363d8"
      },
      "geometry": {
        "type": "Point",
        "coordinates": [
          151.92833,
          -28.58306
        ]
      }
    },
    {
      "type": "Feature",
      "properties": {
        "name": "Bounded locality route 4",
        "iteration": 4,
        "point_count": 4,
        "order": [
          "Jones Gully",
          "Kings Creek",
          "North Isis",
          "Maalan"
        ],
        "stroke": "#f58231",
        "stroke-width": 2,
        "stroke-opacity": 1
      },
      "geometry": {
        "type": "LineString",
        "coordinates": [
          [
            152.00722,
            -27.17583
          ],
          [
            151.91778,
            -27.88194
          ],
          [
            152.27056,
            -25.17333
          ],
          [
            145.59167,
            -17.60778
          ]
        ]
      }
    },
    {
      "type": "Feature",
      "properties": {
        "iteration": 4,
        "reference_number": "47975",
        "place_name": "Jones Gully",
        "lga_name": "Toowoomba Regional",
        "sequence": 1,
        "marker-color": "#f58231"
      },
      "geometry": {
        "type": "Point",
        "coordinates": [
          152.00722,
          -27.17583
        ]
      }
    },
    {
      "type": "Feature",
      "properties": {
        "iteration": 4,
        "reference_number": "50247",
        "place_name": "Kings Creek",
        "lga_name": "Toowoomba Regional",
        "sequence": 2,
        "marker-color": "#f58231"
      },
      "geometry": {
        "type": "Point",
        "coordinates": [
          151.91778,
          -27.88194
        ]
      }
    },
    {
      "type": "Feature",
      "properties": {
        "iteration": 4,
        "reference_number": "47654",
        "place_name": "North Isis",
        "lga_name": "Bundaberg Regional",
        "sequence": 3,
        "marker-color": "#f58231"
      },
      "geometry": {
        "type": "Point",
        "coordinates": [
          152.27056,
          -25.17333
        ]
      }
    },
    {
      "type": "Feature",
      "properties": {
        "iteration": 4,
        "reference_number": "48736",
        "place_name": "Maalan",
        "lga_name": "Tablelands Regional",
        "sequence": 4,
        "marker-color": "#f58231"
      },
      "geometry": {
        "type": "Point",
        "coordinates": [
          145.59167,
          -17.60778
        ]
      }
    },
    {
      "type": "Feature",
      "properties": {
        "name": "Bounded locality route 5",
        "iteration": 5,
        "point_count": 3,
        "order": [
          "Red Hill (Western Downs Regional)",
          "Boyne Valley",
          "Christmas Creek"
        ],
        "stroke": "#911eb4",
        "stroke-width": 2,
        "stroke-opacity": 1
      },
      "geometry": {
        "type": "LineString",
        "coordinates": [
          [
            150.64806,
            -26.63861
          ],
          [
            151.29278,
            -24.45361
          ],
          [
            152.98972,
            -28.18111
          ]
        ]
      }
    },
    {
      "type": "Feature",
      "properties": {
        "iteration": 5,
        "reference_number": "47741",
        "place_name": "Red Hill (Western Downs Regional)",
        "lga_name": "Western Downs Regional",
        "sequence": 1,
        "marker-color": "#911eb4"
      },
      "geometry": {
        "type": "Point",
        "coordinates": [
          150.64806,
          -26.63861
        ]
      }
    },
    {
      "type": "Feature",
      "properties": {
        "iteration": 5,
        "reference_number": "46593",
        "place_name": "Boyne Valley",
        "lga_name": "Gladstone Regional",
        "sequence": 2,
        "marker-color": "#911eb4"
      },
      "geometry": {
        "type": "Point",
        "coordinates": [
          151.29278,
          -24.45361
        ]
      }
    },
    {
      "type": "Feature",
      "properties": {
        "iteration": 5,
        "reference_number": "45128",
        "place_name": "Christmas Creek",
        "lga_name": "Scenic Rim Regional",
        "sequence": 3,
        "marker-color": "#911eb4"
      },
      "geometry": {
        "type": "Point",
        "coordinates": [
          152.98972,
          -28.18111
        ]
      }
    }
  ]
}