{
  "type": "FeatureCollection",
  "features": [
    {
      "type": "Feature",
      "properties": {
        "name": "Bounded locality route 1",
        "iteration": 1,
        "point_count": 5,
        "order": [
          "Mungallala South",
          "Kooroongarra",
          "Ilfracombe",
          "Toobanna",
          "Gamboola"
        ]
      },
      "geometry": {
        "type": "LineString",
        "coordinates": [
          [
            147.475,
            -26.75611
          ],
          [
            151.26778,
            -28.08167
          ],
          [
            144.54611,
            -23.66028
          ],
          [
            146.14778,
            -18.7125
          ],
          [
            143.40139,
            -16.42639
          ]
        ]
      }
    },
    {
      "type": "Feature",
      "properties": {
        "iteration": 1,
        "reference_number": "47444",
        "place_name": "Mungallala South",
        "lga_name": "Maranoa Regional",
        "sequence": 1
      },
      "geometry": {
        "type": "Point",
        "coordinates": [
          147.475,
          -26.75611
        ]
      }
    },
    {
      "type": "Feature",
      "properties": {
        "iteration": 1,
        "reference_number": "49211",
        "place_name": "Kooroongarra",
        "lga_name": "Toowoomba Regional",
        "sequence": 2
      },
      "geometry": {
        "type": "Point",
        "coordinates": [
          151.26778,
          -28.08167
        ]
      }
    },
    {
      "type": "Feature",
      "properties": {
        "iteration": 1,
        "reference_number": "52314",
        "place_name": "Ilfracombe",
        "lga_name": "Longreach Regional",
        "sequence": 3
      },
      "geometry": {
        "type": "Point",
        "coordinates": [
          144.54611,
          -23.66028
        ]
      }
    },
    {
      "type": "Feature",
      "properties": {
        "iteration": 1,
        "reference_number": "42528",
        "place_name": "Toobanna",
        "lga_name": "Hinchinbrook Shire",
        "sequence": 4
      },
      "geometry": {
        "type": "Point",
        "coordinates": [
          146.14778,
          -18.7125
        ]
      }
    },
    {
      "type": "Feature",
      "properties": {
        "iteration": 1,
        "reference_number": "48645",
        "place_name": "Gamboola",
        "lga_name": "Mareeba Shire",
        "sequence": 5
      },
      "geometry": {
        "type": "Point",
        "coordinates": [
          143.40139,
          -16.42639
        ]
      }
    },
    {
      "type": "Feature",
      "properties": {
        "name": "Bounded locality route 2",
        "iteration": 2,
        "point_count": 4,
        "order": [
          "Blackall",
          "Mount Elliot",
          "Bulgun",
          "Milora"
        ]
      },
      "geometry": {
        "type": "LineString",
        "coordinates": [
          [
            145.40778,
            -24.585
          ],
          [
            146.95889,
            -19.50694
          ],
          [
            145.92944,
            -17.89472
          ],
          [
            152.68417,
            -27.8475
          ]
        ]
      }
    },
    {
      "type": "Feature",
      "properties": {
        "iteration": 2,
        "reference_number": "52302",
        "place_name": "Blackall",
        "lga_name": "Blackall-Tambo Regional",
        "sequence": 1
      },
      "geometry": {
        "type": "Point",
        "coordinates": [
          145.40778,
          -24.585
        ]
      }
    },
    {
      "type": "Feature",
      "properties": {
        "iteration": 2,
        "reference_number": "44609",
        "place_name": "Mount Elliot",
        "lga_name": "Townsville City",
        "sequence": 2
      },
      "geometry": {
        "type": "Point",
        "coordinates": [
          146.95889,
          -19.50694
        ]
      }
    },
    {
      "type": "Feature",
      "properties": {
        "iteration": 2,
        "reference_number": "45658",
        "place_name": "Bulgun",
        "lga_name": "Cassowary Coast Regional",
        "sequence": 3
      },
      "geometry": {
        "type": "Point",
        "coordinates": [
          145.92944,
          -17.89472
        ]
      }
    },
    {
      "type": "Feature",
      "properties": {
        "iteration": 2,
        "reference_number": "45164",
        "place_name": "Milora",
        "lga_name": "Scenic Rim Regional",
        "sequence": 4
      },
      "geometry": {
        "type": "Point",
        "coordinates": [
          152.68417,
          -27.8475
        ]
      }
    },
    {
      "type": "Feature",
      "properties": {
        "name": "Bounded locality route 3",
        "iteration": 3,
        "point_count": 5,
        "order": [
          "Gracemere",
          "Woorabinda",
          "Kilkivan",
          "Tallegalla",
          "Nandi"
        ]
      },
      "geometry": {
        "type": "LineString",
        "coordinates": [
          [
            150.45611,
            -23.45917
          ],
          [
            149.43194,
            -24.11389
          ],
          [
            152.25528,
            -26.08167
          ],
          [
            152.55472,
            -27.59
          ],
          [
            151.16,
            -27.28667
          ]
        ]
      }
    },
    {
      "type": "Feature",
      "properties": {
        "iteration": 3,
        "reference_number": "48661",
        "place_name": "Gracemere",
        "lga_name": "Rockhampton Regional",
        "sequence": 1
      },
      "geometry": {
        "type": "Point",
        "coordinates": [
          150.45611,
          -23.45917
        ]
      }
    },
    {
      "type": "Feature",
      "properties": {
        "iteration": 3,
        "reference_number": "49299",
        "place_name": "Woorabinda",
        "lga_name": "Woorabinda Aboriginal Shire",
        "sequence": 2
      },
      "geometry": {
        "type": "Point",
        "coordinates": [
          149.43194,
          -24.11389
        ]
      }
    },
    {
      "type": "Feature",
      "properties": {
        "iteration": 3,
        "reference_number": "46348",
        "place_name": "Kilkivan",
        "lga_name": "Gympie Regional",
        "sequence": 3
      },
      "geometry": {
        "type": "Point",
        "coordinates": [
          152.25528,
          -26.08167
        ]
      }
    },
    {
      "type": "Feature",
      "properties": {
        "iteration": 3,
        "reference_number": "45101",
        "place_name": "Tallegalla",
        "lga_name": "Ipswich City",
        "sequence": 4
      },
      "geometry": {
        "type": "Point",
        "coordinates": [
          152.55472,
          -27.59
        ]
      }
    },
    {
      "type": "Feature",
      "properties": {
        "iteration": 3,
        "reference_number": "47734",
        "place_name": "Nandi",
        "lga_name": "Western Downs Regional",
        "sequence": 5
      },
      "geometry": {
        "type": "Point",
        "coordinates": [
          151.16,
          -27.28667
        ]
      }
    },
    {
      "type": "Feature",
      "properties": {
        "name": "Bounded locality route 4",
        "iteration": 4,
        "point_count": 4,
        "order": [
          "Carstairs",
          "Walligan",
          "Abbeywood",
          "Greenwood"
        ]
      },
      "geometry": {
        "type": "LineString",
        "coordinates": [
          [
            147.4525,
            -19.65056
          ],
          [
            152.77056,
            -25.33583
          ],
          [
            151.64556,
            -26.10389
          ],
          [
            151.73972,
            -27.33667
          ]
        ]
      }
    },
    {
      "type": "Feature",
      "properties": {
        "iteration": 4,
        "reference_number": "42282",
        "place_name": "Carstairs",
        "lga_name": "Burdekin Shire",
        "sequence": 1
      },
      "geometry": {
        "type": "Point",
        "coordinates": [
          147.4525,
          -19.65056
        ]
      }
    },
    {
      "type": "Feature",
      "properties": {
        "iteration": 4,
        "reference_number": "46690",
        "place_name": "Walligan",
        "lga_name": "Fraser Coast Regional",
        "sequence": 2
      },
      "geometry": {
        "type": "Point",
        "coordinates": [
          152.77056,
          -25.33583
        ]
      }
    },
    {
      "type": "Feature",
      "properties": {
        "iteration": 4,
        "reference_number": "46185",
        "place_name": "Abbeywood",
        "lga_name": "South Burnett Regional",
        "sequence": 3
      },
      "geometry": {
        "type": "Point",
        "coordinates": [
          151.64556,
          -26.10389
        ]
      }
    },
    {
      "type": "Feature",
      "properties": {
        "iteration": 4,
        "reference_number": "47960",
        "place_name": "Greenwood",
        "lga_name": "Toowoomba Regional",
        "sequence": 4
      },
      "geometry": {
        "type": "Point",
        "coordinates": [
          151.73972,
          -27.33667
        ]
      }
    },
    {
      "type": "Feature",
      "properties": {
        "name": "Bounded locality route 5",
        "iteration": 5,
        "point_count": 4,
        "order": [
          "Coolmunda",
          "Coal Creek",
          "Dakabin",
          "East Feluga"
        ]
      },
      "geometry": {
        "type": "LineString",
        "coordinates": [
          [
            151.23222,
            -28.43806
          ],
          [
            152.43444,
            -27.18194
          ],
          [
            152.98528,
            -27.22333
          ],
          [
            145.99389,
            -17.89611
          ]
        ]
      }
    },
    {
      "type": "Feature",
      "properties": {
        "iteration": 5,
        "reference_number": "47806",
        "place_name": "Coolmunda",
        "lga_name": "Goondiwindi Regional",
        "sequence": 1
      },
      "geometry": {
        "type": "Point",
        "coordinates": [
          151.23222,
          -28.43806
        ]
      }
    },
    {
      "type": "Feature",
      "properties": {
        "iteration": 5,
        "reference_number": "44852",
        "place_name": "Coal Creek",
        "lga_name": "Somerset Regional",
        "sequence": 2
      },
      "geometry": {
        "type": "Point",
        "coordinates": [
          152.43444,
          -27.18194
        ]
      }
    },
    {
      "type": "Feature",
      "properties": {
        "iteration": 5,
        "reference_number": "45387",
        "place_name": "Dakabin",
        "lga_name": "Moreton Bay City",
        "sequence": 3
      },
      "geometry": {
        "type": "Point",
        "coordinates": [
          152.98528,
          -27.22333
        ]
      }
    },
    {
      "type": "Feature",
      "properties": {
        "iteration": 5,
        "reference_number": "45669",
        "place_name": "East Feluga",
        "lga_name": "Cassowary Coast Regional",
        "sequence": 4
      },
      "geometry": {
        "type": "Point",
        "coordinates": [
          145.99389,
          -17.89611
        ]
      }
    }
  ]
}