{
  "type": "FeatureCollection",
  "features": [
    {
      "type": "Feature",
      "properties": {
        "name": "Bounded locality route 1",
        "iteration": 1,
        "point_count": 6,
        "order": [
          "Bli Bli",
          "Inskip",
          "Oakey",
          "Barringun",
          "Hughenden",
          "Burrar Islet"
        ],
        "stroke": "#e6194b",
        "stroke-width": 2,
        "stroke-opacity": 1
      },
      "geometry": {
        "type": "LineString",
        "coordinates": [
          [
            153.03722,
            -26.61778
          ],
          [
            153.06667,
            -25.85972
          ],
          [
            151.705,
            -27.45083
          ],
          [
            145.79222,
            -28.86139
          ],
          [
            144.19667,
            -20.86333
          ],
          [
            142.82083,
            -10.14611
          ]
        ]
      }
    },
    {
      "type": "Feature",
      "properties": {
        "iteration": 1,
        "reference_number": "49676",
        "place_name": "Bli Bli",
        "lga_name": "Sunshine Coast Regional",
        "sequence": 1,
        "marker-color": "#e6194b"
      },
      "geometry": {
        "type": "Point",
        "coordinates": [
          153.03722,
          -26.61778
        ]
      }
    },
    {
      "type": "Feature",
      "properties": {
        "iteration": 1,
        "reference_number": "46341",
        "place_name": "Inskip",
        "lga_name": "Gympie Regional",
        "sequence": 2,
        "marker-color": "#e6194b"
      },
      "geometry": {
        "type": "Point",
        "coordinates": [
          153.06667,
          -25.85972
        ]
      }
    },
    {
      "type": "Feature",
      "properties": {
        "iteration": 1,
        "reference_number": "49179",
        "place_name": "Oakey",
        "lga_name": "Toowoomba Regional",
        "sequence": 3,
        "marker-color": "#e6194b"
      },
      "geometry": {
        "type": "Point",
        "coordinates": [
          151.705,
          -27.45083
        ]
      }
    },
    {
      "type": "Feature",
      "properties": {
        "iteration": 1,
        "reference_number": "42650",
        "place_name": "Barringun",
        "lga_name": "Paroo Shire",
        "sequence": 4,
        "marker-color": "#e6194b"
      },
      "geometry": {
        "type": "Point",
        "coordinates": [
          145.79222,
          -28.86139
        ]
      }
    },
    {
      "type": "Feature",
      "properties": {
        "iteration": 1,
        "reference_number": "52091",
        "place_name": "Hughenden",
        "lga_name": "Flinders Shire",
        "sequence": 5,
        "marker-color": "#e6194b"
      },
      "geometry": {
        "type": "Point",
        "coordinates": [
          144.19667,
          -20.86333
        ]
      }
    },
    {
      "type": "Feature",
      "properties": {
        "iteration": 1,
        "reference_number": "46712",
        "place_name": "Burrar Islet",
        "lga_name": "Torres Strait Island Regional",
        "sequence": 6,
        "marker-color": "#e6194b"
      },
      "geometry": {
        "type": "Point",
        "coordinates": [
          142.82083,
          -10.14611
        ]
      }
    },
    {
      "type": "Feature",
      "properties": {
        "name": "Bounded locality route 2",
        "iteration": 2,
        "point_count": 4,
        "order": [
          "Binjour",
          "Mungy",
          "Teebar",
          "Branyan"
        ],
        "stroke": "#3cb44b",
        "stroke-width": 2,
        "stroke-opacity": 1
      },
      "geometry": {
        "type": "LineString",
        "coordinates": [
          [
            151.46917,
            -25.53444
          ],
          [
            151.45528,
            -25.2525
          ],
          [
            152.20722,
            -25.65944
          ],
          [
            152.26472,
            -24.91778
          ]
        ]
      }
    },
    {
      "type": "Feature",
      "properties": {
        "iteration": 2,
        "reference_number": "45318",
        "place_name": "Binjour",
        "lga_name": "North Burnett Regional",
        "sequence": 1,
        "marker-color": "#3cb44b"
      },
      "geometry": {
        "type": "Point",
        "coordinates": [
          151.46917,
          -25.53444
        ]
      }
    },
    {
      "type": "Feature",
      "properties": {
        "iteration": 2,
        "reference_number": "47372",
        "place_name": "Mungy",
        "lga_name": "North Burnett Regional",
        "sequence": 2,
        "marker-color": "#3cb44b"
      },
      "geometry": {
        "type": "Point",
        "coordinates": [
          151.45528,
          -25.2525
        ]
      }
    },
    {
      "type": "Feature",
      "properties": {
        "iteration": 2,
        "reference_number": "46677",
        "place_name": "Teebar",
        "lga_name": "Fraser Coast Regional",
        "sequence": 3,
        "marker-color": "#3cb44b"
      },
      "geometry": {
        "type": "Point",
        "coordinates": [
          152.20722,
          -25.65944
        ]
      }
    },
    {
      "type": "Feature",
      "properties": {
        "iteration": 2,
        "reference_number": "48369",
        "place_name": "Branyan",
        "lga_name": "Bundaberg Regional",
        "sequence": 4,
        "marker-color": "#3cb44b"
      },
      "geometry": {
        "type": "Point",
        "coordinates": [
          152.26472,
          -24.91778
        ]
      }
    },
    {
      "type": "Feature",
      "properties": {
        "name": "Bounded locality route 3",
        "iteration": 3,
        "point_count": 3,
        "order": [
          "Mount Tyson",
          "Campbell Creek",
          "Dalga"
        ],
        "stroke": "#4363d8",
        "stroke-width": 2,
        "stroke-opacity": 1
      },
      "geometry": {
        "type": "LineString",
        "coordinates": [
          [
            151.57639,
            -27.55222
          ],
          [
            151.71361,
            -25.665
          ],
          [
            151.47611,
            -24.61389
          ]
        ]
      }
    },
    {
      "type": "Feature",
      "properties": {
        "iteration": 3,
        "reference_number": "49194",
        "place_name": "Mount Tyson",
        "lga_name": "Toowoomba Regional",
        "sequence": 1,
        "marker-color": "#4363d8"
      },
      "geometry": {
        "type": "Point",
        "coordinates": [
          151.57639,
          -27.55222
        ]
      }
    },
    {
      "type": "Feature",
      "properties": {
        "iteration": 3,
        "reference_number": "45326",
        "place_name": "Campbell Creek",
        "lga_name": "North Burnett Regional",
        "sequence": 2,
        "marker-color": "#4363d8"
      },
      "geometry": {
        "type": "Point",
        "coordinates": [
          151.71361,
          -25.665
        ]
      }
    },
    {
      "type": "Feature",
      "properties": {
        "iteration": 3,
        "reference_number": "44705",
        "place_name": "Dalga",
        "lga_name": "Bundaberg Regional",
        "sequence": 3,
        "marker-color": "#4363d8"
      },
      "geometry": {
        "type": "Point",
        "coordinates": [
          151.47611,
          -24.61389
        ]
      }
    },
    {
      "type": "Feature",
      "properties": {
        "name": "Bounded locality route 4",
        "iteration": 4,
        "point_count": 4,
        "order": [
          "Howard",
          "Dulong",
          "Paluma (Townsville City)",
          "New Harbourline"
        ],
        "stroke": "#f58231",
        "stroke-width": 2,
        "stroke-opacity": 1
      },
      "geometry": {
        "type": "LineString",
        "coordinates": [
          [
            152.55528,
            -25.32611
          ],
          [
            152.89278,
            -26.64
          ],
          [
            146.19472,
            -19.00722
          ],
          [
            146.06472,
            -17.62417
          ]
        ]
      }
    },
    {
      "type": "Feature",
      "properties": {
        "iteration": 4,
        "reference_number": "50251",
        "place_name": "Howard",
        "lga_name": "Fraser Coast Regional",
        "sequence": 1,
        "marker-color": "#f58231"
      },
      "geometry": {
        "type": "Point",
        "coordinates": [
          152.55528,
          -25.32611
        ]
      }
    },
    {
      "type": "Feature",
      "properties": {
        "iteration": 4,
        "reference_number": "48612",
        "place_name": "Dulong",
        "lga_name": "Sunshine Coast Regional",
        "sequence": 2,
        "marker-color": "#f58231"
      },
      "geometry": {
        "type": "Point",
        "coordinates": [
          152.89278,
          -26.64
        ]
      }
    },
    {
      "type": "Feature",
      "properties": {
        "iteration": 4,
        "reference_number": "44625",
        "place_name": "Paluma (Townsville City)",
        "lga_name": "Townsville City",
        "sequence": 3,
        "marker-color": "#f58231"
      },
      "geometry": {
        "type": "Point",
        "coordinates": [
          146.19472,
          -19.00722
        ]
      }
    },
    {
      "type": "Feature",
      "properties": {
        "iteration": 4,
        "reference_number": "45742",
        "place_name": "New Harbourline",
        "lga_name": "Cassowary Coast Regional",
        "sequence": 4,
        "marker-color": "#f58231"
      },
      "geometry": {
        "type": "Point",
        "coordinates": [
          146.06472,
          -17.62417
        ]
      }
    },
    {
      "type": "Feature",
      "properties": {
        "name": "Bounded locality route 5",
        "iteration": 5,
        "point_count": 5,
        "order": [
          "Morwincha",
          "Tamborine Mountain",
          "Neusa Vale",
          "Toondahra",
          "Mackenzie (Central Highlands Regional)"
        ],
        "stroke": "#911eb4",
        "stroke-width": 2,
        "stroke-opacity": 1
      },
      "geometry": {
        "type": "LineString",
        "coordinates": [
          [
            152.57806,
            -27.97
          ],
          [
            153.19944,
            -27.96972
          ],
          [
            152.84167,
            -26.19861
          ],
          [
            151.4275,
            -25.93722
          ],
          [
            149.38333,
            -23.13194
          ]
        ]
      }
    },
    {
      "type": "Feature",
      "properties": {
        "iteration": 5,
        "reference_number": "45167",
        "place_name": "Morwincha",
        "lga_name": "Scenic Rim Regional",
        "sequence": 1,
        "marker-color": "#911eb4"
      },
      "geometry": {
        "type": "Point",
        "coordinates": [
          152.57806,
          -27.97
        ]
      }
    },
    {
      "type": "Feature",
      "properties": {
        "iteration": 5,
        "reference_number": "48962",
        "place_name": "Tamborine Mountain",
        "lga_name": "Scenic Rim Regional",
        "sequence": 2,
        "marker-color": "#911eb4"
      },
      "geometry": {
        "type": "Point",
        "coordinates": [
          153.19944,
          -27.96972
        ]
      }
    },
    {
      "type": "Feature",
      "properties": {
        "iteration": 5,
        "reference_number": "46370",
        "place_name": "Neusa Vale",
        "lga_name": "Gympie Regional",
        "sequence": 3,
        "marker-color": "#911eb4"
      },
      "geometry": {
        "type": "Point",
        "coordinates": [
          152.84167,
          -26.19861
        ]
      }
    },
    {
      "type": "Feature",
      "properties": {
        "iteration": 5,
        "reference_number": "45420",
        "place_name": "Toondahra",
        "lga_name": "North Burnett Regional",
        "sequence": 4,
        "marker-color": "#911eb4"
      },
      "geometry": {
        "type": "Point",
        "coordinates": [
          151.4275,
          -25.93722
        ]
      }
    },
    {
      "type": "Feature",
      "properties": {
        "iteration": 5,
        "reference_number": "46963",
        "place_name": "Mackenzie (Central Highlands Regional)",
        "lga_name": "Central Highlands Regional",
        "sequence": 5,
        "marker-color": "#911eb4"
      },
      "geometry": {
        "type": "Point",
        "coordinates": [
          149.38333,
          -23.13194
        ]
      }
    }
  ]
}