{
  "type": "FeatureCollection",
  "features": [
    {
      "type": "Feature",
      "properties": {
        "name": "Bounded locality route 1",
        "iteration": 1,
        "point_count": 4,
        "order": [
          "Burncluith",
          "Goranba",
          "Morgan Park",
          "Lyons"
        ],
        "stroke": "#e6194b",
        "stroke-width": 2,
        "stroke-opacity": 1
      },
      "geometry": {
        "type": "LineString",
        "coordinates": [
          [
            150.72917,
            -26.58056
          ],
          [
            150.64056,
            -27.285
          ],
          [
            152.04278,
            -28.25806
          ],
          [
            152.86361,
            -27.77139
          ]
        ]
      }
    },
    {
      "type": "Feature",
      "properties": {
        "iteration": 1,
        "reference_number": "47674",
        "place_name": "Burncluith",
        "lga_name": "Western Downs Regional",
        "sequence": 1,
        "marker-color": "#e6194b"
      },
      "geometry": {
        "type": "Point",
        "coordinates": [
          150.72917,
          -26.58056
        ]
      }
    },
    {
      "type": "Feature",
      "properties": {
        "iteration": 1,
        "reference_number": "47703",
        "place_name": "Goranba",
        "lga_name": "Western Downs Regional",
        "sequence": 2,
        "marker-color": "#e6194b"
      },
      "geometry": {
        "type": "Point",
        "coordinates": [
          150.64056,
          -27.285
        ]
      }
    },
    {
      "type": "Feature",
      "properties": {
        "iteration": 1,
        "reference_number": "45954",
        "place_name": "Morgan Park",
        "lga_name": "Southern Downs Regional",
        "sequence": 3,
        "marker-color": "#e6194b"
      },
      "geometry": {
        "type": "Point",
        "coordinates": [
          152.04278,
          -28.25806
        ]
      }
    },
    {
      "type": "Feature",
      "properties": {
        "iteration": 1,
        "reference_number": "45303",
        "place_name": "Lyons",
        "lga_name": "Logan City",
        "sequence": 4,
        "marker-color": "#e6194b"
      },
      "geometry": {
        "type": "Point",
        "coordinates": [
          152.86361,
          -27.77139
        ]
      }
    },
    {
      "type": "Feature",
      "properties": {
        "name": "Bounded locality route 2",
        "iteration": 2,
        "point_count": 3,
        "order": [
          "Forest Hill",
          "Bracalba",
          "Langshaw"
        ],
        "stroke": "#3cb44b",
        "stroke-width": 2,
        "stroke-opacity": 1
      },
      "geometry": {
        "type": "LineString",
        "coordinates": [
          [
            152.36056,
            -27.58389
          ],
          [
            152.83361,
            -27.00639
          ],
          [
            152.58056,
            -26.30139
          ]
        ]
      }
    },
    {
      "type": "Feature",
      "properties": {
        "iteration": 2,
        "reference_number": "44953",
        "place_name": "Forest Hill",
        "lga_name": "Lockyer Valley Regional",
        "sequence": 1,
        "marker-color": "#3cb44b"
      },
      "geometry": {
        "type": "Point",
        "coordinates": [
          152.36056,
          -27.58389
        ]
      }
    },
    {
      "type": "Feature",
      "properties": {
        "iteration": 2,
        "reference_number": "45366",
        "place_name": "Bracalba",
        "lga_name": "Moreton Bay City",
        "sequence": 2,
        "marker-color": "#3cb44b"
      },
      "geometry": {
        "type": "Point",
        "coordinates": [
          152.83361,
          -27.00639
        ]
      }
    },
    {
      "type": "Feature",
      "properties": {
        "iteration": 2,
        "reference_number": "46353",
        "place_name": "Langshaw",
        "lga_name": "Gympie Regional",
        "sequence": 3,
        "marker-color": "#3cb44b"
      },
      "geometry": {
        "type": "Point",
        "coordinates": [
          152.58056,
          -26.30139
        ]
      }
    },
    {
      "type": "Feature",
      "properties": {
        "name": "Bounded locality route 3",
        "iteration": 3,
        "point_count": 4,
        "order": [
          "Bulli Creek",
          "Winya",
          "Desailly",
          "South Wellesley Islands"
        ],
        "stroke": "#4363d8",
        "stroke-width": 2,
        "stroke-opacity": 1
      },
      "geometry": {
        "type": "LineString",
        "coordinates": [
          [
            150.83333,
            -27.98333
          ],
          [
            152.57472,
            -26.95556
          ],
          [
            144.89722,
            -16.42667
          ],
          [
            139.36333,
            -17.00389
          ]
        ]
      }
    },
    {
      "type": "Feature",
      "properties": {
        "iteration": 3,
        "reference_number": "47902",
        "place_name": "Bulli Creek",
        "lga_name": "Toowoomba Regional",
        "sequence": 1,
        "marker-color": "#4363d8"
      },
      "geometry": {
        "type": "Point",
        "coordinates": [
          150.83333,
          -27.98333
        ]
      }
    },
    {
      "type": "Feature",
      "properties": {
        "iteration": 3,
        "reference_number": "52209",
        "place_name": "Winya",
        "lga_name": "Somerset Regional",
        "sequence": 2,
        "marker-color": "#4363d8"
      },
      "geometry": {
        "type": "Point",
        "coordinates": [
          152.57472,
          -26.95556
        ]
      }
    },
    {
      "type": "Feature",
      "properties": {
        "iteration": 3,
        "reference_number": "48604",
        "place_name": "Desailly",
        "lga_name": "Mareeba Shire",
        "sequence": 3,
        "marker-color": "#4363d8"
      },
      "geometry": {
        "type": "Point",
        "coordinates": [
          144.89722,
          -16.42667
        ]
      }
    },
    {
      "type": "Feature",
      "properties": {
        "iteration": 3,
        "reference_number": "42537",
        "place_name": "South Wellesley Islands",
        "lga_name": "",
        "sequence": 4,
        "marker-color": "#4363d8"
      },
      "geometry": {
        "type": "Point",
        "coordinates": [
          139.36333,
          -17.00389
        ]
      }
    },
    {
      "type": "Feature",
      "properties": {
        "name": "Bounded locality route 4",
        "iteration": 4,
        "point_count": 6,
        "order": [
          "Cobraball",
          "Pinbarren",
          "Clontarf (Toowoomba Regional)",
          "Inglewood",
          "Goldfields",
          "Lyra"
        ],
        "stroke": "#f58231",
        "stroke-width": 2,
        "stroke-opacity": 1
      },
      "geometry": {
        "type": "LineString",
        "coordinates": [
          [
            150.61278,
            -23.15028
          ],
          [
            152.86778,
            -26.32333
          ],
          [
            151.23333,
            -27.96667
          ],
          [
            151.07667,
            -28.39194
          ],
          [
            151.70528,
            -28.47694
          ],
          [
            151.865,
            -28.83167
          ]
        ]
      }
    },
    {
      "type": "Feature",
      "properties": {
        "iteration": 4,
        "reference_number": "48572",
        "place_name": "Cobraball",
        "lga_name": "Livingstone Shire",
        "sequence": 1,
        "marker-color": "#f58231"
      },
      "geometry": {
        "type": "Point",
        "coordinates": [
          150.61278,
          -23.15028
        ]
      }
    },
    {
      "type": "Feature",
      "properties": {
        "iteration": 4,
        "reference_number": "48841",
        "place_name": "Pinbarren",
        "lga_name": "Noosa Shire",
        "sequence": 2,
        "marker-color": "#f58231"
      },
      "geometry": {
        "type": "Point",
        "coordinates": [
          152.86778,
          -26.32333
        ]
      }
    },
    {
      "type": "Feature",
      "properties": {
        "iteration": 4,
        "reference_number": "47914",
        "place_name": "Clontarf (Toowoomba Regional)",
        "lga_name": "Toowoomba Regional",
        "sequence": 3,
        "marker-color": "#f58231"
      },
      "geometry": {
        "type": "Point",
        "coordinates": [
          151.23333,
          -27.96667
        ]
      }
    },
    {
      "type": "Feature",
      "properties": {
        "iteration": 4,
        "reference_number": "47813",
        "place_name": "Inglewood",
        "lga_name": "Goondiwindi Regional",
        "sequence": 4,
        "marker-color": "#f58231"
      },
      "geometry": {
        "type": "Point",
        "coordinates": [
          151.07667,
          -28.39194
        ]
      }
    },
    {
      "type": "Feature",
      "properties": {
        "iteration": 4,
        "reference_number": "49590",
        "place_name": "Goldfields",
        "lga_name": "Southern Downs Regional",
        "sequence": 5,
        "marker-color": "#f58231"
      },
      "geometry": {
        "type": "Point",
        "coordinates": [
          151.70528,
          -28.47694
        ]
      }
    },
    {
      "type": "Feature",
      "properties": {
        "iteration": 4,
        "reference_number": "45949",
        "place_name": "Lyra",
        "lga_name": "Southern Downs Regional",
        "sequence": 6,
        "marker-color": "#f58231"
      },
      "geometry": {
        "type": "Point",
        "coordinates": [
          151.865,
          -28.83167
        ]
      }
    },
    {
      "type": "Feature",
      "properties": {
        "name": "Bounded locality route 5",
        "iteration": 5,
        "point_count": 3,
        "order": [
          "Mooloolah Valley",
          "Taabinga",
          "Amaroo (Boulia Shire)"
        ],
        "stroke": "#911eb4",
        "stroke-width": 2,
        "stroke-opacity": 1
      },
      "geometry": {
        "type": "LineString",
        "coordinates": [
          [
            152.96333,
            -26.7625
          ],
          [
            151.83194,
            -26.59111
          ],
          [
            139.38083,
            -23.22972
          ]
        ]
      }
    },
    {
      "type": "Feature",
      "properties": {
        "iteration": 5,
        "reference_number": "48769",
        "place_name": "Mooloolah Valley",
        "lga_name": "Sunshine Coast Regional",
        "sequence": 1,
        "marker-color": "#911eb4"
      },
      "geometry": {
        "type": "Point",
        "coordinates": [
          152.96333,
          -26.7625
        ]
      }
    },
    {
      "type": "Feature",
      "properties": {
        "iteration": 5,
        "reference_number": "46268",
        "place_name": "Taabinga",
        "lga_name": "South Burnett Regional",
        "sequence": 2,
        "marker-color": "#911eb4"
      },
      "geometry": {
        "type": "Point",
        "coordinates": [
          151.83194,
          -26.59111
        ]
      }
    },
    {
      "type": "Feature",
      "properties": {
        "iteration": 5,
        "reference_number": "42338",
        "place_name": "Amaroo (Boulia Shire)",
        "lga_name": "Boulia Shire",
        "sequence": 3,
        "marker-color": "#911eb4"
      },
      "geometry": {
        "type": "Point",
        "coordinates": [
          139.38083,
          -23.22972
        ]
      }
    }
  ]
}