{
  "type": "FeatureCollection",
  "features": [
    {
      "type": "Feature",
      "properties": {
        "name": "Bounded locality route 1",
        "iteration": 1,
        "point_count": 4,
        "order": [
          "Parklands",
          "Monogorilby",
          "Taylors Beach",
          "Taldora"
        ]
      },
      "geometry": {
        "type": "LineString",
        "coordinates": [
          [
            152.96778,
            -26.59861
          ],
          [
            151.04833,
            -25.99694
          ],
          [
            146.32833,
            -18.63778
          ],
          [
            141.42333,
            -19.83
          ]
        ]
      }
    },
    {
      "type": "Feature",
      "properties": {
        "iteration": 1,
        "reference_number": "48830",
        "place_name": "Parklands",
        "lga_name": "Sunshine Coast Regional",
        "sequence": 1
      },
      "geometry": {
        "type": "Point",
        "coordinates": [
          152.96778,
          -26.59861
        ]
      }
    },
    {
      "type": "Feature",
      "properties": {
        "iteration": 1,
        "reference_number": "45390",
        "place_name": "Monogorilby",
        "lga_name": "North Burnett Regional",
        "sequence": 2
      },
      "geometry": {
        "type": "Point",
        "coordinates": [
          151.04833,
          -25.99694
        ]
      }
    },
    {
      "type": "Feature",
      "properties": {
        "iteration": 1,
        "reference_number": "42527",
        "place_name": "Taylors Beach",
        "lga_name": "Hinchinbrook Shire",
        "sequence": 3
      },
      "geometry": {
        "type": "Point",
        "coordinates": [
          146.32833,
          -18.63778
        ]
      }
    },
    {
      "type": "Feature",
      "properties": {
        "iteration": 1,
        "reference_number": "42266",
        "place_name": "Taldora",
        "lga_name": "McKinlay Shire",
        "sequence": 4
      },
      "geometry": {
        "type": "Point",
        "coordinates": [
          141.42333,
          -19.83
        ]
      }
    },
    {
      "type": "Feature",
      "properties": {
        "name": "Bounded locality route 2",
        "iteration": 2,
        "point_count": 3,
        "order": [
          "Meandarra",
          "Mount Marshall",
          "Talegalla Weir"
        ]
      },
      "geometry": {
        "type": "LineString",
        "coordinates": [
          [
            149.86444,
            -27.30556
          ],
          [
            152.03944,
            -28.07944
          ],
          [
            152.68722,
            -25.78667
          ]
        ]
      }
    },
    {
      "type": "Feature",
      "properties": {
        "iteration": 2,
        "reference_number": "50513",
        "place_name": "Meandarra",
        "lga_name": "Western Downs Regional",
        "sequence": 1
      },
      "geometry": {
        "type": "Point",
        "coordinates": [
          149.86444,
          -27.30556
        ]
      }
    },
    {
      "type": "Feature",
      "properties": {
        "iteration": 2,
        "reference_number": "45956",
        "place_name": "Mount Marshall",
        "lga_name": "Southern Downs Regional",
        "sequence": 2
      },
      "geometry": {
        "type": "Point",
        "coordinates": [
          152.03944,
          -28.07944
        ]
      }
    },
    {
      "type": "Feature",
      "properties": {
        "iteration": 2,
        "reference_number": "46675",
        "place_name": "Talegalla Weir",
        "lga_name": "Fraser Coast Regional",
        "sequence": 3
      },
      "geometry": {
        "type": "Point",
        "coordinates": [
          152.68722,
          -25.78667
        ]
      }
    },
    {
      "type": "Feature",
      "properties": {
        "name": "Bounded locality route 3",
        "iteration": 3,
        "point_count": 3,
        "order": [
          "Kinnoul",
          "Gooburrum",
          "Birnam (Toowoomba Regional)"
        ]
      },
      "geometry": {
        "type": "LineString",
        "coordinates": [
          [
            149.53806,
            -25.6625
          ],
          [
            152.32167,
            -24.82222
          ],
          [
            151.92417,
            -27.49278
          ]
        ]
      }
    },
    {
      "type": "Feature",
      "properties": {
        "iteration": 3,
        "reference_number": "49561",
        "place_name": "Kinnoul",
        "lga_name": "Banana Shire",
        "sequence": 1
      },
      "geometry": {
        "type": "Point",
        "coordinates": [
          149.53806,
          -25.6625
        ]
      }
    },
    {
      "type": "Feature",
      "properties": {
        "iteration": 3,
        "reference_number": "50101",
        "place_name": "Gooburrum",
        "lga_name": "Bundaberg Regional",
        "sequence": 2
      },
      "geometry": {
        "type": "Point",
        "coordinates": [
          152.32167,
          -24.82222
        ]
      }
    },
    {
      "type": "Feature",
      "properties": {
        "iteration": 3,
        "reference_number": "49203",
        "place_name": "Birnam (Toowoomba Regional)",
        "lga_name": "Toowoomba Regional",
        "sequence": 3
      },
      "geometry": {
        "type": "Point",
        "coordinates": [
          151.92417,
          -27.49278
        ]
      }
    },
    {
      "type": "Feature",
      "properties": {
        "name": "Bounded locality route 4",
        "iteration": 4,
        "point_count": 4,
        "order": [
          "Homestead",
          "Simmie",
          "Cheltenham",
          "Hillview"
        ]
      },
      "geometry": {
        "type": "LineString",
        "coordinates": [
          [
            145.60556,
            -20.39472
          ],
          [
            148.60611,
            -25.73028
          ],
          [
            150.77194,
            -25.62611
          ],
          [
            153.0225,
            -28.22972
          ]
        ]
      }
    },
    {
      "type": "Feature",
      "properties": {
        "iteration": 4,
        "reference_number": "50505",
        "place_name": "Homestead",
        "lga_name": "Charters Towers Regional",
        "sequence": 1
      },
      "geometry": {
        "type": "Point",
        "coordinates": [
          145.60556,
          -20.39472
        ]
      }
    },
    {
      "type": "Feature",
      "properties": {
        "iteration": 4,
        "reference_number": "47454",
        "place_name": "Simmie",
        "lga_name": "Maranoa Regional",
        "sequence": 2
      },
      "geometry": {
        "type": "Point",
        "coordinates": [
          148.60611,
          -25.73028
        ]
      }
    },
    {
      "type": "Feature",
      "properties": {
        "iteration": 4,
        "reference_number": "52273",
        "place_name": "Cheltenham",
        "lga_name": "North Burnett Regional",
        "sequence": 3
      },
      "geometry": {
        "type": "Point",
        "coordinates": [
          150.77194,
          -25.62611
        ]
      }
    },
    {
      "type": "Feature",
      "properties": {
        "iteration": 4,
        "reference_number": "45145",
        "place_name": "Hillview",
        "lga_name": "Scenic Rim Regional",
        "sequence": 4
      },
      "geometry": {
        "type": "Point",
        "coordinates": [
          153.0225,
          -28.22972
        ]
      }
    },
    {
      "type": "Feature",
      "properties": {
        "name": "Bounded locality route 5",
        "iteration": 5,
        "point_count": 5,
        "order": [
          "Beebo",
          "Jollys Lookout",
          "Dulacca",
          "Silky Oak",
          "Hope Vale (Hope Vale Shire)"
        ]
      },
      "geometry": {
        "type": "LineString",
        "coordinates": [
          [
            150.99306,
            -28.68278
          ],
          [
            152.82694,
            -27.41028
          ],
          [
            149.76639,
            -26.69667
          ],
          [
            145.94944,
            -17.97472
          ],
          [
            145.21333,
            -15.14667
          ]
        ]
      }
    },
    {
      "type": "Feature",
      "properties": {
        "iteration": 5,
        "reference_number": "47795",
        "place_name": "Beebo",
        "lga_name": "Goondiwindi Regional",
        "sequence": 1
      },
      "geometry": {
        "type": "Point",
        "coordinates": [
          150.99306,
          -28.68278
        ]
      }
    },
    {
      "type": "Feature",
      "properties": {
        "iteration": 5,
        "reference_number": "45501",
        "place_name": "Jollys Lookout",
        "lga_name": "Moreton Bay City",
        "sequence": 2
      },
      "geometry": {
        "type": "Point",
        "coordinates": [
          152.82694,
          -27.41028
        ]
      }
    },
    {
      "type": "Feature",
      "properties": {
        "iteration": 5,
        "reference_number": "47695",
        "place_name": "Dulacca",
        "lga_name": "Western Downs Regional",
        "sequence": 3
      },
      "geometry": {
        "type": "Point",
        "coordinates": [
          149.76639,
          -26.69667
        ]
      }
    },
    {
      "type": "Feature",
      "properties": {
        "iteration": 5,
        "reference_number": "45752",
        "place_name": "Silky Oak",
        "lga_name": "Cassowary Coast Regional",
        "sequence": 4
      },
      "geometry": {
        "type": "Point",
        "coordinates": [
          145.94944,
          -17.97472
        ]
      }
    },
    {
      "type": "Feature",
      "properties": {
        "iteration": 5,
        "reference_number": "45790",
        "place_name": "Hope Vale (Hope Vale Shire)",
        "lga_name": "Hope Vale Aboriginal Shire",
        "sequence": 5
      },
      "geometry": {
        "type": "Point",
        "coordinates": [
          145.21333,
          -15.14667
        ]
      }
    }
  ]
}