{
  "type": "FeatureCollection",
  "features": [
    {
      "type": "Feature",
      "properties": {
        "name": "Bounded locality route 1",
        "iteration": 1,
        "point_count": 5,
        "order": [
          "Coonarr",
          "Mungar",
          "Murrumba",
          "Georgina",
          "Evans Landing"
        ],
        "stroke": "#e6194b",
        "stroke-width": 2,
        "stroke-opacity": 1
      },
      "geometry": {
        "type": "LineString",
        "coordinates": [
          [
            152.47056,
            -24.96667
          ],
          [
            152.59444,
            -25.60278
          ],
          [
            152.46778,
            -27.2025
          ],
          [
            139.24194,
            -22.53806
          ],
          [
            141.85361,
            -12.66194
          ]
        ]
      }
    },
    {
      "type": "Feature",
      "properties": {
        "iteration": 1,
        "reference_number": "44702",
        "place_name": "Coonarr",
        "lga_name": "Bundaberg Regional",
        "sequence": 1,
        "marker-color": "#e6194b"
      },
      "geometry": {
        "type": "Point",
        "coordinates": [
          152.47056,
          -24.96667
        ]
      }
    },
    {
      "type": "Feature",
      "properties": {
        "iteration": 1,
        "reference_number": "46730",
        "place_name": "Mungar",
        "lga_name": "Fraser Coast Regional",
        "sequence": 2,
        "marker-color": "#e6194b"
      },
      "geometry": {
        "type": "Point",
        "coordinates": [
          152.59444,
          -25.60278
        ]
      }
    },
    {
      "type": "Feature",
      "properties": {
        "iteration": 1,
        "reference_number": "44905",
        "place_name": "Murrumba",
        "lga_name": "Somerset Regional",
        "sequence": 3,
        "marker-color": "#e6194b"
      },
      "geometry": {
        "type": "Point",
        "coordinates": [
          152.46778,
          -27.2025
        ]
      }
    },
    {
      "type": "Feature",
      "properties": {
        "iteration": 1,
        "reference_number": "42342",
        "place_name": "Georgina",
        "lga_name": "Boulia Shire",
        "sequence": 4,
        "marker-color": "#e6194b"
      },
      "geometry": {
        "type": "Point",
        "coordinates": [
          139.24194,
          -22.53806
        ]
      }
    },
    {
      "type": "Feature",
      "properties": {
        "iteration": 1,
        "reference_number": "12015",
        "place_name": "Evans Landing",
        "lga_name": "Weipa Town",
        "sequence": 5,
        "marker-color": "#e6194b"
      },
      "geometry": {
        "type": "Point",
        "coordinates": [
          141.85361,
          -12.66194
        ]
      }
    },
    {
      "type": "Feature",
      "properties": {
        "name": "Bounded locality route 2",
        "iteration": 2,
        "point_count": 4,
        "order": [
          "Long Flat",
          "Yarraman",
          "Mount Pleasant (Moreton Bay City)",
          "Burrum Town"
        ],
        "stroke": "#3cb44b",
        "stroke-width": 2,
        "stroke-opacity": 1
      },
      "geometry": {
        "type": "LineString",
        "coordinates": [
          [
            152.6625,
            -26.26667
          ],
          [
            151.98,
            -26.82917
          ],
          [
            152.78278,
            -27.14778
          ],
          [
            152.58722,
            -25.32889
          ]
        ]
      }
    },
    {
      "type": "Feature",
      "properties": {
        "iteration": 2,
        "reference_number": "46354",
        "place_name": "Long Flat",
        "lga_name": "Gympie Regional",
        "sequence": 1,
        "marker-color": "#3cb44b"
      },
      "geometry": {
        "type": "Point",
        "coordinates": [
          152.6625,
          -26.26667
        ]
      }
    },
    {
      "type": "Feature",
      "properties": {
        "iteration": 2,
        "reference_number": "48105",
        "place_name": "Yarraman",
        "lga_name": "Toowoomba Regional",
        "sequence": 2,
        "marker-color": "#3cb44b"
      },
      "geometry": {
        "type": "Point",
        "coordinates": [
          151.98,
          -26.82917
        ]
      }
    },
    {
      "type": "Feature",
      "properties": {
        "iteration": 2,
        "reference_number": "52318",
        "place_name": "Mount Pleasant (Moreton Bay City)",
        "lga_name": "Moreton Bay City",
        "sequence": 3,
        "marker-color": "#3cb44b"
      },
      "geometry": {
        "type": "Point",
        "coordinates": [
          152.78278,
          -27.14778
        ]
      }
    },
    {
      "type": "Feature",
      "properties": {
        "iteration": 2,
        "reference_number": "46639",
        "place_name": "Burrum Town",
        "lga_name": "Fraser Coast Regional",
        "sequence": 4,
        "marker-color": "#3cb44b"
      },
      "geometry": {
        "type": "Point",
        "coordinates": [
          152.58722,
          -25.32889
        ]
      }
    },
    {
      "type": "Feature",
      "properties": {
        "name": "Bounded locality route 3",
        "iteration": 3,
        "point_count": 5,
        "order": [
          "Ingham",
          "Brooweena",
          "Mount Hallen",
          "Harrisville",
          "Oman Ama"
        ],
        "stroke": "#4363d8",
        "stroke-width": 2,
        "stroke-opacity": 1
      },
      "geometry": {
        "type": "LineString",
        "coordinates": [
          [
            146.155,
            -18.655
          ],
          [
            152.26639,
            -25.59833
          ],
          [
            152.38444,
            -27.33194
          ],
          [
            152.66917,
            -27.80972
          ],
          [
            151.33528,
            -28.42194
          ]
        ]
      }
    },
    {
      "type": "Feature",
      "properties": {
        "iteration": 3,
        "reference_number": "49502",
        "place_name": "Ingham",
        "lga_name": "Hinchinbrook Shire",
        "sequence": 1,
        "marker-color": "#4363d8"
      },
      "geometry": {
        "type": "Point",
        "coordinates": [
          146.155,
          -18.655
        ]
      }
    },
    {
      "type": "Feature",
      "properties": {
        "iteration": 3,
        "reference_number": "46634",
        "place_name": "Brooweena",
        "lga_name": "Fraser Coast Regional",
        "sequence": 2,
        "marker-color": "#4363d8"
      },
      "geometry": {
        "type": "Point",
        "coordinates": [
          152.26639,
          -25.59833
        ]
      }
    },
    {
      "type": "Feature",
      "properties": {
        "iteration": 3,
        "reference_number": "44901",
        "place_name": "Mount Hallen",
        "lga_name": "Somerset Regional",
        "sequence": 3,
        "marker-color": "#4363d8"
      },
      "geometry": {
        "type": "Point",
        "coordinates": [
          152.38444,
          -27.33194
        ]
      }
    },
    {
      "type": "Feature",
      "properties": {
        "iteration": 3,
        "reference_number": "49609",
        "place_name": "Harrisville",
        "lga_name": "Scenic Rim Regional",
        "sequence": 4,
        "marker-color": "#4363d8"
      },
      "geometry": {
        "type": "Point",
        "coordinates": [
          152.66917,
          -27.80972
        ]
      }
    },
    {
      "type": "Feature",
      "properties": {
        "iteration": 3,
        "reference_number": "49281",
        "place_name": "Oman Ama",
        "lga_name": "Goondiwindi Regional",
        "sequence": 5,
        "marker-color": "#4363d8"
      },
      "geometry": {
        "type": "Point",
        "coordinates": [
          151.33528,
          -28.42194
        ]
      }
    },
    {
      "type": "Feature",
      "properties": {
        "name": "Bounded locality route 4",
        "iteration": 4,
        "point_count": 6,
        "order": [
          "Ngatjan (Cairns Regional)",
          "Taragoola",
          "Dagun",
          "Natural Bridge",
          "Glenarbon",
          "Moonie (Goondiwindi Regional)"
        ],
        "stroke": "#f58231",
        "stroke-width": 2,
        "stroke-opacity": 1
      },
      "geometry": {
        "type": "LineString",
        "coordinates": [
          [
            145.91917,
            -17.47556
          ],
          [
            151.23278,
            -24.10806
          ],
          [
            152.67222,
            -26.31667
          ],
          [
            153.22861,
            -28.22056
          ],
          [
            150.90556,
            -28.59778
          ],
          [
            150.41194,
            -27.84222
          ]
        ]
      }
    },
    {
      "type": "Feature",
      "properties": {
        "iteration": 4,
        "reference_number": "48803",
        "place_name": "Ngatjan (Cairns Regional)",
        "lga_name": "Cairns Regional",
        "sequence": 1,
        "marker-color": "#f58231"
      },
      "geometry": {
        "type": "Point",
        "coordinates": [
          145.91917,
          -17.47556
        ]
      }
    },
    {
      "type": "Feature",
      "properties": {
        "iteration": 4,
        "reference_number": "47288",
        "place_name": "Taragoola",
        "lga_name": "Gladstone Regional",
        "sequence": 2,
        "marker-color": "#f58231"
      },
      "geometry": {
        "type": "Point",
        "coordinates": [
          151.23278,
          -24.10806
        ]
      }
    },
    {
      "type": "Feature",
      "properties": {
        "iteration": 4,
        "reference_number": "46324",
        "place_name": "Dagun",
        "lga_name": "Gympie Regional",
        "sequence": 3,
        "marker-color": "#f58231"
      },
      "geometry": {
        "type": "Point",
        "coordinates": [
          152.67222,
          -26.31667
        ]
      }
    },
    {
      "type": "Feature",
      "properties": {
        "iteration": 4,
        "reference_number": "47850",
        "place_name": "Natural Bridge",
        "lga_name": "Gold Coast City",
        "sequence": 4,
        "marker-color": "#f58231"
      },
      "geometry": {
        "type": "Point",
        "coordinates": [
          153.22861,
          -28.22056
        ]
      }
    },
    {
      "type": "Feature",
      "properties": {
        "iteration": 4,
        "reference_number": "47808",
        "place_name": "Glenarbon",
        "lga_name": "Goondiwindi Regional",
        "sequence": 5,
        "marker-color": "#f58231"
      },
      "geometry": {
        "type": "Point",
        "coordinates": [
          150.90556,
          -28.59778
        ]
      }
    },
    {
      "type": "Feature",
      "properties": {
        "iteration": 4,
        "reference_number": "47820",
        "place_name": "Moonie (Goondiwindi Regional)",
        "lga_name": "Goondiwindi Regional",
        "sequence": 6,
        "marker-color": "#f58231"
      },
      "geometry": {
        "type": "Point",
        "coordinates": [
          150.41194,
          -27.84222
        ]
      }
    },
    {
      "type": "Feature",
      "properties": {
        "name": "Bounded locality route 5",
        "iteration": 5,
        "point_count": 4,
        "order": [
          "The Bluff (Ipswich City)",
          "Austinville",
          "Ringtail Creek",
          "Elliott"
        ],
        "stroke": "#911eb4",
        "stroke-width": 2,
        "stroke-opacity": 1
      },
      "geometry": {
        "type": "LineString",
        "coordinates": [
          [
            152.53417,
            -27.615
          ],
          [
            153.31,
            -28.15417
          ],
          [
            152.95111,
            -26.34
          ],
          [
            152.27806,
            -25.00472
          ]
        ]
      }
    },
    {
      "type": "Feature",
      "properties": {
        "iteration": 5,
        "reference_number": "45219",
        "place_name": "The Bluff (Ipswich City)",
        "lga_name": "Ipswich City",
        "sequence": 1,
        "marker-color": "#911eb4"
      },
      "geometry": {
        "type": "Point",
        "coordinates": [
          152.53417,
          -27.615
        ]
      }
    },
    {
      "type": "Feature",
      "properties": {
        "iteration": 5,
        "reference_number": "46026",
        "place_name": "Austinville",
        "lga_name": "Gold Coast City",
        "sequence": 2,
        "marker-color": "#911eb4"
      },
      "geometry": {
        "type": "Point",
        "coordinates": [
          153.31,
          -28.15417
        ]
      }
    },
    {
      "type": "Feature",
      "properties": {
        "iteration": 5,
        "reference_number": "48856",
        "place_name": "Ringtail Creek",
        "lga_name": "Noosa Shire",
        "sequence": 3,
        "marker-color": "#911eb4"
      },
      "geometry": {
        "type": "Point",
        "coordinates": [
          152.95111,
          -26.34
        ]
      }
    },
    {
      "type": "Feature",
      "properties": {
        "iteration": 5,
        "reference_number": "48971",
        "place_name": "Elliott",
        "lga_name": "Bundaberg Regional",
        "sequence": 4,
        "marker-color": "#911eb4"
      },
      "geometry": {
        "type": "Point",
        "coordinates": [
          152.27806,
          -25.00472
        ]
      }
    }
  ]
}