{
  "type": "FeatureCollection",
  "features": [
    {
      "type": "Feature",
      "properties": {
        "name": "Bounded locality route 1",
        "iteration": 1,
        "point_count": 4,
        "order": [
          "Coochin Creek",
          "Yarraman",
          "Guanaba",
          "Gaeta"
        ]
      },
      "geometry": {
        "type": "LineString",
        "coordinates": [
          [
            153.05555725,
            -26.88944435
          ],
          [
            151.98,
            -26.82917
          ],
          [
            153.24111,
            -27.9375
          ],
          [
            151.59278,
            -24.835
          ]
        ]
      }
    },
    {
      "type": "Feature",
      "properties": {
        "iteration": 1,
        "reference_number": "52497",
        "place_name": "Coochin Creek",
        "lga_name": "Sunshine Coast Regional",
        "sequence": 1
      },
      "geometry": {
        "type": "Point",
        "coordinates": [
          153.05555725,
          -26.88944435
        ]
      }
    },
    {
      "type": "Feature",
      "properties": {
        "iteration": 1,
        "reference_number": "48105",
        "place_name": "Yarraman",
        "lga_name": "Toowoomba Regional",
        "sequence": 2
      },
      "geometry": {
        "type": "Point",
        "coordinates": [
          151.98,
          -26.82917
        ]
      }
    },
    {
      "type": "Feature",
      "properties": {
        "iteration": 1,
        "reference_number": "46050",
        "place_name": "Guanaba",
        "lga_name": "Gold Coast City",
        "sequence": 3
      },
      "geometry": {
        "type": "Point",
        "coordinates": [
          153.24111,
          -27.9375
        ]
      }
    },
    {
      "type": "Feature",
      "properties": {
        "iteration": 1,
        "reference_number": "50045",
        "place_name": "Gaeta",
        "lga_name": "Bundaberg Regional",
        "sequence": 4
      },
      "geometry": {
        "type": "Point",
        "coordinates": [
          151.59278,
          -24.835
        ]
      }
    },
    {
      "type": "Feature",
      "properties": {
        "name": "Bounded locality route 2",
        "iteration": 2,
        "point_count": 3,
        "order": [
          "Barlyne",
          "Bellfield",
          "Koah"
        ]
      },
      "geometry": {
        "type": "LineString",
        "coordinates": [
          [
            151.64,
            -25.73722
          ],
          [
            143.185,
            -19.30583
          ],
          [
            145.5575,
            -16.90583
          ]
        ]
      }
    },
    {
      "type": "Feature",
      "properties": {
        "iteration": 2,
        "reference_number": "45315",
        "place_name": "Barlyne",
        "lga_name": "North Burnett Regional",
        "sequence": 1
      },
      "geometry": {
        "type": "Point",
        "coordinates": [
          151.64,
          -25.73722
        ]
      }
    },
    {
      "type": "Feature",
      "properties": {
        "iteration": 2,
        "reference_number": "43183",
        "place_name": "Bellfield",
        "lga_name": "Croydon Shire",
        "sequence": 2
      },
      "geometry": {
        "type": "Point",
        "coordinates": [
          143.185,
          -19.30583
        ]
      }
    },
    {
      "type": "Feature",
      "properties": {
        "iteration": 2,
        "reference_number": "48707",
        "place_name": "Koah",
        "lga_name": "Mareeba Shire",
        "sequence": 3
      },
      "geometry": {
        "type": "Point",
        "coordinates": [
          145.5575,
          -16.90583
        ]
      }
    },
    {
      "type": "Feature",
      "properties": {
        "name": "Bounded locality route 3",
        "iteration": 3,
        "point_count": 4,
        "order": [
          "Hunchy",
          "Corella",
          "Highland Plains (Toowoomba Regional)",
          "West Haldon (Toowoomba Regional)"
        ]
      },
      "geometry": {
        "type": "LineString",
        "coordinates": [
          [
            152.915,
            -26.68028
          ],
          [
            152.64167,
            -26.1125
          ],
          [
            151.75972,
            -27.27444
          ],
          [
            152.08556,
            -27.78306
          ]
        ]
      }
    },
    {
      "type": "Feature",
      "properties": {
        "iteration": 3,
        "reference_number": "51312",
        "place_name": "Hunchy",
        "lga_name": "Sunshine Coast Regional",
        "sequence": 1
      },
      "geometry": {
        "type": "Point",
        "coordinates": [
          152.915,
          -26.68028
        ]
      }
    },
    {
      "type": "Feature",
      "properties": {
        "iteration": 3,
        "reference_number": "46321",
        "place_name": "Corella",
        "lga_name": "Gympie Regional",
        "sequence": 2
      },
      "geometry": {
        "type": "Point",
        "coordinates": [
          152.64167,
          -26.1125
        ]
      }
    },
    {
      "type": "Feature",
      "properties": {
        "iteration": 3,
        "reference_number": "47969",
        "place_name": "Highland Plains (Toowoomba Regional)",
        "lga_name": "Toowoomba Regional",
        "sequence": 3
      },
      "geometry": {
        "type": "Point",
        "coordinates": [
          151.75972,
          -27.27444
        ]
      }
    },
    {
      "type": "Feature",
      "properties": {
        "iteration": 3,
        "reference_number": "48090",
        "place_name": "West Haldon (Toowoomba Regional)",
        "lga_name": "Toowoomba Regional",
        "sequence": 4
      },
      "geometry": {
        "type": "Point",
        "coordinates": [
          152.08556,
          -27.78306
        ]
      }
    },
    {
      "type": "Feature",
      "properties": {
        "name": "Bounded locality route 4",
        "iteration": 4,
        "point_count": 4,
        "order": [
          "Taylors Beach",
          "Tellebang",
          "Byrnestown",
          "Cushnie"
        ]
      },
      "geometry": {
        "type": "LineString",
        "coordinates": [
          [
            146.32833,
            -18.63778
          ],
          [
            151.25944,
            -25.03167
          ],
          [
            151.76778,
            -25.52194
          ],
          [
            151.74278,
            -26.34139
          ]
        ]
      }
    },
    {
      "type": "Feature",
      "properties": {
        "iteration": 4,
        "reference_number": "42527",
        "place_name": "Taylors Beach",
        "lga_name": "Hinchinbrook Shire",
        "sequence": 1
      },
      "geometry": {
        "type": "Point",
        "coordinates": [
          146.32833,
          -18.63778
        ]
      }
    },
    {
      "type": "Feature",
      "properties": {
        "iteration": 4,
        "reference_number": "45417",
        "place_name": "Tellebang",
        "lga_name": "North Burnett Regional",
        "sequence": 2
      },
      "geometry": {
        "type": "Point",
        "coordinates": [
          151.25944,
          -25.03167
        ]
      }
    },
    {
      "type": "Feature",
      "properties": {
        "iteration": 4,
        "reference_number": "45325",
        "place_name": "Byrnestown",
        "lga_name": "North Burnett Regional",
        "sequence": 3
      },
      "geometry": {
        "type": "Point",
        "coordinates": [
          151.76778,
          -25.52194
        ]
      }
    },
    {
      "type": "Feature",
      "properties": {
        "iteration": 4,
        "reference_number": "46213",
        "place_name": "Cushnie",
        "lga_name": "South Burnett Regional",
        "sequence": 4
      },
      "geometry": {
        "type": "Point",
        "coordinates": [
          151.74278,
          -26.34139
        ]
      }
    },
    {
      "type": "Feature",
      "properties": {
        "name": "Bounded locality route 5",
        "iteration": 5,
        "point_count": 4,
        "order": [
          "Camp Mountain",
          "Preston (Lockyer Valley Regional)",
          "Calingunee",
          "Miallo"
        ]
      },
      "geometry": {
        "type": "LineString",
        "coordinates": [
          [
            152.87556,
            -27.39778
          ],
          [
            151.97444,
            -27.6425
          ],
          [
            150.3325,
            -27.99861
          ],
          [
            145.36833,
            -16.40556
          ]
        ]
      }
    },
    {
      "type": "Feature",
      "properties": {
        "iteration": 5,
        "reference_number": "50017",
        "place_name": "Camp Mountain",
        "lga_name": "Moreton Bay City",
        "sequence": 1
      },
      "geometry": {
        "type": "Point",
        "coordinates": [
          152.87556,
          -27.39778
        ]
      }
    },
    {
      "type": "Feature",
      "properties": {
        "iteration": 5,
        "reference_number": "47618",
        "place_name": "Preston (Lockyer Valley Regional)",
        "lga_name": "Lockyer Valley Regional",
        "sequence": 2
      },
      "geometry": {
        "type": "Point",
        "coordinates": [
          151.97444,
          -27.6425
        ]
      }
    },
    {
      "type": "Feature",
      "properties": {
        "iteration": 5,
        "reference_number": "47802",
        "place_name": "Calingunee",
        "lga_name": "Goondiwindi Regional",
        "sequence": 3
      },
      "geometry": {
        "type": "Point",
        "coordinates": [
          150.3325,
          -27.99861
        ]
      }
    },
    {
      "type": "Feature",
      "properties": {
        "iteration": 5,
        "reference_number": "48754",
        "place_name": "Miallo",
        "lga_name": "Douglas Shire",
        "sequence": 4
      },
      "geometry": {
        "type": "Point",
        "coordinates": [
          145.36833,
          -16.40556
        ]
      }
    }
  ]
}