{
  "type": "FeatureCollection",
  "features": [
    {
      "type": "Feature",
      "properties": {
        "name": "Bounded locality route 1",
        "iteration": 1,
        "point_count": 6,
        "order": [
          "Yalboroo",
          "Bakers Creek",
          "Mount Mackay",
          "Monsildale",
          "Cabarlah",
          "Mount Kynoch"
        ],
        "stroke": "#e6194b",
        "stroke-width": 2,
        "stroke-opacity": 1
      },
      "geometry": {
        "type": "LineString",
        "coordinates": [
          [
            148.66333,
            -20.82889
          ],
          [
            149.15667,
            -21.21444
          ],
          [
            145.99889,
            -17.93722
          ],
          [
            152.30944,
            -26.77333
          ],
          [
            151.99556,
            -27.43611
          ],
          [
            151.94805715,
            -27.51028072
          ]
        ]
      }
    },
    {
      "type": "Feature",
      "properties": {
        "iteration": 1,
        "reference_number": "46848",
        "place_name": "Yalboroo",
        "lga_name": "Mackay Regional",
        "sequence": 1,
        "marker-color": "#e6194b"
      },
      "geometry": {
        "type": "Point",
        "coordinates": [
          148.66333,
          -20.82889
        ]
      }
    },
    {
      "type": "Feature",
      "properties": {
        "iteration": 1,
        "reference_number": "46756",
        "place_name": "Bakers Creek",
        "lga_name": "Mackay Regional",
        "sequence": 2,
        "marker-color": "#e6194b"
      },
      "geometry": {
        "type": "Point",
        "coordinates": [
          149.15667,
          -21.21444
        ]
      }
    },
    {
      "type": "Feature",
      "properties": {
        "iteration": 1,
        "reference_number": "45734",
        "place_name": "Mount Mackay",
        "lga_name": "Cassowary Coast Regional",
        "sequence": 3,
        "marker-color": "#e6194b"
      },
      "geometry": {
        "type": "Point",
        "coordinates": [
          145.99889,
          -17.93722
        ]
      }
    },
    {
      "type": "Feature",
      "properties": {
        "iteration": 1,
        "reference_number": "47623",
        "place_name": "Monsildale",
        "lga_name": "Somerset Regional",
        "sequence": 4,
        "marker-color": "#e6194b"
      },
      "geometry": {
        "type": "Point",
        "coordinates": [
          152.30944,
          -26.77333
        ]
      }
    },
    {
      "type": "Feature",
      "properties": {
        "iteration": 1,
        "reference_number": "49267",
        "place_name": "Cabarlah",
        "lga_name": "Toowoomba Regional",
        "sequence": 5,
        "marker-color": "#e6194b"
      },
      "geometry": {
        "type": "Point",
        "coordinates": [
          151.99556,
          -27.43611
        ]
      }
    },
    {
      "type": "Feature",
      "properties": {
        "iteration": 1,
        "reference_number": "52629",
        "place_name": "Mount Kynoch",
        "lga_name": "Toowoomba Regional",
        "sequence": 6,
        "marker-color": "#e6194b"
      },
      "geometry": {
        "type": "Point",
        "coordinates": [
          151.94805715,
          -27.51028072
        ]
      }
    },
    {
      "type": "Feature",
      "properties": {
        "name": "Bounded locality route 2",
        "iteration": 2,
        "point_count": 5,
        "order": [
          "Kagaru (Scenic Rim Regional)",
          "Pechey",
          "Melawondi",
          "Tuckerang",
          "Halifax"
        ],
        "stroke": "#3cb44b",
        "stroke-width": 2,
        "stroke-opacity": 1
      },
      "geometry": {
        "type": "LineString",
        "coordinates": [
          [
            152.90972,
            -27.86361
          ],
          [
            152.05111,
            -27.31333
          ],
          [
            152.6625,
            -26.41389
          ],
          [
            150.98278,
            -26.79444
          ],
          [
            146.31778,
            -18.58278
          ]
        ]
      }
    },
    {
      "type": "Feature",
      "properties": {
        "iteration": 2,
        "reference_number": "45150",
        "place_name": "Kagaru (Scenic Rim Regional)",
        "lga_name": "Scenic Rim Regional",
        "sequence": 1,
        "marker-color": "#3cb44b"
      },
      "geometry": {
        "type": "Point",
        "coordinates": [
          152.90972,
          -27.86361
        ]
      }
    },
    {
      "type": "Feature",
      "properties": {
        "iteration": 2,
        "reference_number": "48034",
        "place_name": "Pechey",
        "lga_name": "Toowoomba Regional",
        "sequence": 2,
        "marker-color": "#3cb44b"
      },
      "geometry": {
        "type": "Point",
        "coordinates": [
          152.05111,
          -27.31333
        ]
      }
    },
    {
      "type": "Feature",
      "properties": {
        "iteration": 2,
        "reference_number": "46360",
        "place_name": "Melawondi",
        "lga_name": "Gympie Regional",
        "sequence": 3,
        "marker-color": "#3cb44b"
      },
      "geometry": {
        "type": "Point",
        "coordinates": [
          152.6625,
          -26.41389
        ]
      }
    },
    {
      "type": "Feature",
      "properties": {
        "iteration": 2,
        "reference_number": "47752",
        "place_name": "Tuckerang",
        "lga_name": "Western Downs Regional",
        "sequence": 4,
        "marker-color": "#3cb44b"
      },
      "geometry": {
        "type": "Point",
        "coordinates": [
          150.98278,
          -26.79444
        ]
      }
    },
    {
      "type": "Feature",
      "properties": {
        "iteration": 2,
        "reference_number": "42518",
        "place_name": "Halifax",
        "lga_name": "Hinchinbrook Shire",
        "sequence": 5,
        "marker-color": "#3cb44b"
      },
      "geometry": {
        "type": "Point",
        "coordinates": [
          146.31778,
          -18.58278
        ]
      }
    },
    {
      "type": "Feature",
      "properties": {
        "name": "Bounded locality route 3",
        "iteration": 3,
        "point_count": 5,
        "order": [
          "Stewart Creek Valley",
          "Bluff",
          "Kapaldo",
          "Cattle Creek (Toowoomba Regional)",
          "Budgee"
        ],
        "stroke": "#4363d8",
        "stroke-width": 2,
        "stroke-opacity": 1
      },
      "geometry": {
        "type": "LineString",
        "coordinates": [
          [
            145.30611,
            -16.29111
          ],
          [
            149.05667,
            -23.49444
          ],
          [
            151.14278,
            -25.06222
          ],
          [
            150.8,
            -27.66667
          ],
          [
            152.01778,
            -27.78194
          ]
        ]
      }
    },
    {
      "type": "Feature",
      "properties": {
        "iteration": 3,
        "reference_number": "48879",
        "place_name": "Stewart Creek Valley",
        "lga_name": "Douglas Shire",
        "sequence": 1,
        "marker-color": "#4363d8"
      },
      "geometry": {
        "type": "Point",
        "coordinates": [
          145.30611,
          -16.29111
        ]
      }
    },
    {
      "type": "Feature",
      "properties": {
        "iteration": 3,
        "reference_number": "46919",
        "place_name": "Bluff",
        "lga_name": "Central Highlands Regional",
        "sequence": 2,
        "marker-color": "#4363d8"
      },
      "geometry": {
        "type": "Point",
        "coordinates": [
          149.05667,
          -23.49444
        ]
      }
    },
    {
      "type": "Feature",
      "properties": {
        "iteration": 3,
        "reference_number": "45378",
        "place_name": "Kapaldo",
        "lga_name": "North Burnett Regional",
        "sequence": 3,
        "marker-color": "#4363d8"
      },
      "geometry": {
        "type": "Point",
        "coordinates": [
          151.14278,
          -25.06222
        ]
      }
    },
    {
      "type": "Feature",
      "properties": {
        "iteration": 3,
        "reference_number": "47907",
        "place_name": "Cattle Creek (Toowoomba Regional)",
        "lga_name": "Toowoomba Regional",
        "sequence": 4,
        "marker-color": "#4363d8"
      },
      "geometry": {
        "type": "Point",
        "coordinates": [
          150.8,
          -27.66667
        ]
      }
    },
    {
      "type": "Feature",
      "properties": {
        "iteration": 3,
        "reference_number": "52166",
        "place_name": "Budgee",
        "lga_name": "Toowoomba Regional",
        "sequence": 5,
        "marker-color": "#4363d8"
      },
      "geometry": {
        "type": "Point",
        "coordinates": [
          152.01778,
          -27.78194
        ]
      }
    },
    {
      "type": "Feature",
      "properties": {
        "name": "Bounded locality route 4",
        "iteration": 4,
        "point_count": 3,
        "order": [
          "Monto",
          "Wamuran Basin",
          "Rodgers Creek"
        ],
        "stroke": "#f58231",
        "stroke-width": 2,
        "stroke-opacity": 1
      },
      "geometry": {
        "type": "LineString",
        "coordinates": [
          [
            151.11222,
            -24.84556
          ],
          [
            152.82278,
            -27.04917
          ],
          [
            151.83389,
            -28.22528
          ]
        ]
      }
    },
    {
      "type": "Feature",
      "properties": {
        "iteration": 4,
        "reference_number": "45391",
        "place_name": "Monto",
        "lga_name": "North Burnett Regional",
        "sequence": 1,
        "marker-color": "#f58231"
      },
      "geometry": {
        "type": "Point",
        "coordinates": [
          151.11222,
          -24.84556
        ]
      }
    },
    {
      "type": "Feature",
      "properties": {
        "iteration": 4,
        "reference_number": "45475",
        "place_name": "Wamuran Basin",
        "lga_name": "Moreton Bay City",
        "sequence": 2,
        "marker-color": "#f58231"
      },
      "geometry": {
        "type": "Point",
        "coordinates": [
          152.82278,
          -27.04917
        ]
      }
    },
    {
      "type": "Feature",
      "properties": {
        "iteration": 4,
        "reference_number": "45970",
        "place_name": "Rodgers Creek",
        "lga_name": "Southern Downs Regional",
        "sequence": 3,
        "marker-color": "#f58231"
      },
      "geometry": {
        "type": "Point",
        "coordinates": [
          151.83389,
          -28.22528
        ]
      }
    },
    {
      "type": "Feature",
      "properties": {
        "name": "Bounded locality route 5",
        "iteration": 5,
        "point_count": 4,
        "order": [
          "Coppabella",
          "Marian",
          "Top Camp",
          "The Bluff (Ipswich City)"
        ],
        "stroke": "#911eb4",
        "stroke-width": 2,
        "stroke-opacity": 1
      },
      "geometry": {
        "type": "LineString",
        "coordinates": [
          [
            148.27444,
            -21.94083
          ],
          [
            148.95139,
            -21.17028
          ],
          [
            151.93444,
            -27.63194
          ],
          [
            152.53417,
            -27.615
          ]
        ]
      }
    },
    {
      "type": "Feature",
      "properties": {
        "iteration": 5,
        "reference_number": "47011",
        "place_name": "Coppabella",
        "lga_name": "Isaac Regional",
        "sequence": 1,
        "marker-color": "#911eb4"
      },
      "geometry": {
        "type": "Point",
        "coordinates": [
          148.27444,
          -21.94083
        ]
      }
    },
    {
      "type": "Feature",
      "properties": {
        "iteration": 5,
        "reference_number": "52137",
        "place_name": "Marian",
        "lga_name": "Mackay Regional",
        "sequence": 2,
        "marker-color": "#911eb4"
      },
      "geometry": {
        "type": "Point",
        "coordinates": [
          148.95139,
          -21.17028
        ]
      }
    },
    {
      "type": "Feature",
      "properties": {
        "iteration": 5,
        "reference_number": "49264",
        "place_name": "Top Camp",
        "lga_name": "Toowoomba Regional",
        "sequence": 3,
        "marker-color": "#911eb4"
      },
      "geometry": {
        "type": "Point",
        "coordinates": [
          151.93444,
          -27.63194
        ]
      }
    },
    {
      "type": "Feature",
      "properties": {
        "iteration": 5,
        "reference_number": "45219",
        "place_name": "The Bluff (Ipswich City)",
        "lga_name": "Ipswich City",
        "sequence": 4,
        "marker-color": "#911eb4"
      },
      "geometry": {
        "type": "Point",
        "coordinates": [
          152.53417,
          -27.615
        ]
      }
    }
  ]
}