{
  "type": "FeatureCollection",
  "features": [
    {
      "type": "Feature",
      "properties": {
        "name": "Bounded locality route 1",
        "iteration": 1,
        "point_count": 3,
        "order": [
          "Ceratodus",
          "Boyne Island",
          "Flinton"
        ]
      },
      "geometry": {
        "type": "LineString",
        "coordinates": [
          [
            151.11083,
            -25.26917
          ],
          [
            151.32139,
            -23.93361
          ],
          [
            149.5775,
            -27.85361
          ]
        ]
      }
    },
    {
      "type": "Feature",
      "properties": {
        "iteration": 1,
        "reference_number": "45330",
        "place_name": "Ceratodus",
        "lga_name": "North Burnett Regional",
        "sequence": 1
      },
      "geometry": {
        "type": "Point",
        "coordinates": [
          151.11083,
          -25.26917
        ]
      }
    },
    {
      "type": "Feature",
      "properties": {
        "iteration": 1,
        "reference_number": "49334",
        "place_name": "Boyne Island",
        "lga_name": "Gladstone Regional",
        "sequence": 2
      },
      "geometry": {
        "type": "Point",
        "coordinates": [
          151.32139,
          -23.93361
        ]
      }
    },
    {
      "type": "Feature",
      "properties": {
        "iteration": 1,
        "reference_number": "50014",
        "place_name": "Flinton",
        "lga_name": "Western Downs Regional",
        "sequence": 3
      },
      "geometry": {
        "type": "Point",
        "coordinates": [
          149.5775,
          -27.85361
        ]
      }
    },
    {
      "type": "Feature",
      "properties": {
        "name": "Bounded locality route 2",
        "iteration": 2,
        "point_count": 4,
        "order": [
          "Keysland",
          "Deep Creek",
          "Dutton River",
          "Fishery Falls"
        ]
      },
      "geometry": {
        "type": "LineString",
        "coordinates": [
          [
            151.74278,
            -26.21361
          ],
          [
            151.47611,
            -25.65389
          ],
          [
            143.94222,
            -20.38361
          ],
          [
            145.89083,
            -17.18639
          ]
        ]
      }
    },
    {
      "type": "Feature",
      "properties": {
        "iteration": 2,
        "reference_number": "46231",
        "place_name": "Keysland",
        "lga_name": "South Burnett Regional",
        "sequence": 1
      },
      "geometry": {
        "type": "Point",
        "coordinates": [
          151.74278,
          -26.21361
        ]
      }
    },
    {
      "type": "Feature",
      "properties": {
        "iteration": 2,
        "reference_number": "45339",
        "place_name": "Deep Creek",
        "lga_name": "North Burnett Regional",
        "sequence": 2
      },
      "geometry": {
        "type": "Point",
        "coordinates": [
          151.47611,
          -25.65389
        ]
      }
    },
    {
      "type": "Feature",
      "properties": {
        "iteration": 2,
        "reference_number": "52094",
        "place_name": "Dutton River",
        "lga_name": "Flinders Shire",
        "sequence": 3
      },
      "geometry": {
        "type": "Point",
        "coordinates": [
          143.94222,
          -20.38361
        ]
      }
    },
    {
      "type": "Feature",
      "properties": {
        "iteration": 2,
        "reference_number": "48634",
        "place_name": "Fishery Falls",
        "lga_name": "Cairns Regional",
        "sequence": 4
      },
      "geometry": {
        "type": "Point",
        "coordinates": [
          145.89083,
          -17.18639
        ]
      }
    },
    {
      "type": "Feature",
      "properties": {
        "name": "Bounded locality route 3",
        "iteration": 3,
        "point_count": 6,
        "order": [
          "Bloomfield (Cook Shire)",
          "Comoon Loop",
          "Mapoon (Cook Shire)",
          "Coominglah",
          "The Limits",
          "Maidenhead"
        ]
      },
      "geometry": {
        "type": "LineString",
        "coordinates": [
          [
            145.32806,
            -15.85222
          ],
          [
            146.03417,
            -17.56556
          ],
          [
            142.24306,
            -11.84778
          ],
          [
            150.85389,
            -24.77056
          ],
          [
            151.66778,
            -25.67472
          ],
          [
            151.385,
            -29.11944
          ]
        ]
      }
    },
    {
      "type": "Feature",
      "properties": {
        "iteration": 3,
        "reference_number": "46122",
        "place_name": "Bloomfield (Cook Shire)",
        "lga_name": "Cook Shire",
        "sequence": 1
      },
      "geometry": {
        "type": "Point",
        "coordinates": [
          145.32806,
          -15.85222
        ]
      }
    },
    {
      "type": "Feature",
      "properties": {
        "iteration": 3,
        "reference_number": "45683",
        "place_name": "Comoon Loop",
        "lga_name": "Cassowary Coast Regional",
        "sequence": 2
      },
      "geometry": {
        "type": "Point",
        "coordinates": [
          146.03417,
          -17.56556
        ]
      }
    },
    {
      "type": "Feature",
      "properties": {
        "iteration": 3,
        "reference_number": "46135",
        "place_name": "Mapoon (Cook Shire)",
        "lga_name": "Cook Shire",
        "sequence": 3
      },
      "geometry": {
        "type": "Point",
        "coordinates": [
          142.24306,
          -11.84778
        ]
      }
    },
    {
      "type": "Feature",
      "properties": {
        "iteration": 3,
        "reference_number": "45333",
        "place_name": "Coominglah",
        "lga_name": "North Burnett Regional",
        "sequence": 4
      },
      "geometry": {
        "type": "Point",
        "coordinates": [
          150.85389,
          -24.77056
        ]
      }
    },
    {
      "type": "Feature",
      "properties": {
        "iteration": 3,
        "reference_number": "45418",
        "place_name": "The Limits",
        "lga_name": "North Burnett Regional",
        "sequence": 5
      },
      "geometry": {
        "type": "Point",
        "coordinates": [
          151.66778,
          -25.67472
        ]
      }
    },
    {
      "type": "Feature",
      "properties": {
        "iteration": 3,
        "reference_number": "47819",
        "place_name": "Maidenhead",
        "lga_name": "Goondiwindi Regional",
        "sequence": 6
      },
      "geometry": {
        "type": "Point",
        "coordinates": [
          151.385,
          -29.11944
        ]
      }
    },
    {
      "type": "Feature",
      "properties": {
        "name": "Bounded locality route 4",
        "iteration": 4,
        "point_count": 4,
        "order": [
          "Toolburra",
          "Gowrie Little Plain",
          "Bollier",
          "Macknade"
        ]
      },
      "geometry": {
        "type": "LineString",
        "coordinates": [
          [
            151.965,
            -28.16583
          ],
          [
            151.84583,
            -27.43083
          ],
          [
            152.73056,
            -26.45833
          ],
          [
            146.25222,
            -18.54028
          ]
        ]
      }
    },
    {
      "type": "Feature",
      "properties": {
        "iteration": 4,
        "reference_number": "45995",
        "place_name": "Toolburra",
        "lga_name": "Southern Downs Regional",
        "sequence": 1
      },
      "geometry": {
        "type": "Point",
        "coordinates": [
          151.965,
          -28.16583
        ]
      }
    },
    {
      "type": "Feature",
      "properties": {
        "iteration": 4,
        "reference_number": "47954",
        "place_name": "Gowrie Little Plain",
        "lga_name": "Toowoomba Regional",
        "sequence": 2
      },
      "geometry": {
        "type": "Point",
        "coordinates": [
          151.84583,
          -27.43083
        ]
      }
    },
    {
      "type": "Feature",
      "properties": {
        "iteration": 4,
        "reference_number": "46307",
        "place_name": "Bollier",
        "lga_name": "Gympie Regional",
        "sequence": 3
      },
      "geometry": {
        "type": "Point",
        "coordinates": [
          152.73056,
          -26.45833
        ]
      }
    },
    {
      "type": "Feature",
      "properties": {
        "iteration": 4,
        "reference_number": "42522",
        "place_name": "Macknade",
        "lga_name": "Hinchinbrook Shire",
        "sequence": 4
      },
      "geometry": {
        "type": "Point",
        "coordinates": [
          146.25222,
          -18.54028
        ]
      }
    },
    {
      "type": "Feature",
      "properties": {
        "name": "Bounded locality route 5",
        "iteration": 5,
        "point_count": 3,
        "order": [
          "Woodbine",
          "Preston (Toowoomba Regional)",
          "Wilson Beach"
        ]
      },
      "geometry": {
        "type": "LineString",
        "coordinates": [
          [
            152.20639,
            -27.77778
          ],
          [
            151.96778,
            -27.66528
          ],
          [
            148.72361,
            -20.47056
          ]
        ]
      }
    },
    {
      "type": "Feature",
      "properties": {
        "iteration": 5,
        "reference_number": "45000",
        "place_name": "Woodbine",
        "lga_name": "Lockyer Valley Regional",
        "sequence": 1
      },
      "geometry": {
        "type": "Point",
        "coordinates": [
          152.20639,
          -27.77778
        ]
      }
    },
    {
      "type": "Feature",
      "properties": {
        "iteration": 5,
        "reference_number": "48042",
        "place_name": "Preston (Toowoomba Regional)",
        "lga_name": "Toowoomba Regional",
        "sequence": 2
      },
      "geometry": {
        "type": "Point",
        "coordinates": [
          151.96778,
          -27.66528
        ]
      }
    },
    {
      "type": "Feature",
      "properties": {
        "iteration": 5,
        "reference_number": "46905",
        "place_name": "Wilson Beach",
        "lga_name": "Whitsunday Regional",
        "sequence": 3
      },
      "geometry": {
        "type": "Point",
        "coordinates": [
          148.72361,
          -20.47056
        ]
      }
    }
  ]
}