{
  "type": "FeatureCollection",
  "features": [
    {
      "type": "Feature",
      "properties": {
        "name": "Bounded locality route 1",
        "iteration": 1,
        "point_count": 6,
        "order": [
          "Teebar",
          "Tinana",
          "Two Mile",
          "Eskdale",
          "Pratten",
          "Pine Creek"
        ]
      },
      "geometry": {
        "type": "LineString",
        "coordinates": [
          [
            152.20722,
            -25.65944
          ],
          [
            152.66944,
            -25.55556
          ],
          [
            152.63472,
            -26.17222
          ],
          [
            152.23444,
            -27.14861
          ],
          [
            151.74611,
            -28.09139
          ],
          [
            152.16889,
            -25.03389
          ]
        ]
      }
    },
    {
      "type": "Feature",
      "properties": {
        "iteration": 1,
        "reference_number": "46677",
        "place_name": "Teebar",
        "lga_name": "Fraser Coast Regional",
        "sequence": 1
      },
      "geometry": {
        "type": "Point",
        "coordinates": [
          152.20722,
          -25.65944
        ]
      }
    },
    {
      "type": "Feature",
      "properties": {
        "iteration": 1,
        "reference_number": "46736",
        "place_name": "Tinana",
        "lga_name": "Fraser Coast Regional",
        "sequence": 2
      },
      "geometry": {
        "type": "Point",
        "coordinates": [
          152.66944,
          -25.55556
        ]
      }
    },
    {
      "type": "Feature",
      "properties": {
        "iteration": 1,
        "reference_number": "46391",
        "place_name": "Two Mile",
        "lga_name": "Gympie Regional",
        "sequence": 3
      },
      "geometry": {
        "type": "Point",
        "coordinates": [
          152.63472,
          -26.17222
        ]
      }
    },
    {
      "type": "Feature",
      "properties": {
        "iteration": 1,
        "reference_number": "44865",
        "place_name": "Eskdale",
        "lga_name": "Somerset Regional",
        "sequence": 4
      },
      "geometry": {
        "type": "Point",
        "coordinates": [
          152.23444,
          -27.14861
        ]
      }
    },
    {
      "type": "Feature",
      "properties": {
        "iteration": 1,
        "reference_number": "45969",
        "place_name": "Pratten",
        "lga_name": "Southern Downs Regional",
        "sequence": 5
      },
      "geometry": {
        "type": "Point",
        "coordinates": [
          151.74611,
          -28.09139
        ]
      }
    },
    {
      "type": "Feature",
      "properties": {
        "iteration": 1,
        "reference_number": "44759",
        "place_name": "Pine Creek",
        "lga_name": "Bundaberg Regional",
        "sequence": 6
      },
      "geometry": {
        "type": "Point",
        "coordinates": [
          152.16889,
          -25.03389
        ]
      }
    },
    {
      "type": "Feature",
      "properties": {
        "name": "Bounded locality route 2",
        "iteration": 2,
        "point_count": 5,
        "order": [
          "Tansey",
          "Manumbar",
          "Cooyar",
          "Dalwogon",
          "Warrami"
        ]
      },
      "geometry": {
        "type": "LineString",
        "coordinates": [
          [
            152.09278,
            -25.99139
          ],
          [
            152.28444,
            -26.37333
          ],
          [
            151.83778,
            -26.9625
          ],
          [
            150.09056,
            -26.57472
          ],
          [
            145.79222,
            -18.04
          ]
        ]
      }
    },
    {
      "type": "Feature",
      "properties": {
        "iteration": 2,
        "reference_number": "46382",
        "place_name": "Tansey",
        "lga_name": "Gympie Regional",
        "sequence": 1
      },
      "geometry": {
        "type": "Point",
        "coordinates": [
          152.09278,
          -25.99139
        ]
      }
    },
    {
      "type": "Feature",
      "properties": {
        "iteration": 2,
        "reference_number": "46356",
        "place_name": "Manumbar",
        "lga_name": "Gympie Regional",
        "sequence": 2
      },
      "geometry": {
        "type": "Point",
        "coordinates": [
          152.28444,
          -26.37333
        ]
      }
    },
    {
      "type": "Feature",
      "properties": {
        "iteration": 2,
        "reference_number": "47918",
        "place_name": "Cooyar",
        "lga_name": "Toowoomba Regional",
        "sequence": 3
      },
      "geometry": {
        "type": "Point",
        "coordinates": [
          151.83778,
          -26.9625
        ]
      }
    },
    {
      "type": "Feature",
      "properties": {
        "iteration": 2,
        "reference_number": "47689",
        "place_name": "Dalwogon",
        "lga_name": "Western Downs Regional",
        "sequence": 4
      },
      "geometry": {
        "type": "Point",
        "coordinates": [
          150.09056,
          -26.57472
        ]
      }
    },
    {
      "type": "Feature",
      "properties": {
        "iteration": 2,
        "reference_number": "45772",
        "place_name": "Warrami",
        "lga_name": "Cassowary Coast Regional",
        "sequence": 5
      },
      "geometry": {
        "type": "Point",
        "coordinates": [
          145.79222,
          -18.04
        ]
      }
    },
    {
      "type": "Feature",
      "properties": {
        "name": "Bounded locality route 3",
        "iteration": 3,
        "point_count": 4,
        "order": [
          "Noosa North Shore",
          "Caboonbah",
          "Goldfields",
          "Stamford"
        ]
      },
      "geometry": {
        "type": "LineString",
        "coordinates": [
          [
            153.05111,
            -26.27333
          ],
          [
            152.47611,
            -27.14
          ],
          [
            151.70528,
            -28.47694
          ],
          [
            143.72806,
            -21.38306
          ]
        ]
      }
    },
    {
      "type": "Feature",
      "properties": {
        "iteration": 3,
        "reference_number": "48809",
        "place_name": "Noosa North Shore",
        "lga_name": "Noosa Shire",
        "sequence": 1
      },
      "geometry": {
        "type": "Point",
        "coordinates": [
          153.05111,
          -26.27333
        ]
      }
    },
    {
      "type": "Feature",
      "properties": {
        "iteration": 3,
        "reference_number": "44850",
        "place_name": "Caboonbah",
        "lga_name": "Somerset Regional",
        "sequence": 2
      },
      "geometry": {
        "type": "Point",
        "coordinates": [
          152.47611,
          -27.14
        ]
      }
    },
    {
      "type": "Feature",
      "properties": {
        "iteration": 3,
        "reference_number": "49590",
        "place_name": "Goldfields",
        "lga_name": "Southern Downs Regional",
        "sequence": 3
      },
      "geometry": {
        "type": "Point",
        "coordinates": [
          151.70528,
          -28.47694
        ]
      }
    },
    {
      "type": "Feature",
      "properties": {
        "iteration": 3,
        "reference_number": "52093",
        "place_name": "Stamford",
        "lga_name": "Flinders Shire",
        "sequence": 4
      },
      "geometry": {
        "type": "Point",
        "coordinates": [
          143.72806,
          -21.38306
        ]
      }
    },
    {
      "type": "Feature",
      "properties": {
        "name": "Bounded locality route 4",
        "iteration": 4,
        "point_count": 3,
        "order": [
          "Glenlogan",
          "North Branch (Toowoomba Regional)",
          "St Aubyn"
        ]
      },
      "geometry": {
        "type": "LineString",
        "coordinates": [
          [
            153.0025,
            -27.83417
          ],
          [
            151.62889,
            -27.85389
          ],
          [
            151.90556,
            -27.07444
          ]
        ]
      }
    },
    {
      "type": "Feature",
      "properties": {
        "iteration": 4,
        "reference_number": "50116",
        "place_name": "Glenlogan",
        "lga_name": "Logan City",
        "sequence": 1
      },
      "geometry": {
        "type": "Point",
        "coordinates": [
          153.0025,
          -27.83417
        ]
      }
    },
    {
      "type": "Feature",
      "properties": {
        "iteration": 4,
        "reference_number": "48026",
        "place_name": "North Branch (Toowoomba Regional)",
        "lga_name": "Toowoomba Regional",
        "sequence": 2
      },
      "geometry": {
        "type": "Point",
        "coordinates": [
          151.62889,
          -27.85389
        ]
      }
    },
    {
      "type": "Feature",
      "properties": {
        "iteration": 4,
        "reference_number": "48066",
        "place_name": "St Aubyn",
        "lga_name": "Toowoomba Regional",
        "sequence": 3
      },
      "geometry": {
        "type": "Point",
        "coordinates": [
          151.90556,
          -27.07444
        ]
      }
    },
    {
      "type": "Feature",
      "properties": {
        "name": "Bounded locality route 5",
        "iteration": 5,
        "point_count": 3,
        "order": [
          "Peak Vale (Isaac Regional)",
          "Curtis Island",
          "North Maclean"
        ]
      },
      "geometry": {
        "type": "LineString",
        "coordinates": [
          [
            147.38833,
            -23.07
          ],
          [
            151.15306,
            -23.61694
          ],
          [
            152.99778,
            -27.76639
          ]
        ]
      }
    },
    {
      "type": "Feature",
      "properties": {
        "iteration": 5,
        "reference_number": "52418",
        "place_name": "Peak Vale (Isaac Regional)",
        "lga_name": "Isaac Regional",
        "sequence": 1
      },
      "geometry": {
        "type": "Point",
        "coordinates": [
          147.38833,
          -23.07
        ]
      }
    },
    {
      "type": "Feature",
      "properties": {
        "iteration": 5,
        "reference_number": "47384",
        "place_name": "Curtis Island",
        "lga_name": "Gladstone Regional",
        "sequence": 2
      },
      "geometry": {
        "type": "Point",
        "coordinates": [
          151.15306,
          -23.61694
        ]
      }
    },
    {
      "type": "Feature",
      "properties": {
        "iteration": 5,
        "reference_number": "48339",
        "place_name": "North Maclean",
        "lga_name": "Logan City",
        "sequence": 3
      },
      "geometry": {
        "type": "Point",
        "coordinates": [
          152.99778,
          -27.76639
        ]
      }
    }
  ]
}