{
  "type": "FeatureCollection",
  "features": [
    {
      "type": "Feature",
      "properties": {
        "name": "Bounded locality route 1",
        "iteration": 1,
        "point_count": 3,
        "order": [
          "Gympie",
          "Linthorpe",
          "Ilfracombe"
        ]
      },
      "geometry": {
        "type": "LineString",
        "coordinates": [
          [
            152.66806,
            -26.18611
          ],
          [
            151.65556,
            -27.57111
          ],
          [
            144.54611,
            -23.66028
          ]
        ]
      }
    },
    {
      "type": "Feature",
      "properties": {
        "iteration": 1,
        "reference_number": "50208",
        "place_name": "Gympie",
        "lga_name": "Gympie Regional",
        "sequence": 1
      },
      "geometry": {
        "type": "Point",
        "coordinates": [
          152.66806,
          -26.18611
        ]
      }
    },
    {
      "type": "Feature",
      "properties": {
        "iteration": 1,
        "reference_number": "49193",
        "place_name": "Linthorpe",
        "lga_name": "Toowoomba Regional",
        "sequence": 2
      },
      "geometry": {
        "type": "Point",
        "coordinates": [
          151.65556,
          -27.57111
        ]
      }
    },
    {
      "type": "Feature",
      "properties": {
        "iteration": 1,
        "reference_number": "52314",
        "place_name": "Ilfracombe",
        "lga_name": "Longreach Regional",
        "sequence": 3
      },
      "geometry": {
        "type": "Point",
        "coordinates": [
          144.54611,
          -23.66028
        ]
      }
    },
    {
      "type": "Feature",
      "properties": {
        "name": "Bounded locality route 2",
        "iteration": 2,
        "point_count": 4,
        "order": [
          "Dunmora",
          "Widgee Crossing North",
          "Coolana",
          "Calen"
        ]
      },
      "geometry": {
        "type": "LineString",
        "coordinates": [
          [
            152.54972,
            -25.50389
          ],
          [
            152.62472,
            -26.18444
          ],
          [
            152.55111,
            -27.51528
          ],
          [
            148.72444,
            -20.895
          ]
        ]
      }
    },
    {
      "type": "Feature",
      "properties": {
        "iteration": 2,
        "reference_number": "46647",
        "place_name": "Dunmora",
        "lga_name": "Fraser Coast Regional",
        "sequence": 1
      },
      "geometry": {
        "type": "Point",
        "coordinates": [
          152.54972,
          -25.50389
        ]
      }
    },
    {
      "type": "Feature",
      "properties": {
        "iteration": 2,
        "reference_number": "46398",
        "place_name": "Widgee Crossing North",
        "lga_name": "Gympie Regional",
        "sequence": 2
      },
      "geometry": {
        "type": "Point",
        "coordinates": [
          152.62472,
          -26.18444
        ]
      }
    },
    {
      "type": "Feature",
      "properties": {
        "iteration": 2,
        "reference_number": "44858",
        "place_name": "Coolana",
        "lga_name": "Somerset Regional",
        "sequence": 3
      },
      "geometry": {
        "type": "Point",
        "coordinates": [
          152.55111,
          -27.51528
        ]
      }
    },
    {
      "type": "Feature",
      "properties": {
        "iteration": 2,
        "reference_number": "46767",
        "place_name": "Calen",
        "lga_name": "Mackay Regional",
        "sequence": 4
      },
      "geometry": {
        "type": "Point",
        "coordinates": [
          148.72444,
          -20.895
        ]
      }
    },
    {
      "type": "Feature",
      "properties": {
        "name": "Bounded locality route 3",
        "iteration": 3,
        "point_count": 6,
        "order": [
          "Walkerston",
          "Mount Maria",
          "Tabragalba",
          "Watsons Crossing",
          "Cowley Creek",
          "Glen Allyn"
        ]
      },
      "geometry": {
        "type": "LineString",
        "coordinates": [
          [
            149.06194,
            -21.15917
          ],
          [
            151.825,
            -24.54167
          ],
          [
            153.06639,
            -27.99194
          ],
          [
            151.32556,
            -29.1125
          ],
          [
            146.03278,
            -17.69583
          ],
          [
            145.66083,
            -17.37833
          ]
        ]
      }
    },
    {
      "type": "Feature",
      "properties": {
        "iteration": 3,
        "reference_number": "46846",
        "place_name": "Walkerston",
        "lga_name": "Mackay Regional",
        "sequence": 1
      },
      "geometry": {
        "type": "Point",
        "coordinates": [
          149.06194,
          -21.15917
        ]
      }
    },
    {
      "type": "Feature",
      "properties": {
        "iteration": 3,
        "reference_number": "46615",
        "place_name": "Mount Maria",
        "lga_name": "Gladstone Regional",
        "sequence": 2
      },
      "geometry": {
        "type": "Point",
        "coordinates": [
          151.825,
          -24.54167
        ]
      }
    },
    {
      "type": "Feature",
      "properties": {
        "iteration": 3,
        "reference_number": "45190",
        "place_name": "Tabragalba",
        "lga_name": "Scenic Rim Regional",
        "sequence": 3
      },
      "geometry": {
        "type": "Point",
        "coordinates": [
          153.06639,
          -27.99194
        ]
      }
    },
    {
      "type": "Feature",
      "properties": {
        "iteration": 3,
        "reference_number": "47835",
        "place_name": "Watsons Crossing",
        "lga_name": "Goondiwindi Regional",
        "sequence": 4
      },
      "geometry": {
        "type": "Point",
        "coordinates": [
          151.32556,
          -29.1125
        ]
      }
    },
    {
      "type": "Feature",
      "properties": {
        "iteration": 3,
        "reference_number": "47866",
        "place_name": "Cowley Creek",
        "lga_name": "Cassowary Coast Regional",
        "sequence": 5
      },
      "geometry": {
        "type": "Point",
        "coordinates": [
          146.03278,
          -17.69583
        ]
      }
    },
    {
      "type": "Feature",
      "properties": {
        "iteration": 3,
        "reference_number": "48649",
        "place_name": "Glen Allyn",
        "lga_name": "Tablelands Regional",
        "sequence": 6
      },
      "geometry": {
        "type": "Point",
        "coordinates": [
          145.66083,
          -17.37833
        ]
      }
    },
    {
      "type": "Feature",
      "properties": {
        "name": "Bounded locality route 4",
        "iteration": 4,
        "point_count": 4,
        "order": [
          "Arcadia Valley",
          "Upper Dawson",
          "Muckadilla",
          "Captain Creek"
        ]
      },
      "geometry": {
        "type": "LineString",
        "coordinates": [
          [
            148.79556,
            -25.01528
          ],
          [
            148.62111,
            -25.39639
          ],
          [
            148.36806,
            -26.64583
          ],
          [
            151.77917,
            -24.28611
          ]
        ]
      }
    },
    {
      "type": "Feature",
      "properties": {
        "iteration": 4,
        "reference_number": "46909",
        "place_name": "Arcadia Valley",
        "lga_name": "Central Highlands Regional",
        "sequence": 1
      },
      "geometry": {
        "type": "Point",
        "coordinates": [
          148.79556,
          -25.01528
        ]
      }
    },
    {
      "type": "Feature",
      "properties": {
        "iteration": 4,
        "reference_number": "47459",
        "place_name": "Upper Dawson",
        "lga_name": "Maranoa Regional",
        "sequence": 2
      },
      "geometry": {
        "type": "Point",
        "coordinates": [
          148.62111,
          -25.39639
        ]
      }
    },
    {
      "type": "Feature",
      "properties": {
        "iteration": 4,
        "reference_number": "47442",
        "place_name": "Muckadilla",
        "lga_name": "Maranoa Regional",
        "sequence": 3
      },
      "geometry": {
        "type": "Point",
        "coordinates": [
          148.36806,
          -26.64583
        ]
      }
    },
    {
      "type": "Feature",
      "properties": {
        "iteration": 4,
        "reference_number": "46598",
        "place_name": "Captain Creek",
        "lga_name": "Gladstone Regional",
        "sequence": 4
      },
      "geometry": {
        "type": "Point",
        "coordinates": [
          151.77917,
          -24.28611
        ]
      }
    },
    {
      "type": "Feature",
      "properties": {
        "name": "Bounded locality route 5",
        "iteration": 5,
        "point_count": 4,
        "order": [
          "Garners Beach",
          "Sarina",
          "Poona",
          "Banya"
        ]
      },
      "geometry": {
        "type": "LineString",
        "coordinates": [
          [
            146.0975,
            -17.81583
          ],
          [
            149.16389,
            -21.44056
          ],
          [
            152.915,
            -25.71361
          ],
          [
            153.0413735,
            -26.83027119
          ]
        ]
      }
    },
    {
      "type": "Feature",
      "properties": {
        "iteration": 5,
        "reference_number": "45675",
        "place_name": "Garners Beach",
        "lga_name": "Cassowary Coast Regional",
        "sequence": 1
      },
      "geometry": {
        "type": "Point",
        "coordinates": [
          146.0975,
          -17.81583
        ]
      }
    },
    {
      "type": "Feature",
      "properties": {
        "iteration": 5,
        "reference_number": "49372",
        "place_name": "Sarina",
        "lga_name": "Mackay Regional",
        "sequence": 2
      },
      "geometry": {
        "type": "Point",
        "coordinates": [
          149.16389,
          -21.44056
        ]
      }
    },
    {
      "type": "Feature",
      "properties": {
        "iteration": 5,
        "reference_number": "46668",
        "place_name": "Poona",
        "lga_name": "Fraser Coast Regional",
        "sequence": 3
      },
      "geometry": {
        "type": "Point",
        "coordinates": [
          152.915,
          -25.71361
        ]
      }
    },
    {
      "type": "Feature",
      "properties": {
        "iteration": 5,
        "reference_number": "52676",
        "place_name": "Banya",
        "lga_name": "Sunshine Coast Regional",
        "sequence": 4
      },
      "geometry": {
        "type": "Point",
        "coordinates": [
          153.0413735,
          -26.83027119
        ]
      }
    }
  ]
}