{
  "type": "FeatureCollection",
  "features": [
    {
      "type": "Feature",
      "properties": {
        "name": "Bounded locality route 1",
        "iteration": 1,
        "point_count": 3,
        "order": [
          "Wainui",
          "Cement Mills",
          "Marmor"
        ],
        "stroke": "#e6194b",
        "stroke-width": 2,
        "stroke-opacity": 1
      },
      "geometry": {
        "type": "LineString",
        "coordinates": [
          [
            151.46056,
            -27.32944
          ],
          [
            151.57472,
            -28.37889
          ],
          [
            150.75806,
            -23.70278
          ]
        ]
      }
    },
    {
      "type": "Feature",
      "properties": {
        "iteration": 1,
        "reference_number": "48087",
        "place_name": "Wainui",
        "lga_name": "Toowoomba Regional",
        "sequence": 1,
        "marker-color": "#e6194b"
      },
      "geometry": {
        "type": "Point",
        "coordinates": [
          151.46056,
          -27.32944
        ]
      }
    },
    {
      "type": "Feature",
      "properties": {
        "iteration": 1,
        "reference_number": "49640",
        "place_name": "Cement Mills",
        "lga_name": "Goondiwindi Regional",
        "sequence": 2,
        "marker-color": "#e6194b"
      },
      "geometry": {
        "type": "Point",
        "coordinates": [
          151.57472,
          -28.37889
        ]
      }
    },
    {
      "type": "Feature",
      "properties": {
        "iteration": 1,
        "reference_number": "48748",
        "place_name": "Marmor",
        "lga_name": "Rockhampton Regional",
        "sequence": 3,
        "marker-color": "#e6194b"
      },
      "geometry": {
        "type": "Point",
        "coordinates": [
          150.75806,
          -23.70278
        ]
      }
    },
    {
      "type": "Feature",
      "properties": {
        "name": "Bounded locality route 2",
        "iteration": 2,
        "point_count": 3,
        "order": [
          "Mount Nathan",
          "Etna Creek",
          "North Johnstone"
        ],
        "stroke": "#3cb44b",
        "stroke-width": 2,
        "stroke-opacity": 1
      },
      "geometry": {
        "type": "LineString",
        "coordinates": [
          [
            153.2675,
            -27.9825
          ],
          [
            150.42222,
            -23.22889
          ],
          [
            145.66306,
            -17.33389
          ]
        ]
      }
    },
    {
      "type": "Feature",
      "properties": {
        "iteration": 2,
        "reference_number": "46066",
        "place_name": "Mount Nathan",
        "lga_name": "Gold Coast City",
        "sequence": 1,
        "marker-color": "#3cb44b"
      },
      "geometry": {
        "type": "Point",
        "coordinates": [
          153.2675,
          -27.9825
        ]
      }
    },
    {
      "type": "Feature",
      "properties": {
        "iteration": 2,
        "reference_number": "48625",
        "place_name": "Etna Creek",
        "lga_name": "Livingstone Shire",
        "sequence": 2,
        "marker-color": "#3cb44b"
      },
      "geometry": {
        "type": "Point",
        "coordinates": [
          150.42222,
          -23.22889
        ]
      }
    },
    {
      "type": "Feature",
      "properties": {
        "iteration": 2,
        "reference_number": "48813",
        "place_name": "North Johnstone",
        "lga_name": "Tablelands Regional",
        "sequence": 3,
        "marker-color": "#3cb44b"
      },
      "geometry": {
        "type": "Point",
        "coordinates": [
          145.66306,
          -17.33389
        ]
      }
    },
    {
      "type": "Feature",
      "properties": {
        "name": "Bounded locality route 3",
        "iteration": 3,
        "point_count": 5,
        "order": [
          "Woolooga",
          "Pickanjinnie",
          "Bollon",
          "Euramo",
          "Ngatjan (Cairns Regional)"
        ],
        "stroke": "#4363d8",
        "stroke-width": 2,
        "stroke-opacity": 1
      },
      "geometry": {
        "type": "LineString",
        "coordinates": [
          [
            152.38861,
            -26.02611
          ],
          [
            149.10278,
            -26.44167
          ],
          [
            147.31806,
            -28.26722
          ],
          [
            145.89611,
            -18.00444
          ],
          [
            145.91917,
            -17.47556
          ]
        ]
      }
    },
    {
      "type": "Feature",
      "properties": {
        "iteration": 3,
        "reference_number": "52338",
        "place_name": "Woolooga",
        "lga_name": "Gympie Regional",
        "sequence": 1,
        "marker-color": "#4363d8"
      },
      "geometry": {
        "type": "Point",
        "coordinates": [
          152.38861,
          -26.02611
        ]
      }
    },
    {
      "type": "Feature",
      "properties": {
        "iteration": 3,
        "reference_number": "49163",
        "place_name": "Pickanjinnie",
        "lga_name": "Maranoa Regional",
        "sequence": 2,
        "marker-color": "#4363d8"
      },
      "geometry": {
        "type": "Point",
        "coordinates": [
          149.10278,
          -26.44167
        ]
      }
    },
    {
      "type": "Feature",
      "properties": {
        "iteration": 3,
        "reference_number": "42679",
        "place_name": "Bollon",
        "lga_name": "Balonne Shire",
        "sequence": 3,
        "marker-color": "#4363d8"
      },
      "geometry": {
        "type": "Point",
        "coordinates": [
          147.31806,
          -28.26722
        ]
      }
    },
    {
      "type": "Feature",
      "properties": {
        "iteration": 3,
        "reference_number": "45672",
        "place_name": "Euramo",
        "lga_name": "Cassowary Coast Regional",
        "sequence": 4,
        "marker-color": "#4363d8"
      },
      "geometry": {
        "type": "Point",
        "coordinates": [
          145.89611,
          -18.00444
        ]
      }
    },
    {
      "type": "Feature",
      "properties": {
        "iteration": 3,
        "reference_number": "48803",
        "place_name": "Ngatjan (Cairns Regional)",
        "lga_name": "Cairns Regional",
        "sequence": 5,
        "marker-color": "#4363d8"
      },
      "geometry": {
        "type": "Point",
        "coordinates": [
          145.91917,
          -17.47556
        ]
      }
    },
    {
      "type": "Feature",
      "properties": {
        "name": "Bounded locality route 4",
        "iteration": 4,
        "point_count": 5,
        "order": [
          "Lockrose (Somerset Regional)",
          "Preston (Toowoomba Regional)",
          "Amity",
          "Nahrunda",
          "Walhallow"
        ],
        "stroke": "#f58231",
        "stroke-width": 2,
        "stroke-opacity": 1
      },
      "geometry": {
        "type": "LineString",
        "coordinates": [
          [
            152.48444,
            -27.49
          ],
          [
            151.96778,
            -27.66528
          ],
          [
            153.44972,
            -27.39917
          ],
          [
            152.61944,
            -26.20694
          ],
          [
            148.25139,
            -26.34861
          ]
        ]
      }
    },
    {
      "type": "Feature",
      "properties": {
        "iteration": 4,
        "reference_number": "44883",
        "place_name": "Lockrose (Somerset Regional)",
        "lga_name": "Somerset Regional",
        "sequence": 1,
        "marker-color": "#f58231"
      },
      "geometry": {
        "type": "Point",
        "coordinates": [
          152.48444,
          -27.49
        ]
      }
    },
    {
      "type": "Feature",
      "properties": {
        "iteration": 4,
        "reference_number": "48042",
        "place_name": "Preston (Toowoomba Regional)",
        "lga_name": "Toowoomba Regional",
        "sequence": 2,
        "marker-color": "#f58231"
      },
      "geometry": {
        "type": "Point",
        "coordinates": [
          151.96778,
          -27.66528
        ]
      }
    },
    {
      "type": "Feature",
      "properties": {
        "iteration": 4,
        "reference_number": "43639",
        "place_name": "Amity",
        "lga_name": "Redland City",
        "sequence": 3,
        "marker-color": "#f58231"
      },
      "geometry": {
        "type": "Point",
        "coordinates": [
          153.44972,
          -27.39917
        ]
      }
    },
    {
      "type": "Feature",
      "properties": {
        "iteration": 4,
        "reference_number": "46368",
        "place_name": "Nahrunda",
        "lga_name": "Gympie Regional",
        "sequence": 4,
        "marker-color": "#f58231"
      },
      "geometry": {
        "type": "Point",
        "coordinates": [
          152.61944,
          -26.20694
        ]
      }
    },
    {
      "type": "Feature",
      "properties": {
        "iteration": 4,
        "reference_number": "47461",
        "place_name": "Walhallow",
        "lga_name": "Maranoa Regional",
        "sequence": 5,
        "marker-color": "#f58231"
      },
      "geometry": {
        "type": "Point",
        "coordinates": [
          148.25139,
          -26.34861
        ]
      }
    },
    {
      "type": "Feature",
      "properties": {
        "name": "Bounded locality route 5",
        "iteration": 5,
        "point_count": 4,
        "order": [
          "Chevallum",
          "Rangemore (Toowoomba Regional)",
          "Pine Hills",
          "Hodgson"
        ],
        "stroke": "#911eb4",
        "stroke-width": 2,
        "stroke-opacity": 1
      },
      "geometry": {
        "type": "LineString",
        "coordinates": [
          [
            152.99278,
            -26.69833
          ],
          [
            151.68028,
            -26.99556
          ],
          [
            149.94917,
            -26.89972
          ],
          [
            148.62944,
            -26.55806
          ]
        ]
      }
    },
    {
      "type": "Feature",
      "properties": {
        "iteration": 5,
        "reference_number": "50061",
        "place_name": "Chevallum",
        "lga_name": "Sunshine Coast Regional",
        "sequence": 1,
        "marker-color": "#911eb4"
      },
      "geometry": {
        "type": "Point",
        "coordinates": [
          152.99278,
          -26.69833
        ]
      }
    },
    {
      "type": "Feature",
      "properties": {
        "iteration": 5,
        "reference_number": "48048",
        "place_name": "Rangemore (Toowoomba Regional)",
        "lga_name": "Toowoomba Regional",
        "sequence": 2,
        "marker-color": "#911eb4"
      },
      "geometry": {
        "type": "Point",
        "coordinates": [
          151.68028,
          -26.99556
        ]
      }
    },
    {
      "type": "Feature",
      "properties": {
        "iteration": 5,
        "reference_number": "47738",
        "place_name": "Pine Hills",
        "lga_name": "Western Downs Regional",
        "sequence": 3,
        "marker-color": "#911eb4"
      },
      "geometry": {
        "type": "Point",
        "coordinates": [
          149.94917,
          -26.89972
        ]
      }
    },
    {
      "type": "Feature",
      "properties": {
        "iteration": 5,
        "reference_number": "47428",
        "place_name": "Hodgson",
        "lga_name": "Maranoa Regional",
        "sequence": 4,
        "marker-color": "#911eb4"
      },
      "geometry": {
        "type": "Point",
        "coordinates": [
          148.62944,
          -26.55806
        ]
      }
    }
  ]
}