{
  "type": "FeatureCollection",
  "features": [
    {
      "type": "Feature",
      "properties": {
        "name": "Bounded locality route 1",
        "iteration": 1,
        "point_count": 4,
        "order": [
          "Crowley Vale",
          "Laglan",
          "Albion (Richmond Shire)",
          "Dimbulah"
        ],
        "stroke": "#e6194b",
        "stroke-width": 2,
        "stroke-opacity": 1
      },
      "geometry": {
        "type": "LineString",
        "coordinates": [
          [
            152.3775,
            -27.54389
          ],
          [
            146.41972,
            -22.42611
          ],
          [
            142.62528,
            -21.33722
          ],
          [
            145.05778,
            -17.18111
          ]
        ]
      }
    },
    {
      "type": "Feature",
      "properties": {
        "iteration": 1,
        "reference_number": "44951",
        "place_name": "Crowley Vale",
        "lga_name": "Lockyer Valley Regional",
        "sequence": 1,
        "marker-color": "#e6194b"
      },
      "geometry": {
        "type": "Point",
        "coordinates": [
          152.3775,
          -27.54389
        ]
      }
    },
    {
      "type": "Feature",
      "properties": {
        "iteration": 1,
        "reference_number": "52308",
        "place_name": "Laglan",
        "lga_name": "Isaac Regional",
        "sequence": 2,
        "marker-color": "#e6194b"
      },
      "geometry": {
        "type": "Point",
        "coordinates": [
          146.41972,
          -22.42611
        ]
      }
    },
    {
      "type": "Feature",
      "properties": {
        "iteration": 1,
        "reference_number": "42351",
        "place_name": "Albion (Richmond Shire)",
        "lga_name": "Richmond Shire",
        "sequence": 3,
        "marker-color": "#e6194b"
      },
      "geometry": {
        "type": "Point",
        "coordinates": [
          142.62528,
          -21.33722
        ]
      }
    },
    {
      "type": "Feature",
      "properties": {
        "iteration": 1,
        "reference_number": "48608",
        "place_name": "Dimbulah",
        "lga_name": "Mareeba Shire",
        "sequence": 4,
        "marker-color": "#e6194b"
      },
      "geometry": {
        "type": "Point",
        "coordinates": [
          145.05778,
          -17.18111
        ]
      }
    },
    {
      "type": "Feature",
      "properties": {
        "name": "Bounded locality route 2",
        "iteration": 2,
        "point_count": 4,
        "order": [
          "Pindi Pindi",
          "Cambridge",
          "Jardine River (Torres Shire)",
          "Fletcher"
        ],
        "stroke": "#3cb44b",
        "stroke-width": 2,
        "stroke-opacity": 1
      },
      "geometry": {
        "type": "LineString",
        "coordinates": [
          [
            148.72222,
            -20.855
          ],
          [
            142.58528,
            -20.36806
          ],
          [
            142.58389,
            -10.9775
          ],
          [
            151.86972,
            -28.76861
          ]
        ]
      }
    },
    {
      "type": "Feature",
      "properties": {
        "iteration": 2,
        "reference_number": "46825",
        "place_name": "Pindi Pindi",
        "lga_name": "Mackay Regional",
        "sequence": 1,
        "marker-color": "#3cb44b"
      },
      "geometry": {
        "type": "Point",
        "coordinates": [
          148.72222,
          -20.855
        ]
      }
    },
    {
      "type": "Feature",
      "properties": {
        "iteration": 2,
        "reference_number": "42353",
        "place_name": "Cambridge",
        "lga_name": "Richmond Shire",
        "sequence": 2,
        "marker-color": "#3cb44b"
      },
      "geometry": {
        "type": "Point",
        "coordinates": [
          142.58528,
          -20.36806
        ]
      }
    },
    {
      "type": "Feature",
      "properties": {
        "iteration": 2,
        "reference_number": "41953",
        "place_name": "Jardine River (Torres Shire)",
        "lga_name": "Torres Shire",
        "sequence": 3,
        "marker-color": "#3cb44b"
      },
      "geometry": {
        "type": "Point",
        "coordinates": [
          142.58389,
          -10.9775
        ]
      }
    },
    {
      "type": "Feature",
      "properties": {
        "iteration": 2,
        "reference_number": "50287",
        "place_name": "Fletcher",
        "lga_name": "Southern Downs Regional",
        "sequence": 4,
        "marker-color": "#3cb44b"
      },
      "geometry": {
        "type": "Point",
        "coordinates": [
          151.86972,
          -28.76861
        ]
      }
    },
    {
      "type": "Feature",
      "properties": {
        "name": "Bounded locality route 3",
        "iteration": 3,
        "point_count": 6,
        "order": [
          "Jinghi",
          "Mooloolah Valley",
          "Tanawha",
          "Mentmore",
          "Dotswood",
          "Cardwell"
        ],
        "stroke": "#4363d8",
        "stroke-width": 2,
        "stroke-opacity": 1
      },
      "geometry": {
        "type": "LineString",
        "coordinates": [
          [
            151.10694,
            -26.64472
          ],
          [
            152.96333,
            -26.7625
          ],
          [
            153.03444,
            -26.71528
          ],
          [
            148.73833,
            -20.76333
          ],
          [
            146.22028,
            -19.56028
          ],
          [
            146.01667,
            -18.27194
          ]
        ]
      }
    },
    {
      "type": "Feature",
      "properties": {
        "iteration": 3,
        "reference_number": "47717",
        "place_name": "Jinghi",
        "lga_name": "Western Downs Regional",
        "sequence": 1,
        "marker-color": "#4363d8"
      },
      "geometry": {
        "type": "Point",
        "coordinates": [
          151.10694,
          -26.64472
        ]
      }
    },
    {
      "type": "Feature",
      "properties": {
        "iteration": 3,
        "reference_number": "48769",
        "place_name": "Mooloolah Valley",
        "lga_name": "Sunshine Coast Regional",
        "sequence": 2,
        "marker-color": "#4363d8"
      },
      "geometry": {
        "type": "Point",
        "coordinates": [
          152.96333,
          -26.7625
        ]
      }
    },
    {
      "type": "Feature",
      "properties": {
        "iteration": 3,
        "reference_number": "49239",
        "place_name": "Tanawha",
        "lga_name": "Sunshine Coast Regional",
        "sequence": 3,
        "marker-color": "#4363d8"
      },
      "geometry": {
        "type": "Point",
        "coordinates": [
          153.03444,
          -26.71528
        ]
      }
    },
    {
      "type": "Feature",
      "properties": {
        "iteration": 3,
        "reference_number": "46805",
        "place_name": "Mentmore",
        "lga_name": "Mackay Regional",
        "sequence": 4,
        "marker-color": "#4363d8"
      },
      "geometry": {
        "type": "Point",
        "coordinates": [
          148.73833,
          -20.76333
        ]
      }
    },
    {
      "type": "Feature",
      "properties": {
        "iteration": 3,
        "reference_number": "49746",
        "place_name": "Dotswood",
        "lga_name": "Charters Towers Regional",
        "sequence": 5,
        "marker-color": "#4363d8"
      },
      "geometry": {
        "type": "Point",
        "coordinates": [
          146.22028,
          -19.56028
        ]
      }
    },
    {
      "type": "Feature",
      "properties": {
        "iteration": 3,
        "reference_number": "45660",
        "place_name": "Cardwell",
        "lga_name": "Cassowary Coast Regional",
        "sequence": 6,
        "marker-color": "#4363d8"
      },
      "geometry": {
        "type": "Point",
        "coordinates": [
          146.01667,
          -18.27194
        ]
      }
    },
    {
      "type": "Feature",
      "properties": {
        "name": "Bounded locality route 4",
        "iteration": 4,
        "point_count": 5,
        "order": [
          "Nerada",
          "Diamondy",
          "Lower Mount Walker (Ipswich City)",
          "Mount Barney",
          "Cunnamulla"
        ],
        "stroke": "#f58231",
        "stroke-width": 2,
        "stroke-opacity": 1
      },
      "geometry": {
        "type": "LineString",
        "coordinates": [
          [
            145.87139,
            -17.54917
          ],
          [
            151.28417,
            -26.63278
          ],
          [
            152.52528,
            -27.71806
          ],
          [
            152.70778,
            -28.27778
          ],
          [
            145.72722,
            -28.11333
          ]
        ]
      }
    },
    {
      "type": "Feature",
      "properties": {
        "iteration": 4,
        "reference_number": "45741",
        "place_name": "Nerada",
        "lga_name": "Cassowary Coast Regional",
        "sequence": 1,
        "marker-color": "#f58231"
      },
      "geometry": {
        "type": "Point",
        "coordinates": [
          145.87139,
          -17.54917
        ]
      }
    },
    {
      "type": "Feature",
      "properties": {
        "iteration": 4,
        "reference_number": "47691",
        "place_name": "Diamondy",
        "lga_name": "Western Downs Regional",
        "sequence": 2,
        "marker-color": "#f58231"
      },
      "geometry": {
        "type": "Point",
        "coordinates": [
          151.28417,
          -26.63278
        ]
      }
    },
    {
      "type": "Feature",
      "properties": {
        "iteration": 4,
        "reference_number": "45096",
        "place_name": "Lower Mount Walker (Ipswich City)",
        "lga_name": "Ipswich City",
        "sequence": 3,
        "marker-color": "#f58231"
      },
      "geometry": {
        "type": "Point",
        "coordinates": [
          152.52528,
          -27.71806
        ]
      }
    },
    {
      "type": "Feature",
      "properties": {
        "iteration": 4,
        "reference_number": "45169",
        "place_name": "Mount Barney",
        "lga_name": "Scenic Rim Regional",
        "sequence": 4,
        "marker-color": "#f58231"
      },
      "geometry": {
        "type": "Point",
        "coordinates": [
          152.70778,
          -28.27778
        ]
      }
    },
    {
      "type": "Feature",
      "properties": {
        "iteration": 4,
        "reference_number": "49186",
        "place_name": "Cunnamulla",
        "lga_name": "Paroo Shire",
        "sequence": 5,
        "marker-color": "#f58231"
      },
      "geometry": {
        "type": "Point",
        "coordinates": [
          145.72722,
          -28.11333
        ]
      }
    },
    {
      "type": "Feature",
      "properties": {
        "name": "Bounded locality route 5",
        "iteration": 5,
        "point_count": 3,
        "order": [
          "Balcomba (Central Highlands Regional)",
          "Conway",
          "Laidley Heights"
        ],
        "stroke": "#911eb4",
        "stroke-width": 2,
        "stroke-opacity": 1
      },
      "geometry": {
        "type": "LineString",
        "coordinates": [
          [
            149.64333,
            -23.32361
          ],
          [
            148.71417,
            -20.45778
          ],
          [
            152.36889,
            -27.62917
          ]
        ]
      }
    },
    {
      "type": "Feature",
      "properties": {
        "iteration": 5,
        "reference_number": "46912",
        "place_name": "Balcomba (Central Highlands Regional)",
        "lga_name": "Central Highlands Regional",
        "sequence": 1,
        "marker-color": "#911eb4"
      },
      "geometry": {
        "type": "Point",
        "coordinates": [
          149.64333,
          -23.32361
        ]
      }
    },
    {
      "type": "Feature",
      "properties": {
        "iteration": 5,
        "reference_number": "46860",
        "place_name": "Conway",
        "lga_name": "Whitsunday Regional",
        "sequence": 2,
        "marker-color": "#911eb4"
      },
      "geometry": {
        "type": "Point",
        "coordinates": [
          148.71417,
          -20.45778
        ]
      }
    },
    {
      "type": "Feature",
      "properties": {
        "iteration": 5,
        "reference_number": "44966",
        "place_name": "Laidley Heights",
        "lga_name": "Lockyer Valley Regional",
        "sequence": 3,
        "marker-color": "#911eb4"
      },
      "geometry": {
        "type": "Point",
        "coordinates": [
          152.36889,
          -27.62917
        ]
      }
    }
  ]
}