{
  "type": "FeatureCollection",
  "features": [
    {
      "type": "Feature",
      "properties": {
        "name": "Bounded locality route 1",
        "iteration": 1,
        "point_count": 5,
        "order": [
          "Benholme",
          "Ilfracombe",
          "MP Creek",
          "Draper",
          "Doomadgee"
        ],
        "stroke": "#e6194b",
        "stroke-width": 2,
        "stroke-opacity": 1
      },
      "geometry": {
        "type": "LineString",
        "coordinates": [
          [
            148.80306,
            -21.16194
          ],
          [
            144.54611,
            -23.66028
          ],
          [
            151.7275,
            -26.28583
          ],
          [
            152.91694,
            -27.35806
          ],
          [
            138.74806,
            -17.69389
          ]
        ]
      }
    },
    {
      "type": "Feature",
      "properties": {
        "iteration": 1,
        "reference_number": "46762",
        "place_name": "Benholme",
        "lga_name": "Mackay Regional",
        "sequence": 1,
        "marker-color": "#e6194b"
      },
      "geometry": {
        "type": "Point",
        "coordinates": [
          148.80306,
          -21.16194
        ]
      }
    },
    {
      "type": "Feature",
      "properties": {
        "iteration": 1,
        "reference_number": "52314",
        "place_name": "Ilfracombe",
        "lga_name": "Longreach Regional",
        "sequence": 2,
        "marker-color": "#e6194b"
      },
      "geometry": {
        "type": "Point",
        "coordinates": [
          144.54611,
          -23.66028
        ]
      }
    },
    {
      "type": "Feature",
      "properties": {
        "iteration": 1,
        "reference_number": "46249",
        "place_name": "MP Creek",
        "lga_name": "South Burnett Regional",
        "sequence": 3,
        "marker-color": "#e6194b"
      },
      "geometry": {
        "type": "Point",
        "coordinates": [
          151.7275,
          -26.28583
        ]
      }
    },
    {
      "type": "Feature",
      "properties": {
        "iteration": 1,
        "reference_number": "45431",
        "place_name": "Draper",
        "lga_name": "Moreton Bay City",
        "sequence": 4,
        "marker-color": "#e6194b"
      },
      "geometry": {
        "type": "Point",
        "coordinates": [
          152.91694,
          -27.35806
        ]
      }
    },
    {
      "type": "Feature",
      "properties": {
        "iteration": 1,
        "reference_number": "45901",
        "place_name": "Doomadgee",
        "lga_name": "Doomadgee Aboriginal Shire",
        "sequence": 5,
        "marker-color": "#e6194b"
      },
      "geometry": {
        "type": "Point",
        "coordinates": [
          138.74806,
          -17.69389
        ]
      }
    },
    {
      "type": "Feature",
      "properties": {
        "name": "Bounded locality route 2",
        "iteration": 2,
        "point_count": 4,
        "order": [
          "Freestone",
          "Cannon Creek (Southern Downs Regional)",
          "Bryden",
          "Cannindah"
        ],
        "stroke": "#3cb44b",
        "stroke-width": 2,
        "stroke-opacity": 1
      },
      "geometry": {
        "type": "LineString",
        "coordinates": [
          [
            152.14528,
            -28.1325
          ],
          [
            151.87694,
            -28.60806
          ],
          [
            152.60111,
            -27.23194
          ],
          [
            151.21361,
            -24.87472
          ]
        ]
      }
    },
    {
      "type": "Feature",
      "properties": {
        "iteration": 2,
        "reference_number": "52182",
        "place_name": "Freestone",
        "lga_name": "Southern Downs Regional",
        "sequence": 1,
        "marker-color": "#3cb44b"
      },
      "geometry": {
        "type": "Point",
        "coordinates": [
          152.14528,
          -28.1325
        ]
      }
    },
    {
      "type": "Feature",
      "properties": {
        "iteration": 2,
        "reference_number": "45913",
        "place_name": "Cannon Creek (Southern Downs Regional)",
        "lga_name": "Southern Downs Regional",
        "sequence": 2,
        "marker-color": "#3cb44b"
      },
      "geometry": {
        "type": "Point",
        "coordinates": [
          151.87694,
          -28.60806
        ]
      }
    },
    {
      "type": "Feature",
      "properties": {
        "iteration": 2,
        "reference_number": "44847",
        "place_name": "Bryden",
        "lga_name": "Somerset Regional",
        "sequence": 3,
        "marker-color": "#3cb44b"
      },
      "geometry": {
        "type": "Point",
        "coordinates": [
          152.60111,
          -27.23194
        ]
      }
    },
    {
      "type": "Feature",
      "properties": {
        "iteration": 2,
        "reference_number": "45328",
        "place_name": "Cannindah",
        "lga_name": "North Burnett Regional",
        "sequence": 4,
        "marker-color": "#3cb44b"
      },
      "geometry": {
        "type": "Point",
        "coordinates": [
          151.21361,
          -24.87472
        ]
      }
    },
    {
      "type": "Feature",
      "properties": {
        "name": "Bounded locality route 3",
        "iteration": 3,
        "point_count": 4,
        "order": [
          "Foulden",
          "Yuruga",
          "Wutul",
          "Lyons"
        ],
        "stroke": "#4363d8",
        "stroke-width": 2,
        "stroke-opacity": 1
      },
      "geometry": {
        "type": "LineString",
        "coordinates": [
          [
            149.14694,
            -21.13972
          ],
          [
            146.11944,
            -18.85833
          ],
          [
            151.78889,
            -27.03111
          ],
          [
            152.86361,
            -27.77139
          ]
        ]
      }
    },
    {
      "type": "Feature",
      "properties": {
        "iteration": 3,
        "reference_number": "46786",
        "place_name": "Foulden",
        "lga_name": "Mackay Regional",
        "sequence": 1,
        "marker-color": "#4363d8"
      },
      "geometry": {
        "type": "Point",
        "coordinates": [
          149.14694,
          -21.13972
        ]
      }
    },
    {
      "type": "Feature",
      "properties": {
        "iteration": 3,
        "reference_number": "42533",
        "place_name": "Yuruga",
        "lga_name": "Hinchinbrook Shire",
        "sequence": 2,
        "marker-color": "#4363d8"
      },
      "geometry": {
        "type": "Point",
        "coordinates": [
          146.11944,
          -18.85833
        ]
      }
    },
    {
      "type": "Feature",
      "properties": {
        "iteration": 3,
        "reference_number": "48100",
        "place_name": "Wutul",
        "lga_name": "Toowoomba Regional",
        "sequence": 3,
        "marker-color": "#4363d8"
      },
      "geometry": {
        "type": "Point",
        "coordinates": [
          151.78889,
          -27.03111
        ]
      }
    },
    {
      "type": "Feature",
      "properties": {
        "iteration": 3,
        "reference_number": "45303",
        "place_name": "Lyons",
        "lga_name": "Logan City",
        "sequence": 4,
        "marker-color": "#4363d8"
      },
      "geometry": {
        "type": "Point",
        "coordinates": [
          152.86361,
          -27.77139
        ]
      }
    },
    {
      "type": "Feature",
      "properties": {
        "name": "Bounded locality route 4",
        "iteration": 4,
        "point_count": 3,
        "order": [
          "River Heads",
          "Wuruma Dam",
          "East Haldon"
        ],
        "stroke": "#f58231",
        "stroke-width": 2,
        "stroke-opacity": 1
      },
      "geometry": {
        "type": "LineString",
        "coordinates": [
          [
            152.90528,
            -25.40528
          ],
          [
            151.00111,
            -25.14
          ],
          [
            152.2875,
            -27.8925
          ]
        ]
      }
    },
    {
      "type": "Feature",
      "properties": {
        "iteration": 4,
        "reference_number": "46670",
        "place_name": "River Heads",
        "lga_name": "Fraser Coast Regional",
        "sequence": 1,
        "marker-color": "#f58231"
      },
      "geometry": {
        "type": "Point",
        "coordinates": [
          152.90528,
          -25.40528
        ]
      }
    },
    {
      "type": "Feature",
      "properties": {
        "iteration": 4,
        "reference_number": "45428",
        "place_name": "Wuruma Dam",
        "lga_name": "North Burnett Regional",
        "sequence": 2,
        "marker-color": "#f58231"
      },
      "geometry": {
        "type": "Point",
        "coordinates": [
          151.00111,
          -25.14
        ]
      }
    },
    {
      "type": "Feature",
      "properties": {
        "iteration": 4,
        "reference_number": "44952",
        "place_name": "East Haldon",
        "lga_name": "Lockyer Valley Regional",
        "sequence": 3,
        "marker-color": "#f58231"
      },
      "geometry": {
        "type": "Point",
        "coordinates": [
          152.2875,
          -27.8925
        ]
      }
    },
    {
      "type": "Feature",
      "properties": {
        "name": "Bounded locality route 5",
        "iteration": 5,
        "point_count": 5,
        "order": [
          "Cambroon",
          "Woondum",
          "Monogorilby",
          "Jackson North",
          "Braemeadows"
        ],
        "stroke": "#911eb4",
        "stroke-width": 2,
        "stroke-opacity": 1
      },
      "geometry": {
        "type": "LineString",
        "coordinates": [
          [
            152.67417,
            -26.64944
          ],
          [
            152.72917,
            -26.25417
          ],
          [
            151.04833,
            -25.99694
          ],
          [
            149.64722,
            -26.46111
          ],
          [
            146.2625,
            -18.64861
          ]
        ]
      }
    },
    {
      "type": "Feature",
      "properties": {
        "iteration": 5,
        "reference_number": "48558",
        "place_name": "Cambroon",
        "lga_name": "Sunshine Coast Regional",
        "sequence": 1,
        "marker-color": "#911eb4"
      },
      "geometry": {
        "type": "Point",
        "coordinates": [
          152.67417,
          -26.64944
        ]
      }
    },
    {
      "type": "Feature",
      "properties": {
        "iteration": 5,
        "reference_number": "46404",
        "place_name": "Woondum",
        "lga_name": "Gympie Regional",
        "sequence": 2,
        "marker-color": "#911eb4"
      },
      "geometry": {
        "type": "Point",
        "coordinates": [
          152.72917,
          -26.25417
        ]
      }
    },
    {
      "type": "Feature",
      "properties": {
        "iteration": 5,
        "reference_number": "45390",
        "place_name": "Monogorilby",
        "lga_name": "North Burnett Regional",
        "sequence": 3,
        "marker-color": "#911eb4"
      },
      "geometry": {
        "type": "Point",
        "coordinates": [
          151.04833,
          -25.99694
        ]
      }
    },
    {
      "type": "Feature",
      "properties": {
        "iteration": 5,
        "reference_number": "47432",
        "place_name": "Jackson North",
        "lga_name": "Maranoa Regional",
        "sequence": 4,
        "marker-color": "#911eb4"
      },
      "geometry": {
        "type": "Point",
        "coordinates": [
          149.64722,
          -26.46111
        ]
      }
    },
    {
      "type": "Feature",
      "properties": {
        "iteration": 5,
        "reference_number": "48286",
        "place_name": "Braemeadows",
        "lga_name": "Hinchinbrook Shire",
        "sequence": 5,
        "marker-color": "#911eb4"
      },
      "geometry": {
        "type": "Point",
        "coordinates": [
          146.2625,
          -18.64861
        ]
      }
    }
  ]
}