{
  "type": "FeatureCollection",
  "features": [
    {
      "type": "Feature",
      "properties": {
        "name": "Bounded locality route 1",
        "iteration": 1,
        "point_count": 5,
        "order": [
          "Callide",
          "Merlwood",
          "Callandoon",
          "Yuruga",
          "Macknade"
        ]
      },
      "geometry": {
        "type": "LineString",
        "coordinates": [
          [
            150.50861,
            -24.25889
          ],
          [
            151.88306,
            -26.14944
          ],
          [
            150.0925,
            -28.52778
          ],
          [
            146.11944,
            -18.85833
          ],
          [
            146.25222,
            -18.54028
          ]
        ]
      }
    },
    {
      "type": "Feature",
      "properties": {
        "iteration": 1,
        "reference_number": "49783",
        "place_name": "Callide",
        "lga_name": "Banana Shire",
        "sequence": 1
      },
      "geometry": {
        "type": "Point",
        "coordinates": [
          150.50861,
          -24.25889
        ]
      }
    },
    {
      "type": "Feature",
      "properties": {
        "iteration": 1,
        "reference_number": "46244",
        "place_name": "Merlwood",
        "lga_name": "South Burnett Regional",
        "sequence": 2
      },
      "geometry": {
        "type": "Point",
        "coordinates": [
          151.88306,
          -26.14944
        ]
      }
    },
    {
      "type": "Feature",
      "properties": {
        "iteration": 1,
        "reference_number": "47803",
        "place_name": "Callandoon",
        "lga_name": "Goondiwindi Regional",
        "sequence": 3
      },
      "geometry": {
        "type": "Point",
        "coordinates": [
          150.0925,
          -28.52778
        ]
      }
    },
    {
      "type": "Feature",
      "properties": {
        "iteration": 1,
        "reference_number": "42533",
        "place_name": "Yuruga",
        "lga_name": "Hinchinbrook Shire",
        "sequence": 4
      },
      "geometry": {
        "type": "Point",
        "coordinates": [
          146.11944,
          -18.85833
        ]
      }
    },
    {
      "type": "Feature",
      "properties": {
        "iteration": 1,
        "reference_number": "42522",
        "place_name": "Macknade",
        "lga_name": "Hinchinbrook Shire",
        "sequence": 5
      },
      "geometry": {
        "type": "Point",
        "coordinates": [
          146.25222,
          -18.54028
        ]
      }
    },
    {
      "type": "Feature",
      "properties": {
        "name": "Bounded locality route 2",
        "iteration": 2,
        "point_count": 5,
        "order": [
          "Moorland",
          "Isis River",
          "Silverleigh",
          "White Mountain",
          "Broken River"
        ]
      },
      "geometry": {
        "type": "LineString",
        "coordinates": [
          [
            152.2075,
            -24.76361
          ],
          [
            152.37611,
            -25.265
          ],
          [
            151.78083,
            -27.33333
          ],
          [
            152.11889,
            -27.44361
          ],
          [
            148.51,
            -21.16694
          ]
        ]
      }
    },
    {
      "type": "Feature",
      "properties": {
        "iteration": 2,
        "reference_number": "44750",
        "place_name": "Moorland",
        "lga_name": "Bundaberg Regional",
        "sequence": 1
      },
      "geometry": {
        "type": "Point",
        "coordinates": [
          152.2075,
          -24.76361
        ]
      }
    },
    {
      "type": "Feature",
      "properties": {
        "iteration": 2,
        "reference_number": "47137",
        "place_name": "Isis River",
        "lga_name": "Bundaberg Regional",
        "sequence": 2
      },
      "geometry": {
        "type": "Point",
        "coordinates": [
          152.37611,
          -25.265
        ]
      }
    },
    {
      "type": "Feature",
      "properties": {
        "iteration": 2,
        "reference_number": "48060",
        "place_name": "Silverleigh",
        "lga_name": "Toowoomba Regional",
        "sequence": 3
      },
      "geometry": {
        "type": "Point",
        "coordinates": [
          151.78083,
          -27.33333
        ]
      }
    },
    {
      "type": "Feature",
      "properties": {
        "iteration": 2,
        "reference_number": "44998",
        "place_name": "White Mountain",
        "lga_name": "Lockyer Valley Regional",
        "sequence": 4
      },
      "geometry": {
        "type": "Point",
        "coordinates": [
          152.11889,
          -27.44361
        ]
      }
    },
    {
      "type": "Feature",
      "properties": {
        "iteration": 2,
        "reference_number": "46866",
        "place_name": "Broken River",
        "lga_name": "Mackay Regional",
        "sequence": 5
      },
      "geometry": {
        "type": "Point",
        "coordinates": [
          148.51,
          -21.16694
        ]
      }
    },
    {
      "type": "Feature",
      "properties": {
        "name": "Bounded locality route 3",
        "iteration": 3,
        "point_count": 4,
        "order": [
          "Derrymore",
          "South Maclean",
          "North Aramara",
          "Biggenden"
        ]
      },
      "geometry": {
        "type": "LineString",
        "coordinates": [
          [
            152.05972,
            -27.5825
          ],
          [
            152.99222,
            -27.79722
          ],
          [
            152.33583,
            -25.5525
          ],
          [
            152.00944,
            -25.56083
          ]
        ]
      }
    },
    {
      "type": "Feature",
      "properties": {
        "iteration": 3,
        "reference_number": "45008",
        "place_name": "Derrymore",
        "lga_name": "Lockyer Valley Regional",
        "sequence": 1
      },
      "geometry": {
        "type": "Point",
        "coordinates": [
          152.05972,
          -27.5825
        ]
      }
    },
    {
      "type": "Feature",
      "properties": {
        "iteration": 3,
        "reference_number": "50115",
        "place_name": "South Maclean",
        "lga_name": "Logan City",
        "sequence": 2
      },
      "geometry": {
        "type": "Point",
        "coordinates": [
          152.99222,
          -27.79722
        ]
      }
    },
    {
      "type": "Feature",
      "properties": {
        "iteration": 3,
        "reference_number": "46664",
        "place_name": "North Aramara",
        "lga_name": "Fraser Coast Regional",
        "sequence": 3
      },
      "geometry": {
        "type": "Point",
        "coordinates": [
          152.33583,
          -25.5525
        ]
      }
    },
    {
      "type": "Feature",
      "properties": {
        "iteration": 3,
        "reference_number": "47364",
        "place_name": "Biggenden",
        "lga_name": "North Burnett Regional",
        "sequence": 4
      },
      "geometry": {
        "type": "Point",
        "coordinates": [
          152.00944,
          -25.56083
        ]
      }
    },
    {
      "type": "Feature",
      "properties": {
        "name": "Bounded locality route 4",
        "iteration": 4,
        "point_count": 3,
        "order": [
          "New Moonta",
          "Devon Park",
          "Hatton Vale"
        ]
      },
      "geometry": {
        "type": "LineString",
        "coordinates": [
          [
            151.72889,
            -25.02472
          ],
          [
            151.67611,
            -27.35611
          ],
          [
            152.47611,
            -27.56139
          ]
        ]
      }
    },
    {
      "type": "Feature",
      "properties": {
        "iteration": 4,
        "reference_number": "45512",
        "place_name": "New Moonta",
        "lga_name": "Bundaberg Regional",
        "sequence": 1
      },
      "geometry": {
        "type": "Point",
        "coordinates": [
          151.72889,
          -25.02472
        ]
      }
    },
    {
      "type": "Feature",
      "properties": {
        "iteration": 4,
        "reference_number": "49178",
        "place_name": "Devon Park",
        "lga_name": "Toowoomba Regional",
        "sequence": 2
      },
      "geometry": {
        "type": "Point",
        "coordinates": [
          151.67611,
          -27.35611
        ]
      }
    },
    {
      "type": "Feature",
      "properties": {
        "iteration": 4,
        "reference_number": "44958",
        "place_name": "Hatton Vale",
        "lga_name": "Lockyer Valley Regional",
        "sequence": 3
      },
      "geometry": {
        "type": "Point",
        "coordinates": [
          152.47611,
          -27.56139
        ]
      }
    },
    {
      "type": "Feature",
      "properties": {
        "name": "Bounded locality route 5",
        "iteration": 5,
        "point_count": 3,
        "order": [
          "Blaxland",
          "Wallu",
          "Goorganga Creek"
        ]
      },
      "geometry": {
        "type": "LineString",
        "coordinates": [
          [
            151.40028,
            -27.21861
          ],
          [
            152.90806,
            -25.95111
          ],
          [
            148.50694,
            -20.51917
          ]
        ]
      }
    },
    {
      "type": "Feature",
      "properties": {
        "iteration": 5,
        "reference_number": "47667",
        "place_name": "Blaxland",
        "lga_name": "Western Downs Regional",
        "sequence": 1
      },
      "geometry": {
        "type": "Point",
        "coordinates": [
          151.40028,
          -27.21861
        ]
      }
    },
    {
      "type": "Feature",
      "properties": {
        "iteration": 5,
        "reference_number": "46396",
        "place_name": "Wallu",
        "lga_name": "Gympie Regional",
        "sequence": 2
      },
      "geometry": {
        "type": "Point",
        "coordinates": [
          152.90806,
          -25.95111
        ]
      }
    },
    {
      "type": "Feature",
      "properties": {
        "iteration": 5,
        "reference_number": "49376",
        "place_name": "Goorganga Creek",
        "lga_name": "Whitsunday Regional",
        "sequence": 3
      },
      "geometry": {
        "type": "Point",
        "coordinates": [
          148.50694,
          -20.51917
        ]
      }
    }
  ]
}