{
  "type": "FeatureCollection",
  "features": [
    {
      "type": "Feature",
      "properties": {
        "name": "Bounded locality route 1",
        "iteration": 1,
        "point_count": 6,
        "order": [
          "Ravenswood",
          "Jaffa",
          "Goondi Hill",
          "Webb",
          "Blackbutt South",
          "Mount Tully"
        ],
        "stroke": "#e6194b",
        "stroke-width": 2,
        "stroke-opacity": 1
      },
      "geometry": {
        "type": "LineString",
        "coordinates": [
          [
            146.88917,
            -20.21889
          ],
          [
            145.99306,
            -17.78556
          ],
          [
            146.01389,
            -17.52861
          ],
          [
            146.05028,
            -17.53167
          ],
          [
            152.08306,
            -26.90667
          ],
          [
            151.94583,
            -28.73528
          ]
        ]
      }
    },
    {
      "type": "Feature",
      "properties": {
        "iteration": 1,
        "reference_number": "49747",
        "place_name": "Ravenswood",
        "lga_name": "Charters Towers Regional",
        "sequence": 1,
        "marker-color": "#e6194b"
      },
      "geometry": {
        "type": "Point",
        "coordinates": [
          146.88917,
          -20.21889
        ]
      }
    },
    {
      "type": "Feature",
      "properties": {
        "iteration": 1,
        "reference_number": "45712",
        "place_name": "Jaffa",
        "lga_name": "Cassowary Coast Regional",
        "sequence": 2,
        "marker-color": "#e6194b"
      },
      "geometry": {
        "type": "Point",
        "coordinates": [
          145.99306,
          -17.78556
        ]
      }
    },
    {
      "type": "Feature",
      "properties": {
        "iteration": 1,
        "reference_number": "45704",
        "place_name": "Goondi Hill",
        "lga_name": "Cassowary Coast Regional",
        "sequence": 3,
        "marker-color": "#e6194b"
      },
      "geometry": {
        "type": "Point",
        "coordinates": [
          146.01389,
          -17.52861
        ]
      }
    },
    {
      "type": "Feature",
      "properties": {
        "iteration": 1,
        "reference_number": "45769",
        "place_name": "Webb",
        "lga_name": "Cassowary Coast Regional",
        "sequence": 4,
        "marker-color": "#e6194b"
      },
      "geometry": {
        "type": "Point",
        "coordinates": [
          146.05028,
          -17.53167
        ]
      }
    },
    {
      "type": "Feature",
      "properties": {
        "iteration": 1,
        "reference_number": "46195",
        "place_name": "Blackbutt South",
        "lga_name": "South Burnett Regional",
        "sequence": 5,
        "marker-color": "#e6194b"
      },
      "geometry": {
        "type": "Point",
        "coordinates": [
          152.08306,
          -26.90667
        ]
      }
    },
    {
      "type": "Feature",
      "properties": {
        "iteration": 1,
        "reference_number": "45959",
        "place_name": "Mount Tully",
        "lga_name": "Southern Downs Regional",
        "sequence": 6,
        "marker-color": "#e6194b"
      },
      "geometry": {
        "type": "Point",
        "coordinates": [
          151.94583,
          -28.73528
        ]
      }
    },
    {
      "type": "Feature",
      "properties": {
        "name": "Bounded locality route 2",
        "iteration": 2,
        "point_count": 3,
        "order": [
          "Yugar",
          "Taldora",
          "Erub Island"
        ],
        "stroke": "#3cb44b",
        "stroke-width": 2,
        "stroke-opacity": 1
      },
      "geometry": {
        "type": "LineString",
        "coordinates": [
          [
            152.86944,
            -27.34472
          ],
          [
            141.42333,
            -19.83
          ],
          [
            143.77,
            -9.585
          ]
        ]
      }
    },
    {
      "type": "Feature",
      "properties": {
        "iteration": 2,
        "reference_number": "45480",
        "place_name": "Yugar",
        "lga_name": "Moreton Bay City",
        "sequence": 1,
        "marker-color": "#3cb44b"
      },
      "geometry": {
        "type": "Point",
        "coordinates": [
          152.86944,
          -27.34472
        ]
      }
    },
    {
      "type": "Feature",
      "properties": {
        "iteration": 2,
        "reference_number": "42266",
        "place_name": "Taldora",
        "lga_name": "McKinlay Shire",
        "sequence": 2,
        "marker-color": "#3cb44b"
      },
      "geometry": {
        "type": "Point",
        "coordinates": [
          141.42333,
          -19.83
        ]
      }
    },
    {
      "type": "Feature",
      "properties": {
        "iteration": 2,
        "reference_number": "46716",
        "place_name": "Erub Island",
        "lga_name": "Torres Strait Island Regional",
        "sequence": 3,
        "marker-color": "#3cb44b"
      },
      "geometry": {
        "type": "Point",
        "coordinates": [
          143.77,
          -9.585
        ]
      }
    },
    {
      "type": "Feature",
      "properties": {
        "name": "Bounded locality route 3",
        "iteration": 3,
        "point_count": 6,
        "order": [
          "Glendale",
          "Nankin",
          "Eudlo",
          "O'Reilly",
          "Orient",
          "Hull Heads"
        ],
        "stroke": "#4363d8",
        "stroke-width": 2,
        "stroke-opacity": 1
      },
      "geometry": {
        "type": "LineString",
        "coordinates": [
          [
            150.45444,
            -23.24583
          ],
          [
            150.69028,
            -23.42833
          ],
          [
            152.94278,
            -26.73167
          ],
          [
            153.12722,
            -28.21
          ],
          [
            146.25083,
            -18.79889
          ],
          [
            146.06417,
            -17.98194
          ]
        ]
      }
    },
    {
      "type": "Feature",
      "properties": {
        "iteration": 3,
        "reference_number": "48653",
        "place_name": "Glendale",
        "lga_name": "Livingstone Shire",
        "sequence": 1,
        "marker-color": "#4363d8"
      },
      "geometry": {
        "type": "Point",
        "coordinates": [
          150.45444,
          -23.24583
        ]
      }
    },
    {
      "type": "Feature",
      "properties": {
        "iteration": 3,
        "reference_number": "49118",
        "place_name": "Nankin",
        "lga_name": "Livingstone Shire",
        "sequence": 2,
        "marker-color": "#4363d8"
      },
      "geometry": {
        "type": "Point",
        "coordinates": [
          150.69028,
          -23.42833
        ]
      }
    },
    {
      "type": "Feature",
      "properties": {
        "iteration": 3,
        "reference_number": "50950",
        "place_name": "Eudlo",
        "lga_name": "Sunshine Coast Regional",
        "sequence": 3,
        "marker-color": "#4363d8"
      },
      "geometry": {
        "type": "Point",
        "coordinates": [
          152.94278,
          -26.73167
        ]
      }
    },
    {
      "type": "Feature",
      "properties": {
        "iteration": 3,
        "reference_number": "45177",
        "place_name": "O'Reilly",
        "lga_name": "Scenic Rim Regional",
        "sequence": 4,
        "marker-color": "#4363d8"
      },
      "geometry": {
        "type": "Point",
        "coordinates": [
          153.12722,
          -28.21
        ]
      }
    },
    {
      "type": "Feature",
      "properties": {
        "iteration": 3,
        "reference_number": "42524",
        "place_name": "Orient",
        "lga_name": "Hinchinbrook Shire",
        "sequence": 5,
        "marker-color": "#4363d8"
      },
      "geometry": {
        "type": "Point",
        "coordinates": [
          146.25083,
          -18.79889
        ]
      }
    },
    {
      "type": "Feature",
      "properties": {
        "iteration": 3,
        "reference_number": "45709",
        "place_name": "Hull Heads",
        "lga_name": "Cassowary Coast Regional",
        "sequence": 6,
        "marker-color": "#4363d8"
      },
      "geometry": {
        "type": "Point",
        "coordinates": [
          146.06417,
          -17.98194
        ]
      }
    },
    {
      "type": "Feature",
      "properties": {
        "name": "Bounded locality route 4",
        "iteration": 4,
        "point_count": 6,
        "order": [
          "Bald Knob",
          "Tuan Forest (Gympie Regional)",
          "Forest Hill",
          "Cape Gloucester",
          "Mount Peter",
          "Southedge"
        ],
        "stroke": "#f58231",
        "stroke-width": 2,
        "stroke-opacity": 1
      },
      "geometry": {
        "type": "LineString",
        "coordinates": [
          [
            152.90833,
            -26.7825
          ],
          [
            152.74583,
            -25.85833
          ],
          [
            152.36056,
            -27.58389
          ],
          [
            148.52861,
            -20.16222
          ],
          [
            145.73722,
            -17.06278
          ],
          [
            145.27528,
            -16.75639
          ]
        ]
      }
    },
    {
      "type": "Feature",
      "properties": {
        "iteration": 4,
        "reference_number": "48504",
        "place_name": "Bald Knob",
        "lga_name": "Sunshine Coast Regional",
        "sequence": 1,
        "marker-color": "#f58231"
      },
      "geometry": {
        "type": "Point",
        "coordinates": [
          152.90833,
          -26.7825
        ]
      }
    },
    {
      "type": "Feature",
      "properties": {
        "iteration": 4,
        "reference_number": "46389",
        "place_name": "Tuan Forest (Gympie Regional)",
        "lga_name": "Gympie Regional",
        "sequence": 2,
        "marker-color": "#f58231"
      },
      "geometry": {
        "type": "Point",
        "coordinates": [
          152.74583,
          -25.85833
        ]
      }
    },
    {
      "type": "Feature",
      "properties": {
        "iteration": 4,
        "reference_number": "44953",
        "place_name": "Forest Hill",
        "lga_name": "Lockyer Valley Regional",
        "sequence": 3,
        "marker-color": "#f58231"
      },
      "geometry": {
        "type": "Point",
        "coordinates": [
          152.36056,
          -27.58389
        ]
      }
    },
    {
      "type": "Feature",
      "properties": {
        "iteration": 4,
        "reference_number": "46858",
        "place_name": "Cape Gloucester",
        "lga_name": "Whitsunday Regional",
        "sequence": 4,
        "marker-color": "#f58231"
      },
      "geometry": {
        "type": "Point",
        "coordinates": [
          148.52861,
          -20.16222
        ]
      }
    },
    {
      "type": "Feature",
      "properties": {
        "iteration": 4,
        "reference_number": "50119",
        "place_name": "Mount Peter",
        "lga_name": "Cairns Regional",
        "sequence": 5,
        "marker-color": "#f58231"
      },
      "geometry": {
        "type": "Point",
        "coordinates": [
          145.73722,
          -17.06278
        ]
      }
    },
    {
      "type": "Feature",
      "properties": {
        "iteration": 4,
        "reference_number": "48872",
        "place_name": "Southedge",
        "lga_name": "Mareeba Shire",
        "sequence": 6,
        "marker-color": "#f58231"
      },
      "geometry": {
        "type": "Point",
        "coordinates": [
          145.27528,
          -16.75639
        ]
      }
    },
    {
      "type": "Feature",
      "properties": {
        "name": "Bounded locality route 5",
        "iteration": 5,
        "point_count": 4,
        "order": [
          "Orion",
          "Conway Beach",
          "Bell",
          "Glenfern"
        ],
        "stroke": "#911eb4",
        "stroke-width": 2,
        "stroke-opacity": 1
      },
      "geometry": {
        "type": "LineString",
        "coordinates": [
          [
            148.36306,
            -24.20861
          ],
          [
            148.74694,
            -20.47472
          ],
          [
            151.43806,
            -26.91639
          ],
          [
            152.60667,
            -26.96639
          ]
        ]
      }
    },
    {
      "type": "Feature",
      "properties": {
        "iteration": 5,
        "reference_number": "46971",
        "place_name": "Orion",
        "lga_name": "Central Highlands Regional",
        "sequence": 1,
        "marker-color": "#911eb4"
      },
      "geometry": {
        "type": "Point",
        "coordinates": [
          148.36306,
          -24.20861
        ]
      }
    },
    {
      "type": "Feature",
      "properties": {
        "iteration": 5,
        "reference_number": "46861",
        "place_name": "Conway Beach",
        "lga_name": "Whitsunday Regional",
        "sequence": 2,
        "marker-color": "#911eb4"
      },
      "geometry": {
        "type": "Point",
        "coordinates": [
          148.74694,
          -20.47472
        ]
      }
    },
    {
      "type": "Feature",
      "properties": {
        "iteration": 5,
        "reference_number": "49277",
        "place_name": "Bell",
        "lga_name": "Western Downs Regional",
        "sequence": 3,
        "marker-color": "#911eb4"
      },
      "geometry": {
        "type": "Point",
        "coordinates": [
          151.43806,
          -26.91639
        ]
      }
    },
    {
      "type": "Feature",
      "properties": {
        "iteration": 5,
        "reference_number": "44871",
        "place_name": "Glenfern",
        "lga_name": "Somerset Regional",
        "sequence": 4,
        "marker-color": "#911eb4"
      },
      "geometry": {
        "type": "Point",
        "coordinates": [
          152.60667,
          -26.96639
        ]
      }
    }
  ]
}