{
  "type": "FeatureCollection",
  "features": [
    {
      "type": "Feature",
      "properties": {
        "name": "Bounded locality route 1",
        "iteration": 1,
        "point_count": 4,
        "order": [
          "Orange Creek",
          "McIlwraith",
          "Veteran",
          "Southern Lamington"
        ]
      },
      "geometry": {
        "type": "LineString",
        "coordinates": [
          [
            150.34889,
            -24.33222
          ],
          [
            152.0,
            -25.0
          ],
          [
            152.70417,
            -26.14861
          ],
          [
            153.13,
            -28.29417
          ]
        ]
      }
    },
    {
      "type": "Feature",
      "properties": {
        "iteration": 1,
        "reference_number": "49566",
        "place_name": "Orange Creek",
        "lga_name": "Banana Shire",
        "sequence": 1
      },
      "geometry": {
        "type": "Point",
        "coordinates": [
          150.34889,
          -24.33222
        ]
      }
    },
    {
      "type": "Feature",
      "properties": {
        "iteration": 1,
        "reference_number": "44741",
        "place_name": "McIlwraith",
        "lga_name": "Bundaberg Regional",
        "sequence": 2
      },
      "geometry": {
        "type": "Point",
        "coordinates": [
          152.0,
          -25.0
        ]
      }
    },
    {
      "type": "Feature",
      "properties": {
        "iteration": 1,
        "reference_number": "46394",
        "place_name": "Veteran",
        "lga_name": "Gympie Regional",
        "sequence": 3
      },
      "geometry": {
        "type": "Point",
        "coordinates": [
          152.70417,
          -26.14861
        ]
      }
    },
    {
      "type": "Feature",
      "properties": {
        "iteration": 1,
        "reference_number": "45188",
        "place_name": "Southern Lamington",
        "lga_name": "Scenic Rim Regional",
        "sequence": 4
      },
      "geometry": {
        "type": "Point",
        "coordinates": [
          153.13,
          -28.29417
        ]
      }
    },
    {
      "type": "Feature",
      "properties": {
        "name": "Bounded locality route 2",
        "iteration": 2,
        "point_count": 6,
        "order": [
          "Bramston Beach",
          "Irvinebank",
          "Longreach",
          "Montrose (Western Downs Regional)",
          "Veradilla",
          "Seisia (Northern Peninsula Area Regional)"
        ]
      },
      "geometry": {
        "type": "LineString",
        "coordinates": [
          [
            146.00389,
            -17.35167
          ],
          [
            145.10278,
            -17.44472
          ],
          [
            143.70167,
            -23.34944
          ],
          [
            150.61722,
            -27.00389
          ],
          [
            152.18333,
            -27.59722
          ],
          [
            142.37028,
            -10.85194
          ]
        ]
      }
    },
    {
      "type": "Feature",
      "properties": {
        "iteration": 2,
        "reference_number": "48541",
        "place_name": "Bramston Beach",
        "lga_name": "Cairns Regional",
        "sequence": 1
      },
      "geometry": {
        "type": "Point",
        "coordinates": [
          146.00389,
          -17.35167
        ]
      }
    },
    {
      "type": "Feature",
      "properties": {
        "iteration": 2,
        "reference_number": "48681",
        "place_name": "Irvinebank",
        "lga_name": "Mareeba Shire",
        "sequence": 2
      },
      "geometry": {
        "type": "Point",
        "coordinates": [
          145.10278,
          -17.44472
        ]
      }
    },
    {
      "type": "Feature",
      "properties": {
        "iteration": 2,
        "reference_number": "52312",
        "place_name": "Longreach",
        "lga_name": "Longreach Regional",
        "sequence": 3
      },
      "geometry": {
        "type": "Point",
        "coordinates": [
          143.70167,
          -23.34944
        ]
      }
    },
    {
      "type": "Feature",
      "properties": {
        "iteration": 2,
        "reference_number": "47728",
        "place_name": "Montrose (Western Downs Regional)",
        "lga_name": "Western Downs Regional",
        "sequence": 4
      },
      "geometry": {
        "type": "Point",
        "coordinates": [
          150.61722,
          -27.00389
        ]
      }
    },
    {
      "type": "Feature",
      "properties": {
        "iteration": 2,
        "reference_number": "44995",
        "place_name": "Veradilla",
        "lga_name": "Lockyer Valley Regional",
        "sequence": 5
      },
      "geometry": {
        "type": "Point",
        "coordinates": [
          152.18333,
          -27.59722
        ]
      }
    },
    {
      "type": "Feature",
      "properties": {
        "iteration": 2,
        "reference_number": "46106",
        "place_name": "Seisia (Northern Peninsula Area Regional)",
        "lga_name": "Northern Peninsula Area Regional",
        "sequence": 6
      },
      "geometry": {
        "type": "Point",
        "coordinates": [
          142.37028,
          -10.85194
        ]
      }
    },
    {
      "type": "Feature",
      "properties": {
        "name": "Bounded locality route 3",
        "iteration": 3,
        "point_count": 6,
        "order": [
          "Peacock Siding",
          "Upper Stone",
          "Barlows Hill",
          "Branch Creek",
          "Coalstoun Lakes",
          "Daymar"
        ]
      },
      "geometry": {
        "type": "LineString",
        "coordinates": [
          [
            146.00611,
            -18.69194
          ],
          [
            145.96611,
            -18.79639
          ],
          [
            150.74056,
            -23.10944
          ],
          [
            151.43444,
            -25.39417
          ],
          [
            151.89278,
            -25.6275
          ],
          [
            149.01111,
            -28.60389
          ]
        ]
      }
    },
    {
      "type": "Feature",
      "properties": {
        "iteration": 3,
        "reference_number": "42526",
        "place_name": "Peacock Siding",
        "lga_name": "Hinchinbrook Shire",
        "sequence": 1
      },
      "geometry": {
        "type": "Point",
        "coordinates": [
          146.00611,
          -18.69194
        ]
      }
    },
    {
      "type": "Feature",
      "properties": {
        "iteration": 3,
        "reference_number": "35845",
        "place_name": "Upper Stone",
        "lga_name": "Hinchinbrook Shire",
        "sequence": 2
      },
      "geometry": {
        "type": "Point",
        "coordinates": [
          145.96611,
          -18.79639
        ]
      }
    },
    {
      "type": "Feature",
      "properties": {
        "iteration": 3,
        "reference_number": "48509",
        "place_name": "Barlows Hill",
        "lga_name": "Livingstone Shire",
        "sequence": 3
      },
      "geometry": {
        "type": "Point",
        "coordinates": [
          150.74056,
          -23.10944
        ]
      }
    },
    {
      "type": "Feature",
      "properties": {
        "iteration": 3,
        "reference_number": "48109",
        "place_name": "Branch Creek",
        "lga_name": "North Burnett Regional",
        "sequence": 4
      },
      "geometry": {
        "type": "Point",
        "coordinates": [
          151.43444,
          -25.39417
        ]
      }
    },
    {
      "type": "Feature",
      "properties": {
        "iteration": 3,
        "reference_number": "50095",
        "place_name": "Coalstoun Lakes",
        "lga_name": "North Burnett Regional",
        "sequence": 5
      },
      "geometry": {
        "type": "Point",
        "coordinates": [
          151.89278,
          -25.6275
        ]
      }
    },
    {
      "type": "Feature",
      "properties": {
        "iteration": 3,
        "reference_number": "47807",
        "place_name": "Daymar",
        "lga_name": "Goondiwindi Regional",
        "sequence": 6
      },
      "geometry": {
        "type": "Point",
        "coordinates": [
          149.01111,
          -28.60389
        ]
      }
    },
    {
      "type": "Feature",
      "properties": {
        "name": "Bounded locality route 4",
        "iteration": 4,
        "point_count": 5,
        "order": [
          "Marshlands",
          "Amamoor",
          "Woolshed",
          "Bluff",
          "West Wellesley Islands"
        ]
      },
      "geometry": {
        "type": "LineString",
        "coordinates": [
          [
            151.75722,
            -26.15389
          ],
          [
            152.67222,
            -26.35556
          ],
          [
            152.50194,
            -27.59806
          ],
          [
            149.05667,
            -23.49444
          ],
          [
            139.14611,
            -16.83694
          ]
        ]
      }
    },
    {
      "type": "Feature",
      "properties": {
        "iteration": 4,
        "reference_number": "46241",
        "place_name": "Marshlands",
        "lga_name": "South Burnett Regional",
        "sequence": 1
      },
      "geometry": {
        "type": "Point",
        "coordinates": [
          151.75722,
          -26.15389
        ]
      }
    },
    {
      "type": "Feature",
      "properties": {
        "iteration": 4,
        "reference_number": "49837",
        "place_name": "Amamoor",
        "lga_name": "Gympie Regional",
        "sequence": 2
      },
      "geometry": {
        "type": "Point",
        "coordinates": [
          152.67222,
          -26.35556
        ]
      }
    },
    {
      "type": "Feature",
      "properties": {
        "iteration": 4,
        "reference_number": "45103",
        "place_name": "Woolshed",
        "lga_name": "Ipswich City",
        "sequence": 3
      },
      "geometry": {
        "type": "Point",
        "coordinates": [
          152.50194,
          -27.59806
        ]
      }
    },
    {
      "type": "Feature",
      "properties": {
        "iteration": 4,
        "reference_number": "46919",
        "place_name": "Bluff",
        "lga_name": "Central Highlands Regional",
        "sequence": 4
      },
      "geometry": {
        "type": "Point",
        "coordinates": [
          149.05667,
          -23.49444
        ]
      }
    },
    {
      "type": "Feature",
      "properties": {
        "iteration": 4,
        "reference_number": "42538",
        "place_name": "West Wellesley Islands",
        "lga_name": "",
        "sequence": 5
      },
      "geometry": {
        "type": "Point",
        "coordinates": [
          139.14611,
          -16.83694
        ]
      }
    },
    {
      "type": "Feature",
      "properties": {
        "name": "Bounded locality route 5",
        "iteration": 5,
        "point_count": 3,
        "order": [
          "Abergowrie",
          "Lochington",
          "Macalister"
        ]
      },
      "geometry": {
        "type": "LineString",
        "coordinates": [
          [
            145.91944,
            -18.43833
          ],
          [
            147.43389,
            -24.01667
          ],
          [
            151.06972,
            -27.035
          ]
        ]
      }
    },
    {
      "type": "Feature",
      "properties": {
        "iteration": 5,
        "reference_number": "42509",
        "place_name": "Abergowrie",
        "lga_name": "Hinchinbrook Shire",
        "sequence": 1
      },
      "geometry": {
        "type": "Point",
        "coordinates": [
          145.91944,
          -18.43833
        ]
      }
    },
    {
      "type": "Feature",
      "properties": {
        "iteration": 5,
        "reference_number": "52304",
        "place_name": "Lochington",
        "lga_name": "Central Highlands Regional",
        "sequence": 2
      },
      "geometry": {
        "type": "Point",
        "coordinates": [
          147.43389,
          -24.01667
        ]
      }
    },
    {
      "type": "Feature",
      "properties": {
        "iteration": 5,
        "reference_number": "49274",
        "place_name": "Macalister",
        "lga_name": "Western Downs Regional",
        "sequence": 3
      },
      "geometry": {
        "type": "Point",
        "coordinates": [
          151.06972,
          -27.035
        ]
      }
    }
  ]
}