{"type": "FeatureCollection", "features": [{"type": "Feature", "geometry": {"type": "Point", "coordinates": [13.3691437, 9.9330939]}, "properties": {"city": null, "place_id": 11502, "country_code": "CM", "display_name": "Mboutou, Baschéo, Bénoué, North, Cameroon"}}, {"type": "Feature", "geometry": {"type": "Point", "coordinates": [12.6284303, 6.4650648]}, "properties": {"city": "Tabati", "place_id": 11503, "country_code": "CM", "display_name": "Tabati, Djérem, Adamawa, Cameroon"}}, {"type": "Feature", "geometry": {"type": "Point", "coordinates": [12.7752735, 6.3444969]}, "properties": {"city": "Tabati", "place_id": 11504, "country_code": "CM", "display_name": "D24, Buénanti, Tabati, Djérem, Adamawa, Cameroon"}}, {"type": "Feature", "geometry": {"type": "Point", "coordinates": [9.9099477, 2.9407372]}, "properties": {"city": "Kribi", "place_id": 11505, "country_code": "CM", "display_name": "Mokolo, Kribi, Kribi II, Communauté urbaine de Kribi, Océan, South, Cameroon"}}, {"type": "Feature", "geometry": {"type": "Point", "coordinates": [14.3617247, 4.4354354]}, "properties": {"city": "Batouri", "place_id": 11506, "country_code": "CM", "display_name": "Sambo, Batouri, Kadey, East, Cameroon"}}, {"type": "Feature", "geometry": {"type": "Point", "coordinates": [9.7679874, 4.0512426]}, "properties": {"city": "Douala V", "place_id": 11507, "country_code": "CM", "display_name": "Cité Des Palmiers, Douala V, Communauté urbaine de Douala, Wouri, Littoral, Cameroon"}}, {"type": "Feature", "geometry": {"type": "Point", "coordinates": [10.5254189, 5.1408160]}, "properties": {"city": null, "place_id": 11508, "country_code": "CM", "display_name": "Bangangté, Ndé, West, Cameroon"}}, {"type": "Feature", "geometry": {"type": "Point", "coordinates": [11.3812056, 4.2997720]}, "properties": {"city": null, "place_id": 11509, "country_code": "CM", "display_name": "D 48, Ebogo, Sa'a, Lekié, Centre, Cameroon"}}, {"type": "Feature", "geometry": {"type": "Point", "coordinates": [15.0145885, 12.0870087]}, "properties": {"city": "Kousséri", "place_id": 11510, "country_code": "CM", "display_name": "Kousséri, Logone-et-Chari, Far-North, Cameroon"}}, {"type": "Feature", "geometry": {"type": "Point", "coordinates": [15.0306424, 12.0767084]}, "properties": {"city": "Kousséri", "place_id": 11511, "country_code": "CM", "display_name": "Kousséri, Logone-et-Chari, Far-North, Cameroon"}}, {"type": "Feature", "geometry": {"type": "Point", "coordinates": [10.3743228, 5.9900927]}, "properties": {"city": "Tubah", "place_id": 11512, "country_code": "CM", "display_name": "N 11, Nsangtah, Tubah, Mezam, Northwest, Cameroon"}}, {"type": "Feature", "geometry": {"type": "Point", "coordinates": [11.5574496, 3.7245617]}, "properties": {"city": "Mfou", "place_id": 11513, "country_code": "CM", "display_name": "Bénébalot, Mfou, Méfou-et-Afamba, Centre, Cameroon"}}, {"type": "Feature", "geometry": {"type": "Point", "coordinates": [13.8025993, 10.7423818]}, "properties": {"city": "Mokolo", "place_id": 11514, "country_code": "CM", "display_name": "Mokolo, Mayo-Tsanaga, Far-North, Cameroon"}}, {"type": "Feature", "geometry": {"type": "Point", "coordinates": [14.3157846, 10.5911839]}, "properties": {"city": "Maroua I", "place_id": 11515, "country_code": "CM", "display_name": "Djimi, Maroua I, Communauté urbaine de Maroua, Diamaré, Far-North, Cameroon"}}, {"type": "Feature", "geometry": {"type": "Point", "coordinates": [9.8824395, 5.4685458]}, "properties": {"city": null, "place_id": 11516, "country_code": "CM", "display_name": "Fontem, Menji, Lebialem, Southwest, Cameroon"}}, {"type": "Feature", "geometry": {"type": "Point", "coordinates": [11.5087216, 3.5129314]}, "properties": {"city": "Mbalmayo", "place_id": 11517, "country_code": "CM", "display_name": "Yaoundé-Mbalmayo, Oyack II, Mbalmayo, Nyong-et-So'o, Centre, Cameroon"}}, {"type": "Feature", "geometry": {"type": "Point", "coordinates": [12.2461317, 3.7665808]}, "properties": {"city": "Akonolinga", "place_id": 11518, "country_code": "CM", "display_name": "P33, Mbaldjan, Akonolinga, Nyong-et-Foumou, Centre, Cameroon"}}, {"type": "Feature", "geometry": {"type": "Point", "coordinates": [9.4163522, 4.9545435]}, "properties": {"city": null, "place_id": 11519, "country_code": "CM", "display_name": "Dubange, Konye, Meme, Southwest, Cameroon"}}, {"type": "Feature", "geometry": {"type": "Point", "coordinates": [10.0531420, 5.4440123]}, "properties": {"city": "Dschang", "place_id": 11520, "country_code": "CM", "display_name": "Lefock, Foreke Dschang, Dschang, Menoua, West, Cameroon"}}, {"type": "Feature", "geometry": {"type": "Point", "coordinates": [14.2918850, 6.5164447]}, "properties": {"city": "Meiganga", "place_id": 11521, "country_code": "CM", "display_name": "Meiganga, Mbéré, Adamawa, Cameroon"}}, {"type": "Feature", "geometry": {"type": "Point", "coordinates": [14.5001507, 10.9672483]}, "properties": {"city": null, "place_id": 11522, "country_code": "CM", "display_name": "Tchalnga, Pétté, Diamaré, Far-North, Cameroon"}}, {"type": "Feature", "geometry": {"type": "Point", "coordinates": [9.3144867, 4.0911648]}, "properties": {"city": null, "place_id": 11523, "country_code": "CM", "display_name": "Mutengene, Tiko, Fako, Southwest, Cameroon"}}, {"type": "Feature", "geometry": {"type": "Point", "coordinates": [13.8041242, 10.7424991]}, "properties": {"city": "Mokolo", "place_id": 11524, "country_code": "CM", "display_name": "Mokolo, Mayo-Tsanaga, Far-North, Cameroon"}}, {"type": "Feature", "geometry": {"type": "Point", "coordinates": [9.1954750, 4.0224745]}, "properties": {"city": "Limbé II", "place_id": 11525, "country_code": "CM", "display_name": "Botacantin, Limbé II, Communauté urbaine de Limbé, Fako, Southwest, Cameroon"}}, {"type": "Feature", "geometry": {"type": "Point", "coordinates": [10.5238923, 5.1440601]}, "properties": {"city": null, "place_id": 11526, "country_code": "CM", "display_name": "Bangangté, Ndé, West, Cameroon"}}, {"type": "Feature", "geometry": {"type": "Point", "coordinates": [9.5826684, 5.5314548]}, "properties": {"city": null, "place_id": 11527, "country_code": "CM", "display_name": "Fotabe, Tinto, Manyu, Southwest, Cameroon"}}, {"type": "Feature", "geometry": {"type": "Point", "coordinates": [11.4335325, 6.4590043]}, "properties": {"city": null, "place_id": 11528, "country_code": "CM", "display_name": "Tor Luo, Somié, Bankim, Mayo-Banyo, Adamawa, Cameroon"}}, {"type": "Feature", "geometry": {"type": "Point", "coordinates": [10.1770905, 5.1571920]}, "properties": {"city": null, "place_id": 11529, "country_code": "CM", "display_name": "Provinciale 15, Bafang, Haut-Nkam, West, Cameroon"}}, {"type": "Feature", "geometry": {"type": "Point", "coordinates": [11.5000523, 3.5165854]}, "properties": {"city": "Mbalmayo", "place_id": 11530, "country_code": "CM", "display_name": "Oyack II, Mbalmayo, Nyong-et-So'o, Centre, Cameroon"}}, {"type": "Feature", "geometry": {"type": "Point", "coordinates": [10.0471407, 5.4459247]}, "properties": {"city": "Dschang", "place_id": 11531, "country_code": "CM", "display_name": "Mingou, Dschang, Menoua, West, Cameroon"}}, {"type": "Feature", "geometry": {"type": "Point", "coordinates": [10.1459570, 5.9595726]}, "properties": {"city": "Bamenda", "place_id": 11532, "country_code": "CM", "display_name": "Nitop, Bamenda 2, Bamenda, Mezam, Northwest, Cameroon"}}, {"type": "Feature", "geometry": {"type": "Point", "coordinates": [9.9611438, 5.1215714]}, "properties": {"city": "Mélong", "place_id": 11533, "country_code": "CM", "display_name": "Melong, Mélong, Moungo, Littoral, Cameroon"}}, {"type": "Feature", "geometry": {"type": "Point", "coordinates": [10.1587536, 5.9626447]}, "properties": {"city": "Bamenda", "place_id": 11534, "country_code": "CM", "display_name": "Ntamulung, Bamenda 3, Bamenda, Mezam, Northwest, Cameroon"}}, {"type": "Feature", "geometry": {"type": "Point", "coordinates": [14.5497562, 5.8838923]}, "properties": {"city": null, "place_id": 11535, "country_code": "CM", "display_name": "Garoua-Boulaï, Lom-et-Djérem, East, Cameroon"}}, {"type": "Feature", "geometry": {"type": "Point", "coordinates": [12.0283463, 3.3335196]}, "properties": {"city": null, "place_id": 11536, "country_code": "CM", "display_name": "D 34, Nlanyop, Zoétélé, Dja-et-Lobo, South, Cameroon"}}, {"type": "Feature", "geometry": {"type": "Point", "coordinates": [13.2826814, 4.1502397]}, "properties": {"city": null, "place_id": 11537, "country_code": "CM", "display_name": "N10, Mampang, Doumaintang, Haut-Nyong, East, Cameroon"}}, {"type": "Feature", "geometry": {"type": "Point", "coordinates": [12.3502986, 4.2006958]}, "properties": {"city": "Akonolinga", "place_id": 11538, "country_code": "CM", "display_name": "Akonolinga, Nyong-et-Foumou, Centre, Cameroon"}}, {"type": "Feature", "geometry": {"type": "Point", "coordinates": [10.0567778, 5.8531913]}, "properties": {"city": null, "place_id": 11539, "country_code": "CM", "display_name": "Bako, Bali, Mezam, Northwest, Cameroon"}}, {"type": "Feature", "geometry": {"type": "Point", "coordinates": [10.0118183, 5.8874408]}, "properties": {"city": null, "place_id": 11540, "country_code": "CM", "display_name": "Bako, Bali, Mezam, Northwest, Cameroon"}}, {"type": "Feature", "geometry": {"type": "Point", "coordinates": [14.3649310, 6.1351293]}, "properties": {"city": "Meiganga", "place_id": 11541, "country_code": "CM", "display_name": "Garoua-Bolai-Ngaoundéré, Mbale, Meiganga, Mbéré, Adamawa, Cameroon"}}, {"type": "Feature", "geometry": {"type": "Point", "coordinates": [11.2021938, 4.0876369]}, "properties": {"city": "Okala", "place_id": 11542, "country_code": "CM", "display_name": "Nkolfem, Okala, Lekié, Centre, Cameroon"}}, {"type": "Feature", "geometry": {"type": "Point", "coordinates": [12.7506126, 4.4003492]}, "properties": {"city": null, "place_id": 11543, "country_code": "CM", "display_name": "Mengaa, Nanga-Eboko, Haute-Sanaga, Centre, Cameroon"}}, {"type": "Feature", "geometry": {"type": "Point", "coordinates": [10.9011210, 5.7203747]}, "properties": {"city": "Foumban", "place_id": 11544, "country_code": "CM", "display_name": "Manga, Mambèn, Foumban, Noun, West, Cameroon"}}, {"type": "Feature", "geometry": {"type": "Point", "coordinates": [10.6373201, 5.5038286]}, "properties": {"city": null, "place_id": 11545, "country_code": "CM", "display_name": "Njimbouot I, Foumbot, Noun, West, Cameroon"}}, {"type": "Feature", "geometry": {"type": "Point", "coordinates": [10.8988805, 5.7267256]}, "properties": {"city": "Foumban", "place_id": 11546, "country_code": "CM", "display_name": "Quartier Artisanal, Foumban, Noun, West, Cameroon"}}, {"type": "Feature", "geometry": {"type": "Point", "coordinates": [12.1283644, 3.3485548]}, "properties": {"city": null, "place_id": 11547, "country_code": "CM", "display_name": "D33, Nkoumadjap III, Zoétélé, Dja-et-Lobo, South, Cameroon"}}, {"type": "Feature", "geometry": {"type": "Point", "coordinates": [10.7838147, 3.6430171]}, "properties": {"city": "Éséka", "place_id": 11548, "country_code": "CM", "display_name": "Éséka, Nyong-et-Kéllé, Centre, Cameroon"}}, {"type": "Feature", "geometry": {"type": "Point", "coordinates": [11.9854570, 2.9378864]}, "properties": {"city": "Sangmélima", "place_id": 11549, "country_code": "CM", "display_name": "Akon, Sangmélima, Dja-et-Lobo, South, Cameroon"}}, {"type": "Feature", "geometry": {"type": "Point", "coordinates": [10.7013345, 4.9698115]}, "properties": {"city": null, "place_id": 11550, "country_code": "CM", "display_name": "Tonga, Ndé, West, Cameroon"}}, {"type": "Feature", "geometry": {"type": "Point", "coordinates": [10.7002209, 4.9668779]}, "properties": {"city": null, "place_id": 11551, "country_code": "CM", "display_name": "Tonga, Ndé, West, Cameroon"}}, {"type": "Feature", "geometry": {"type": "Point", "coordinates": [10.5862712, 5.1305639]}, "properties": {"city": null, "place_id": 11552, "country_code": "CM", "display_name": "Bangangté, Ndé, West, Cameroon"}}, {"type": "Feature", "geometry": {"type": "Point", "coordinates": [10.1874155, 5.1601004]}, "properties": {"city": null, "place_id": 11553, "country_code": "CM", "display_name": "Bafang, Haut-Nkam, West, Cameroon"}}, {"type": "Feature", "geometry": {"type": "Point", "coordinates": [10.2541628, 5.6233583]}, "properties": {"city": "Mbouda", "place_id": 11554, "country_code": "CM", "display_name": "Mbouda, Bamboutos, West, Cameroon"}}, {"type": "Feature", "geometry": {"type": "Point", "coordinates": [10.7838147, 3.6430171]}, "properties": {"city": "Éséka", "place_id": 11555, "country_code": "CM", "display_name": "Éséka, Nyong-et-Kéllé, Centre, Cameroon"}}, {"type": "Feature", "geometry": {"type": "Point", "coordinates": [15.3469363, 2.6636370]}, "properties": {"city": null, "place_id": 11556, "country_code": "CM", "display_name": "P4, Wélélé, Salapoumbé, Boumba-et-Ngoko, East, Cameroon"}}, {"type": "Feature", "geometry": {"type": "Point", "coordinates": [10.3103096, 5.4257632]}, "properties": {"city": null, "place_id": 11557, "country_code": "CM", "display_name": "Penka-Michel, Menoua, West, Cameroon"}}, {"type": "Feature", "geometry": {"type": "Point", "coordinates": [10.0190887, 5.8868406]}, "properties": {"city": null, "place_id": 11558, "country_code": "CM", "display_name": "Bali, Mezam, Northwest, Cameroon"}}, {"type": "Feature", "geometry": {"type": "Point", "coordinates": [10.1455934, 6.7821026]}, "properties": {"city": null, "place_id": 11559, "country_code": "CM", "display_name": "Kunyang, Zhoa, Menchum, Northwest, Cameroon"}}, {"type": "Feature", "geometry": {"type": "Point", "coordinates": [9.7031036, 4.0478363]}, "properties": {"city": "Douala I", "place_id": 11560, "country_code": "CM", "display_name": "Hôpital Laquintinie, Rue Dika Mpondo(N°1151), Bali, Deido, Douala I, Communauté urbaine de Douala, Wouri, Littoral, Cameroon"}}, {"type": "Feature", "geometry": {"type": "Point", "coordinates": [14.4506883, 10.1091665]}, "properties": {"city": "Kaele", "place_id": 11561, "country_code": "CM", "display_name": "Kaele, Kaélé, Mayo-Kani, Far-North, Cameroon"}}, {"type": "Feature", "geometry": {"type": "Point", "coordinates": [9.7288989, 4.7163619]}, "properties": {"city": null, "place_id": 11562, "country_code": "CM", "display_name": "Loum, Moungo, Littoral, Cameroon"}}, {"type": "Feature", "geometry": {"type": "Point", "coordinates": [14.4432180, 10.1113179]}, "properties": {"city": "Kaele", "place_id": 11563, "country_code": "CM", "display_name": "Pətəfomme, Kaele, Kaélé, Mayo-Kani, Far-North, Cameroon"}}, {"type": "Feature", "geometry": {"type": "Point", "coordinates": [11.2338913, 4.7501448]}, "properties": {"city": "pk11", "place_id": 11564, "country_code": "CM", "display_name": "Ndengue, pk11, Mbam-et-Inoubou, Centre, Cameroon"}}, {"type": "Feature", "geometry": {"type": "Point", "coordinates": [12.9629542, 9.1003366]}, "properties": {"city": null, "place_id": 11565, "country_code": "CM", "display_name": "Mboudang 2, Touroua, Bénoué, North, Cameroon"}}, {"type": "Feature", "geometry": {"type": "Point", "coordinates": [13.3482397, 9.3037068]}, "properties": {"city": "Garoua I", "place_id": 11566, "country_code": "CM", "display_name": "Ouro Moufou, Garoua I, Communauté urbaine de Garoua, Bénoué, North, Cameroon"}}, {"type": "Feature", "geometry": {"type": "Point", "coordinates": [11.2240182, 4.7545905]}, "properties": {"city": "pk11", "place_id": 11567, "country_code": "CM", "display_name": "Rimis, pk11, Mbam-et-Inoubou, Centre, Cameroon"}}, {"type": "Feature", "geometry": {"type": "Point", "coordinates": [11.4878676, 6.0849673]}, "properties": {"city": null, "place_id": 11568, "country_code": "CM", "display_name": "Bankim, Mayo-Banyo, Adamawa, Cameroon"}}, {"type": "Feature", "geometry": {"type": "Point", "coordinates": [10.6769883, 6.2260848]}, "properties": {"city": "Kumbo", "place_id": 11569, "country_code": "CM", "display_name": "Mve, Kumbo, Bui, Northwest, Cameroon"}}, {"type": "Feature", "geometry": {"type": "Point", "coordinates": [10.6667809, 6.2001125]}, "properties": {"city": "Kumbo", "place_id": 11570, "country_code": "CM", "display_name": "Meluf, Kumbo, Bui, Northwest, Cameroon"}}, {"type": "Feature", "geometry": {"type": "Point", "coordinates": [9.2422980, 4.1533944]}, "properties": {"city": "Buea", "place_id": 11571, "country_code": "CM", "display_name": "Iya Avenue, Small-Soppo, Bokoko, Buea, Fako, Southwest, Cameroon"}}, {"type": "Feature", "geometry": {"type": "Point", "coordinates": [9.7963877, 5.3003039]}, "properties": {"city": null, "place_id": 11572, "country_code": "CM", "display_name": "Nkang, Nguti, Kupe-Muanenguba, Southwest, Cameroon"}}, {"type": "Feature", "geometry": {"type": "Point", "coordinates": [9.9405304, 4.9545984]}, "properties": {"city": "Nkongsamba", "place_id": 11573, "country_code": "CM", "display_name": "Nkongsamba, Nkongsamba III, Communauté urbaine de Nkongsamba, Moungo, Littoral, Cameroon"}}, {"type": "Feature", "geometry": {"type": "Point", "coordinates": [14.4607396, 10.3264596]}, "properties": {"city": null, "place_id": 11574, "country_code": "CM", "display_name": "P30, Dir, Mindif, Mayo-Kani, Far-North, Cameroon"}}, {"type": "Feature", "geometry": {"type": "Point", "coordinates": [14.6005723, 10.7329223]}, "properties": {"city": "Bogo", "place_id": 11575, "country_code": "CM", "display_name": "Mororo, Bogo, Diamaré, Far-North, Cameroon"}}, {"type": "Feature", "geometry": {"type": "Point", "coordinates": [9.5077598, 4.5781794]}, "properties": {"city": "Kumba III", "place_id": 11576, "country_code": "CM", "display_name": "Mukonje, Kumba III, Communauté urbaine de Kumba, Meme, Southwest, Cameroon"}}, {"type": "Feature", "geometry": {"type": "Point", "coordinates": [13.9692821, 10.7610733]}, "properties": {"city": "Soulèdé-Roua", "place_id": 11577, "country_code": "CM", "display_name": "D12, Nguildakam, Soulèdé-Roua, Mayo-Tsanaga, Far-North, Cameroon"}}, {"type": "Feature", "geometry": {"type": "Point", "coordinates": [13.9438113, 9.6701161]}, "properties": {"city": null, "place_id": 11578, "country_code": "CM", "display_name": "Kafinarou, Figuil, Mayo-Louti, North, Cameroon"}}, {"type": "Feature", "geometry": {"type": "Point", "coordinates": [13.7006354, 9.8667756]}, "properties": {"city": null, "place_id": 11579, "country_code": "CM", "display_name": "Mayo-Oulo, Mayo-Louti, North, Cameroon"}}, {"type": "Feature", "geometry": {"type": "Point", "coordinates": [9.3150137, 5.7511594]}, "properties": {"city": null, "place_id": 11580, "country_code": "CM", "display_name": "Mamfe, Manyu, Southwest, Cameroon"}}, {"type": "Feature", "geometry": {"type": "Point", "coordinates": [14.1713026, 8.3987106]}, "properties": {"city": "Tcholliré", "place_id": 11581, "country_code": "CM", "display_name": "Mane, Tcholliré, Mayo-Rey, North, Cameroon"}}, {"type": "Feature", "geometry": {"type": "Point", "coordinates": [9.5673570, 4.5015786]}, "properties": {"city": null, "place_id": 11582, "country_code": "CM", "display_name": "Mbanga, Moungo, Littoral, Cameroon"}}, {"type": "Feature", "geometry": {"type": "Point", "coordinates": [14.2659975, 10.1029064]}, "properties": {"city": "Kaélé", "place_id": 11583, "country_code": "CM", "display_name": "Tchaode, Kaélé, Mayo-Kani, Far-North, Cameroon"}}, {"type": "Feature", "geometry": {"type": "Point", "coordinates": [9.1700250, 5.6514415]}, "properties": {"city": null, "place_id": 11584, "country_code": "CM", "display_name": "Echitako, Mamfe, Manyu, Southwest, Cameroon"}}, {"type": "Feature", "geometry": {"type": "Point", "coordinates": [9.3144709, 4.0893503]}, "properties": {"city": null, "place_id": 11585, "country_code": "CM", "display_name": "Bobga Street, Mutengene, Tiko, Fako, Southwest, Cameroon"}}, {"type": "Feature", "geometry": {"type": "Point", "coordinates": [10.4171312, 5.4789703]}, "properties": {"city": "Bafoussam II", "place_id": 11586, "country_code": "CM", "display_name": "Marche A, Rue du Foyer Bandjoun, Bafoussam II, Mifi, West, Cameroon"}}, {"type": "Feature", "geometry": {"type": "Point", "coordinates": [10.2568201, 6.1360766]}, "properties": {"city": null, "place_id": 11587, "country_code": "CM", "display_name": "P24, Kikfuni, Belo, Boyo, Northwest, Cameroon"}}, {"type": "Feature", "geometry": {"type": "Point", "coordinates": [14.5481539, 5.8902647]}, "properties": {"city": null, "place_id": 11588, "country_code": "CM", "display_name": "Marché, Bertoua-Garoua-Boulai, Dolé, Badzere, Garoua-Boulaï, Lom-et-Djérem, East, Cameroon"}}, {"type": "Feature", "geometry": {"type": "Point", "coordinates": [12.4400984, 6.1494260]}, "properties": {"city": "Tabati", "place_id": 11589, "country_code": "CM", "display_name": "Tabati, Djérem, Adamawa, Cameroon"}}, {"type": "Feature", "geometry": {"type": "Point", "coordinates": [8.9901212, 4.2101255]}, "properties": {"city": null, "place_id": 11590, "country_code": "CM", "display_name": "Bibundi Camp, Idenau, Fako, Southwest, Cameroon"}}, {"type": "Feature", "geometry": {"type": "Point", "coordinates": [13.6771636, 4.5788792]}, "properties": {"city": "Communauté urbaine de Bertoua", "place_id": 11591, "country_code": "CM", "display_name": "Stade du 20 Mai, Avenue Paul Biya, Bertoua I, Communauté urbaine de Bertoua, Lom-et-Djérem, East, Cameroon"}}, {"type": "Feature", "geometry": {"type": "Point", "coordinates": [10.2541712, 5.6261076]}, "properties": {"city": "Mbouda", "place_id": 11592, "country_code": "CM", "display_name": "Tribune, P15, Mbouda, Bamboutos, West, Cameroon"}}, {"type": "Feature", "geometry": {"type": "Point", "coordinates": [10.6322887, 5.5081781]}, "properties": {"city": null, "place_id": 11593, "country_code": "CM", "display_name": "Camoco, Bafoussam-Foumban, Njimbouot I, Foumbot, Noun, West, Cameroon"}}, {"type": "Feature", "geometry": {"type": "Point", "coordinates": [9.6867909, 4.6376864]}, "properties": {"city": null, "place_id": 11594, "country_code": "CM", "display_name": "Penja, Moungo, Littoral, Cameroon"}}, {"type": "Feature", "geometry": {"type": "Point", "coordinates": [9.7350960, 4.7182008]}, "properties": {"city": null, "place_id": 11595, "country_code": "CM", "display_name": "Loum, Moungo, Littoral, Cameroon"}}, {"type": "Feature", "geometry": {"type": "Point", "coordinates": [11.9011049, 4.4499592]}, "properties": {"city": null, "place_id": 11596, "country_code": "CM", "display_name": "Mbandjock, Haute-Sanaga, Centre, Cameroon"}}, {"type": "Feature", "geometry": {"type": "Point", "coordinates": [11.9062945, 4.4497717]}, "properties": {"city": null, "place_id": 11597, "country_code": "CM", "display_name": "NDJORE-BEL, Mbandjock, Haute-Sanaga, Centre, Cameroon"}}, {"type": "Feature", "geometry": {"type": "Point", "coordinates": [12.2493329, 3.7823387]}, "properties": {"city": "Akonolinga", "place_id": 11598, "country_code": "CM", "display_name": "Ekoua, Akonolinga, Nyong-et-Foumou, Centre, Cameroon"}}, {"type": "Feature", "geometry": {"type": "Point", "coordinates": [9.6792896, 4.6399321]}, "properties": {"city": null, "place_id": 11599, "country_code": "CM", "display_name": "Penja, Moungo, Littoral, Cameroon"}}, {"type": "Feature", "geometry": {"type": "Point", "coordinates": [10.4284175, 5.4807525]}, "properties": {"city": "Bafoussam", "place_id": 11600, "country_code": "CM", "display_name": "Bafoussam, Bafoussam I, Mifi, West, Cameroon"}}, {"type": "Feature", "geometry": {"type": "Point", "coordinates": [13.9510521, 2.7845887]}, "properties": {"city": null, "place_id": 11601, "country_code": "CM", "display_name": "Tékésam, Ngoyla, Haut-Nyong, East, Cameroon"}}, {"type": "Feature", "geometry": {"type": "Point", "coordinates": [11.5019639, 3.8473983]}, "properties": {"city": "Yaoundé", "place_id": 11602, "country_code": "CM", "display_name": "Jardin des amis, Rue Tsoungui Akoa, Mvolye, Yaoundé III, Yaoundé, Mfoundi, Centre, Cameroon"}}, {"type": "Feature", "geometry": {"type": "Point", "coordinates": [9.9519735, 5.1229754]}, "properties": {"city": "Mélong", "place_id": 11603, "country_code": "CM", "display_name": "P17, Melong, Mélong, Moungo, Littoral, Cameroon"}}, {"type": "Feature", "geometry": {"type": "Point", "coordinates": [15.2332746, 10.3407156]}, "properties": {"city": "Yagoua", "place_id": 11604, "country_code": "CM", "display_name": "École Maternelle de Siatare, P28, Yagoua, Mayo-Danay, Far-North, Cameroon"}}, {"type": "Feature", "geometry": {"type": "Point", "coordinates": [12.3741327, 4.6740235]}, "properties": {"city": null, "place_id": 11605, "country_code": "CM", "display_name": "Nanga-Eboko, Haute-Sanaga, Centre, Cameroon"}}, {"type": "Feature", "geometry": {"type": "Point", "coordinates": [9.8183316, 4.8476844]}, "properties": {"city": null, "place_id": 11606, "country_code": "CM", "display_name": "Manjo, Moungo, Littoral, Cameroon"}}, {"type": "Feature", "geometry": {"type": "Point", "coordinates": [14.1397849, 11.0461224]}, "properties": {"city": "Mora", "place_id": 11607, "country_code": "CM", "display_name": "Hôpital de District, N14, Mora, Mayo-Sava, Far-North, Cameroon"}}, {"type": "Feature", "geometry": {"type": "Point", "coordinates": [9.8214789, 4.8431228]}, "properties": {"city": null, "place_id": 11608, "country_code": "CM", "display_name": "Manjo, Moungo, Littoral, Cameroon"}}, {"type": "Feature", "geometry": {"type": "Point", "coordinates": [13.8121825, 4.8275483]}, "properties": {"city": null, "place_id": 11609, "country_code": "CM", "display_name": "Mboulaye, Lom-et-Djérem, East, Cameroon"}}, {"type": "Feature", "geometry": {"type": "Point", "coordinates": [13.8158420, 3.0333842]}, "properties": {"city": null, "place_id": 11610, "country_code": "CM", "display_name": "Koungoulou, Messock, Haut-Nyong, East, Cameroon"}}, {"type": "Feature", "geometry": {"type": "Point", "coordinates": [10.8169776, 4.3879056]}, "properties": {"city": null, "place_id": 11611, "country_code": "CM", "display_name": "Nkongmbakeneg, Ndom, Sanaga-Maritime, Littoral, Cameroon"}}, {"type": "Feature", "geometry": {"type": "Point", "coordinates": [8.9026043, 4.4841202]}, "properties": {"city": null, "place_id": 11612, "country_code": "CM", "display_name": "Kombo Mokoko, Bamusso, Ndian, Southwest, Cameroon"}}, {"type": "Feature", "geometry": {"type": "Point", "coordinates": [11.9599323, 3.3579992]}, "properties": {"city": null, "place_id": 11613, "country_code": "CM", "display_name": "Mbedoumou, Zoétélé, Dja-et-Lobo, South, Cameroon"}}, {"type": "Feature", "geometry": {"type": "Point", "coordinates": [11.4718334, 2.7411465]}, "properties": {"city": null, "place_id": 11614, "country_code": "CM", "display_name": "Ongol, Biwong-Bulu, Mvila, South, Cameroon"}}, {"type": "Feature", "geometry": {"type": "Point", "coordinates": [9.7981935, 3.6551545]}, "properties": {"city": null, "place_id": 11615, "country_code": "CM", "display_name": "Ndié, Mouanko, Sanaga-Maritime, Littoral, Cameroon"}}, {"type": "Feature", "geometry": {"type": "Point", "coordinates": [11.7557233, 2.7321172]}, "properties": {"city": null, "place_id": 11616, "country_code": "CM", "display_name": "Ngomébae, Mvangan, Mvila, South, Cameroon"}}, {"type": "Feature", "geometry": {"type": "Point", "coordinates": [13.5009638, 4.9258589]}, "properties": {"city": null, "place_id": 11617, "country_code": "CM", "display_name": "Yambeng, Bélabo, Lom-et-Djérem, East, Cameroon"}}, {"type": "Feature", "geometry": {"type": "Point", "coordinates": [15.2885209, 7.3097393]}, "properties": {"city": null, "place_id": 11618, "country_code": "CM", "display_name": "Wakassao, Touboro, Mayo-Rey, North, Cameroon"}}, {"type": "Feature", "geometry": {"type": "Point", "coordinates": [8.9557101, 4.4075138]}, "properties": {"city": null, "place_id": 11619, "country_code": "CM", "display_name": "Liongo, Bamusso, Ndian, Southwest, Cameroon"}}, {"type": "Feature", "geometry": {"type": "Point", "coordinates": [11.8162090, 6.7492835]}, "properties": {"city": "Banyo", "place_id": 11620, "country_code": "CM", "display_name": "Banyo, Mayo-Banyo, Adamawa, Cameroon"}}, {"type": "Feature", "geometry": {"type": "Point", "coordinates": [9.3217918, 4.6820840]}, "properties": {"city": "Three Corners Bekondo", "place_id": 11621, "country_code": "CM", "display_name": "Big Bekondo, Three Corners Bekondo, Konye, Meme, Southwest, Cameroon"}}, {"type": "Feature", "geometry": {"type": "Point", "coordinates": [11.5362374, 4.1582454]}, "properties": {"city": null, "place_id": 11622, "country_code": "CM", "display_name": "Elig Bessola, Obala, Lekié, Centre, Cameroon"}}, {"type": "Feature", "geometry": {"type": "Point", "coordinates": [14.0281049, 10.8879592]}, "properties": {"city": null, "place_id": 11623, "country_code": "CM", "display_name": "Tokombéré, Mayo-Sava, Far-North, Cameroon"}}, {"type": "Feature", "geometry": {"type": "Point", "coordinates": [10.1371167, 3.7950866]}, "properties": {"city": "Edéa", "place_id": 11624, "country_code": "CM", "display_name": "Edéa, Édéa I, Communauté urbaine d'Édéa, Sanaga-Maritime, Littoral, Cameroon"}}, {"type": "Feature", "geometry": {"type": "Point", "coordinates": [10.1302828, 3.7988114]}, "properties": {"city": "Edéa", "place_id": 11625, "country_code": "CM", "display_name": "Campost, Douala - Yaoundé (Nationale Numéro 3), Ntoumba, Edéa, Édéa I, Communauté urbaine d'Édéa, Sanaga-Maritime, Littoral, Cameroon"}}, {"type": "Feature", "geometry": {"type": "Point", "coordinates": [13.9433359, 9.9258651]}, "properties": {"city": "Guider", "place_id": 11626, "country_code": "CM", "display_name": "Kergueng, Guider, Mayo-Louti, North, Cameroon"}}, {"type": "Feature", "geometry": {"type": "Point", "coordinates": [13.6845100, 4.5772765]}, "properties": {"city": "Communauté urbaine de Bertoua", "place_id": 11627, "country_code": "CM", "display_name": "Bertoua II, Communauté urbaine de Bertoua, Lom-et-Djérem, East, Cameroon"}}, {"type": "Feature", "geometry": {"type": "Point", "coordinates": [14.3667734, 4.4333417]}, "properties": {"city": "Batouri", "place_id": 11628, "country_code": "CM", "display_name": "Batouri, Kadey, East, Cameroon"}}, {"type": "Feature", "geometry": {"type": "Point", "coordinates": [13.3935335, 9.3223753]}, "properties": {"city": "Garoua II", "place_id": 11629, "country_code": "CM", "display_name": "Garoua II, Communauté urbaine de Garoua, Bénoué, North, Cameroon"}}, {"type": "Feature", "geometry": {"type": "Point", "coordinates": [11.1501814, 2.8996999]}, "properties": {"city": "Ebolowa", "place_id": 11630, "country_code": "CM", "display_name": "Elat, Ebolowa, Ebolowa II, Communauté urbaine d'Ebolowa, Mvila, South, Cameroon"}}, {"type": "Feature", "geometry": {"type": "Point", "coordinates": [9.4099284, 4.2900326]}, "properties": {"city": null, "place_id": 11631, "country_code": "CM", "display_name": "Mekanga, Muyuka, Fako, Southwest, Cameroon"}}, {"type": "Feature", "geometry": {"type": "Point", "coordinates": [13.9460640, 9.9333063]}, "properties": {"city": "Guider", "place_id": 11632, "country_code": "CM", "display_name": "Guider Lamorde, Guider, Mayo-Louti, North, Cameroon"}}, {"type": "Feature", "geometry": {"type": "Point", "coordinates": [9.2059357, 4.0236912]}, "properties": {"city": "Limbe", "place_id": 11633, "country_code": "CM", "display_name": "Livanda, Ambas Bay, Limbe, Limbé I, Communauté urbaine de Limbé, Fako, Southwest, Cameroon"}}, {"type": "Feature", "geometry": {"type": "Point", "coordinates": [9.3593881, 4.0783314]}, "properties": {"city": null, "place_id": 11634, "country_code": "CM", "display_name": "Ndongo, Tiko, Fako, Southwest, Cameroon"}}, {"type": "Feature", "geometry": {"type": "Point", "coordinates": [9.3599170, 4.0746533]}, "properties": {"city": null, "place_id": 11635, "country_code": "CM", "display_name": "Ndongo, Tiko, Fako, Southwest, Cameroon"}}, {"type": "Feature", "geometry": {"type": "Point", "coordinates": [14.2560463, 10.5452701]}, "properties": {"city": "Maroua I", "place_id": 11636, "country_code": "CM", "display_name": "Sabongari, Meskine, Maroua I, Communauté urbaine de Maroua, Diamaré, Far-North, Cameroon"}}, {"type": "Feature", "geometry": {"type": "Point", "coordinates": [12.3667105, 4.6833566]}, "properties": {"city": null, "place_id": 11637, "country_code": "CM", "display_name": "Nanga-Eboko, Haute-Sanaga, Centre, Cameroon"}}, {"type": "Feature", "geometry": {"type": "Point", "coordinates": [11.9842590, 2.9331867]}, "properties": {"city": "Sangmélima", "place_id": 11638, "country_code": "CM", "display_name": "Mbeli'i, Sangmélima, Dja-et-Lobo, South, Cameroon"}}, {"type": "Feature", "geometry": {"type": "Point", "coordinates": [9.4467823, 4.6363551]}, "properties": {"city": "Kumba III", "place_id": 11639, "country_code": "CM", "display_name": "Kumba III, Communauté urbaine de Kumba, Meme, Southwest, Cameroon"}}, {"type": "Feature", "geometry": {"type": "Point", "coordinates": [9.5621757, 4.4944994]}, "properties": {"city": null, "place_id": 11640, "country_code": "CM", "display_name": "Mbanga, Moungo, Littoral, Cameroon"}}, {"type": "Feature", "geometry": {"type": "Point", "coordinates": [13.6660752, 9.0580660]}, "properties": {"city": null, "place_id": 11641, "country_code": "CM", "display_name": "Lagdo 2, Lagdo, Bénoué, North, Cameroon"}}, {"type": "Feature", "geometry": {"type": "Point", "coordinates": [11.7988805, 3.7845237]}, "properties": {"city": null, "place_id": 11642, "country_code": "CM", "display_name": "Abam, Dzeng, Nyong-et-So'o, Centre, Cameroon"}}, {"type": "Feature", "geometry": {"type": "Point", "coordinates": [10.7669395, 3.6514348]}, "properties": {"city": "Éséka", "place_id": 11643, "country_code": "CM", "display_name": "Mboga, Éséka, Nyong-et-Kéllé, Centre, Cameroon"}}, {"type": "Feature", "geometry": {"type": "Point", "coordinates": [9.4143112, 4.2905764]}, "properties": {"city": null, "place_id": 11644, "country_code": "CM", "display_name": "Mekanga, Muyuka, Fako, Southwest, Cameroon"}}, {"type": "Feature", "geometry": {"type": "Point", "coordinates": [10.2111905, 5.4781839]}, "properties": {"city": null, "place_id": 11645, "country_code": "CM", "display_name": "Penka-Michel, Menoua, West, Cameroon"}}, {"type": "Feature", "geometry": {"type": "Point", "coordinates": [9.6507315, 4.0778545]}, "properties": {"city": "Douala IV", "place_id": 11646, "country_code": "CM", "display_name": "Washington, Douala IV, Communauté urbaine de Douala, Wouri, Littoral, Cameroon"}}, {"type": "Feature", "geometry": {"type": "Point", "coordinates": [9.9346607, 4.9742557]}, "properties": {"city": "Nkongsamba", "place_id": 11647, "country_code": "CM", "display_name": "Stade Municipal de Bonangoh, Douala-Bafoussam (N5), Nkongsamba, Nkongsamba II, Communauté urbaine de Nkongsamba, Moungo, Littoral, Cameroon"}}, {"type": "Feature", "geometry": {"type": "Point", "coordinates": [14.7853951, 8.3782114]}, "properties": {"city": "Rey-Bouba", "place_id": 11648, "country_code": "CM", "display_name": "N 13, Rey-Bouba, Mayo-Rey, North, Cameroon"}}, {"type": "Feature", "geometry": {"type": "Point", "coordinates": [10.0203483, 4.3666511]}, "properties": {"city": "Yabassi", "place_id": 11649, "country_code": "CM", "display_name": "P15, Ndoksom, Yabassi, Nkam, Littoral, Cameroon"}}, {"type": "Feature", "geometry": {"type": "Point", "coordinates": [11.2871708, 2.7036609]}, "properties": {"city": "Ebolowa II", "place_id": 11650, "country_code": "CM", "display_name": "D82, Eyek, Ebolowa II, Communauté urbaine d'Ebolowa, Mvila, South, Cameroon"}}, {"type": "Feature", "geometry": {"type": "Point", "coordinates": [9.9804718, 3.7661422]}, "properties": {"city": null, "place_id": 11651, "country_code": "CM", "display_name": "D58, Ndjélsa, Dizangué, Sanaga-Maritime, Littoral, Cameroon"}}, {"type": "Feature", "geometry": {"type": "Point", "coordinates": [9.9779296, 3.7798133]}, "properties": {"city": null, "place_id": 11652, "country_code": "CM", "display_name": "D58, Ndjélsa, Dizangué, Sanaga-Maritime, Littoral, Cameroon"}}, {"type": "Feature", "geometry": {"type": "Point", "coordinates": [11.5986869, 4.3142039]}, "properties": {"city": null, "place_id": 11653, "country_code": "CM", "display_name": "D48A, Ondondo III, Sa'a, Lekié, Centre, Cameroon"}}, {"type": "Feature", "geometry": {"type": "Point", "coordinates": [11.5333339, 4.1666850]}, "properties": {"city": null, "place_id": 11654, "country_code": "CM", "display_name": "Elig Bessola, Obala, Lekié, Centre, Cameroon"}}, {"type": "Feature", "geometry": {"type": "Point", "coordinates": [11.2664930, 2.3816415]}, "properties": {"city": "Ambam", "place_id": 11655, "country_code": "CM", "display_name": "bat1995, Route, Ambam, Vallée-du-Ntem, South, Cameroon"}}, {"type": "Feature", "geometry": {"type": "Point", "coordinates": [13.2921628, 4.9227282]}, "properties": {"city": null, "place_id": 11656, "country_code": "CM", "display_name": "Antenne Université de Dschang, N18, Mbwam, Bélabo, Lom-et-Djérem, East, Cameroon"}}, {"type": "Feature", "geometry": {"type": "Point", "coordinates": [13.4478718, 4.2405875]}, "properties": {"city": null, "place_id": 11657, "country_code": "CM", "display_name": "D29, Sibita, Doumé, Haut-Nyong, East, Cameroon"}}, {"type": "Feature", "geometry": {"type": "Point", "coordinates": [14.8153382, 10.1508655]}, "properties": {"city": null, "place_id": 11658, "country_code": "CM", "display_name": "Sao Tchaï, Touloum, Mayo-Kani, Far-North, Cameroon"}}, {"type": "Feature", "geometry": {"type": "Point", "coordinates": [15.2365234, 10.3470597]}, "properties": {"city": "Yagoua", "place_id": 11659, "country_code": "CM", "display_name": "Yagoua, Mayo-Danay, Far-North, Cameroon"}}, {"type": "Feature", "geometry": {"type": "Point", "coordinates": [14.1741479, 9.9274861]}, "properties": {"city": null, "place_id": 11660, "country_code": "CM", "display_name": "More, Figuil, Mayo-Louti, North, Cameroon"}}, {"type": "Feature", "geometry": {"type": "Point", "coordinates": [13.5683205, 8.0023561]}, "properties": {"city": "Tcholliré", "place_id": 11661, "country_code": "CM", "display_name": "Ngaoundéré-Garoua, Leunda, Tcholliré, Mayo-Rey, North, Cameroon"}}, {"type": "Feature", "geometry": {"type": "Point", "coordinates": [9.8305132, 4.1247850]}, "properties": {"city": "Douala V", "place_id": 11662, "country_code": "CM", "display_name": "Massoumbou Carrefour, Douala V, Communauté urbaine de Douala, Wouri, Littoral, Cameroon"}}, {"type": "Feature", "geometry": {"type": "Point", "coordinates": [13.6658138, 9.0582407]}, "properties": {"city": null, "place_id": 11663, "country_code": "CM", "display_name": "Bokassa, Lagdo, Bénoué, North, Cameroon"}}, {"type": "Feature", "geometry": {"type": "Point", "coordinates": [9.2456350, 4.1491747]}, "properties": {"city": "Buea", "place_id": 11664, "country_code": "CM", "display_name": "SUP'PTIC Buea, Guiness Street, Small-Soppo, Buea, Fako, Southwest, Cameroon"}}, {"type": "Feature", "geometry": {"type": "Point", "coordinates": [11.8036740, 6.7496396]}, "properties": {"city": "Banyo", "place_id": 11665, "country_code": "CM", "display_name": "Banyo, Mayo-Banyo, Adamawa, Cameroon"}}, {"type": "Feature", "geometry": {"type": "Point", "coordinates": [11.1332085, 2.9500083]}, "properties": {"city": "Ebolowa I", "place_id": 11666, "country_code": "CM", "display_name": "Mekalat Biyeng, Ebolowa I, Communauté urbaine d'Ebolowa, Mvila, South, Cameroon"}}, {"type": "Feature", "geometry": {"type": "Point", "coordinates": [13.6699810, 5.2344782]}, "properties": {"city": null, "place_id": 11667, "country_code": "CM", "display_name": "Lom-et-Djérem, East, Cameroon"}}, {"type": "Feature", "geometry": {"type": "Point", "coordinates": [15.2265490, 10.3443610]}, "properties": {"city": "Yagoua", "place_id": 11668, "country_code": "CM", "display_name": "Yagoua, Mayo-Danay, Far-North, Cameroon"}}, {"type": "Feature", "geometry": {"type": "Point", "coordinates": [15.3470240, 7.7689220]}, "properties": {"city": null, "place_id": 11669, "country_code": "CM", "display_name": "Touboro, Mayo-Rey, North, Cameroon"}}, {"type": "Feature", "geometry": {"type": "Point", "coordinates": [14.6920810, 6.8364130]}, "properties": {"city": null, "place_id": 11670, "country_code": "CM", "display_name": "Djohong, Mbéré, Adamawa, Cameroon"}}, {"type": "Feature", "geometry": {"type": "Point", "coordinates": [13.8709520, 9.3129130]}, "properties": {"city": null, "place_id": 11671, "country_code": "CM", "display_name": "Bibemi, Bénoué, North, Cameroon"}}, {"type": "Feature", "geometry": {"type": "Point", "coordinates": [14.1675240, 8.4033303]}, "properties": {"city": "Tcholliré", "place_id": 11672, "country_code": "CM", "display_name": "Tcholliré, Mayo-Rey, North, Cameroon"}}, {"type": "Feature", "geometry": {"type": "Point", "coordinates": [11.8045776, 6.7485470]}, "properties": {"city": "Banyo", "place_id": 11673, "country_code": "CM", "display_name": "Banyo, Mayo-Banyo, Adamawa, Cameroon"}}, {"type": "Feature", "geometry": {"type": "Point", "coordinates": [14.0241370, 2.6293550]}, "properties": {"city": null, "place_id": 11674, "country_code": "CM", "display_name": "Ngoyla, Haut-Nyong, East, Cameroon"}}, {"type": "Feature", "geometry": {"type": "Point", "coordinates": [14.5471591, 5.8948457]}, "properties": {"city": null, "place_id": 11675, "country_code": "CM", "display_name": "Garoua-Boulaï, Lom-et-Djérem, East, Cameroon"}}, {"type": "Feature", "geometry": {"type": "Point", "coordinates": [13.6182935, 3.1598199]}, "properties": {"city": null, "place_id": 11676, "country_code": "CM", "display_name": "Lomié, Haut-Nyong, East, Cameroon"}}, {"type": "Feature", "geometry": {"type": "Point", "coordinates": [14.2947879, 6.5172123]}, "properties": {"city": "Meiganga", "place_id": 11677, "country_code": "CM", "display_name": "Meiganga, Mbéré, Adamawa, Cameroon"}}, {"type": "Feature", "geometry": {"type": "Point", "coordinates": [12.6780673, 2.6722719]}, "properties": {"city": null, "place_id": 11678, "country_code": "CM", "display_name": "Djoum, Dja-et-Lobo, South, Cameroon"}}, {"type": "Feature", "geometry": {"type": "Point", "coordinates": [11.5734436, 3.1916601]}, "properties": {"city": null, "place_id": 11679, "country_code": "CM", "display_name": "Akoéman, Nyong-et-So'o, Centre, Cameroon"}}, {"type": "Feature", "geometry": {"type": "Point", "coordinates": [10.5235424, 5.1396060]}, "properties": {"city": null, "place_id": 11680, "country_code": "CM", "display_name": "Bangangté, Ndé, West, Cameroon"}}, {"type": "Feature", "geometry": {"type": "Point", "coordinates": [10.0180602, 3.7465887]}, "properties": {"city": null, "place_id": 11681, "country_code": "CM", "display_name": "Dizangué, Sanaga-Maritime, Littoral, Cameroon"}}, {"type": "Feature", "geometry": {"type": "Point", "coordinates": [8.9839977, 5.7681748]}, "properties": {"city": null, "place_id": 11682, "country_code": "CM", "display_name": "Eyumodjock, Manyu, Southwest, Cameroon"}}, {"type": "Feature", "geometry": {"type": "Point", "coordinates": [12.3186341, 5.5406812]}, "properties": {"city": null, "place_id": 11683, "country_code": "CM", "display_name": "Yoko, Mbam-et-Kim, Centre, Cameroon"}}, {"type": "Feature", "geometry": {"type": "Point", "coordinates": [10.3149590, 6.2282450]}, "properties": {"city": null, "place_id": 11684, "country_code": "CM", "display_name": "Njinikom, Boyo, Northwest, Cameroon"}}, {"type": "Feature", "geometry": {"type": "Point", "coordinates": [11.8847560, 4.0966180]}, "properties": {"city": null, "place_id": 11685, "country_code": "CM", "display_name": "Esse, Méfou-et-Afamba, Centre, Cameroon"}}, {"type": "Feature", "geometry": {"type": "Point", "coordinates": [14.3645181, 4.4358104]}, "properties": {"city": "Batouri", "place_id": 11686, "country_code": "CM", "display_name": "Batouri, Kadey, East, Cameroon"}}, {"type": "Feature", "geometry": {"type": "Point", "coordinates": [9.5103401, 6.3789074]}, "properties": {"city": null, "place_id": 11687, "country_code": "CM", "display_name": "Akwaya, Manyu, Southwest, Cameroon"}}, {"type": "Feature", "geometry": {"type": "Point", "coordinates": [14.0499955, 4.2716501]}, "properties": {"city": null, "place_id": 11688, "country_code": "CM", "display_name": "Nguélébok, Kadey, East, Cameroon"}}, {"type": "Feature", "geometry": {"type": "Point", "coordinates": [10.9718305, 2.4784998]}, "properties": {"city": null, "place_id": 11689, "country_code": "CM", "display_name": "Vallée-du-Ntem, South, Cameroon"}}, {"type": "Feature", "geometry": {"type": "Point", "coordinates": [9.8556264, 5.8363972]}, "properties": {"city": null, "place_id": 11690, "country_code": "CM", "display_name": "Presbyterian Highschool Batibo, Bamenda-Mamfe, Mbengok, Batibo, Momo, Northwest, Cameroon"}}, {"type": "Feature", "geometry": {"type": "Point", "coordinates": [14.3209685, 10.5930487]}, "properties": {"city": "Maroua I", "place_id": 11691, "country_code": "CM", "display_name": "Djimi, Maroua I, Communauté urbaine de Maroua, Diamaré, Far-North, Cameroon"}}, {"type": "Feature", "geometry": {"type": "Point", "coordinates": [14.6966478, 6.8343930]}, "properties": {"city": null, "place_id": 11692, "country_code": "CM", "display_name": "Djohong 2, Djohong, Mbéré, Adamawa, Cameroon"}}, {"type": "Feature", "geometry": {"type": "Point", "coordinates": [14.1699287, 8.4026736]}, "properties": {"city": "Tcholliré", "place_id": 11693, "country_code": "CM", "display_name": "Mane, Tcholliré, Mayo-Rey, North, Cameroon"}}, {"type": "Feature", "geometry": {"type": "Point", "coordinates": [14.6091435, 10.7333911]}, "properties": {"city": "Bogo", "place_id": 11694, "country_code": "CM", "display_name": "Bogo, Diamaré, Far-North, Cameroon"}}, {"type": "Feature", "geometry": {"type": "Point", "coordinates": [12.6187691, 6.4703690]}, "properties": {"city": "Tabati", "place_id": 11695, "country_code": "CM", "display_name": "Tabati, Djérem, Adamawa, Cameroon"}}, {"type": "Feature", "geometry": {"type": "Point", "coordinates": [14.3000617, 6.5173518]}, "properties": {"city": "Meiganga", "place_id": 11696, "country_code": "CM", "display_name": "Meiganga, Mbéré, Adamawa, Cameroon"}}, {"type": "Feature", "geometry": {"type": "Point", "coordinates": [10.7340091, 3.2336047]}, "properties": {"city": null, "place_id": 11697, "country_code": "CM", "display_name": "Bikoui, Lolodorf, Océan, South, Cameroon"}}, {"type": "Feature", "geometry": {"type": "Point", "coordinates": [9.3134424, 5.7513800]}, "properties": {"city": null, "place_id": 11698, "country_code": "CM", "display_name": "Mamfe, Manyu, Southwest, Cameroon"}}, {"type": "Feature", "geometry": {"type": "Point", "coordinates": [11.2670535, 2.3694101]}, "properties": {"city": "Ambam", "place_id": 11699, "country_code": "CM", "display_name": "Ngankié, Ambam, Vallée-du-Ntem, South, Cameroon"}}, {"type": "Feature", "geometry": {"type": "Point", "coordinates": [9.8619133, 5.4843949]}, "properties": {"city": null, "place_id": 11700, "country_code": "CM", "display_name": "Fontem, Menji, Lebialem, Southwest, Cameroon"}}, {"type": "Feature", "geometry": {"type": "Point", "coordinates": [14.4344795, 7.0514349]}, "properties": {"city": null, "place_id": 11701, "country_code": "CM", "display_name": "Bélel, Vina, Adamawa, Cameroon"}}, {"type": "Feature", "geometry": {"type": "Point", "coordinates": [10.2890981, 5.5646818]}, "properties": {"city": null, "place_id": 11702, "country_code": "CM", "display_name": "Konti, Batcham Chefferie, Batcham, Bamboutos, West, Cameroon"}}, {"type": "Feature", "geometry": {"type": "Point", "coordinates": [10.4181079, 5.3668910]}, "properties": {"city": "Pete-Bandjoun", "place_id": 11703, "country_code": "CM", "display_name": "Bandjoun, Pete-Bandjoun, Nkoung-Khi, West, Cameroon"}}, {"type": "Feature", "geometry": {"type": "Point", "coordinates": [15.3844584, 7.6651728]}, "properties": {"city": null, "place_id": 11704, "country_code": "CM", "display_name": "Barkary, Touboro, Mayo-Rey, North, Cameroon"}}, {"type": "Feature", "geometry": {"type": "Point", "coordinates": [11.1562924, 2.9261095]}, "properties": {"city": "Ebolowa", "place_id": 11705, "country_code": "CM", "display_name": "Elat, Ebolowa, Ebolowa II, Communauté urbaine d'Ebolowa, Mvila, South, Cameroon"}}, {"type": "Feature", "geometry": {"type": "Point", "coordinates": [13.2998393, 4.9334936]}, "properties": {"city": null, "place_id": 11706, "country_code": "CM", "display_name": "SOMAC, Ebaka, Bélabo, Lom-et-Djérem, East, Cameroon"}}, {"type": "Feature", "geometry": {"type": "Point", "coordinates": [10.0751580, 6.3884506]}, "properties": {"city": null, "place_id": 11707, "country_code": "CM", "display_name": "Wum, Menchum, Northwest, Cameroon"}}, {"type": "Feature", "geometry": {"type": "Point", "coordinates": [10.3560596, 5.7054204]}, "properties": {"city": null, "place_id": 11708, "country_code": "CM", "display_name": "Bamenyan, Galim, Bamboutos, West, Cameroon"}}, {"type": "Feature", "geometry": {"type": "Point", "coordinates": [10.5190744, 5.1306066]}, "properties": {"city": null, "place_id": 11709, "country_code": "CM", "display_name": "Mfetom, Bangangté, Ndé, West, Cameroon"}}, {"type": "Feature", "geometry": {"type": "Point", "coordinates": [10.0712147, 6.3802766]}, "properties": {"city": null, "place_id": 11710, "country_code": "CM", "display_name": "Wum, Menchum, Northwest, Cameroon"}}, {"type": "Feature", "geometry": {"type": "Point", "coordinates": [13.3486810, 4.5788887]}, "properties": {"city": null, "place_id": 11711, "country_code": "CM", "display_name": "Motombo, Diang, Lom-et-Djérem, East, Cameroon"}}, {"type": "Feature", "geometry": {"type": "Point", "coordinates": [10.7293071, 3.2342930]}, "properties": {"city": null, "place_id": 11712, "country_code": "CM", "display_name": "P 8, Bikoui, Lolodorf, Océan, South, Cameroon"}}, {"type": "Feature", "geometry": {"type": "Point", "coordinates": [9.4448540, 4.6336442]}, "properties": {"city": "Kumba I", "place_id": 11713, "country_code": "CM", "display_name": "École Britannique de Kumba J.A.M. Académie Équestre, Rue Lido, Kumba I, Communauté urbaine de Kumba, Meme, Southwest, Cameroon"}}, {"type": "Feature", "geometry": {"type": "Point", "coordinates": [14.3697200, 10.4786399]}, "properties": {"city": null, "place_id": 11714, "country_code": "CM", "display_name": "Towndeo, Mindif, Mayo-Kani, Far-North, Cameroon"}}, {"type": "Feature", "geometry": {"type": "Point", "coordinates": [13.5476899, 10.2316600]}, "properties": {"city": "Bourha", "place_id": 11715, "country_code": "CM", "display_name": "Louguere_makki, Bourha, Mayo-Tsanaga, Far-North, Cameroon"}}, {"type": "Feature", "geometry": {"type": "Point", "coordinates": [9.8071470, 4.6859010]}, "properties": {"city": null, "place_id": 11716, "country_code": "CM", "display_name": "Dibombe 1, Loum, Moungo, Littoral, Cameroon"}}, {"type": "Feature", "geometry": {"type": "Point", "coordinates": [13.7990279, 10.3735280]}, "properties": {"city": null, "place_id": 11717, "country_code": "CM", "display_name": "Kaftaka_2, Hina, Mayo-Tsanaga, Far-North, Cameroon"}}, {"type": "Feature", "geometry": {"type": "Point", "coordinates": [14.0939302, 9.4175199]}, "properties": {"city": null, "place_id": 11718, "country_code": "CM", "display_name": "Gali, Bibemi, Bénoué, North, Cameroon"}}, {"type": "Feature", "geometry": {"type": "Point", "coordinates": [13.3033000, 9.9809201]}, "properties": {"city": null, "place_id": 11719, "country_code": "CM", "display_name": "Kobossi, Baschéo, Bénoué, North, Cameroon"}}, {"type": "Feature", "geometry": {"type": "Point", "coordinates": [14.5344100, 8.7979600]}, "properties": {"city": "Rey-Bouba", "place_id": 11720, "country_code": "CM", "display_name": "Vaimba, Rey-Bouba, Mayo-Rey, North, Cameroon"}}, {"type": "Feature", "geometry": {"type": "Point", "coordinates": [14.3603280, 6.2650529]}, "properties": {"city": "Meiganga", "place_id": 11721, "country_code": "CM", "display_name": "Ngankombol, Meiganga, Mbéré, Adamawa, Cameroon"}}, {"type": "Feature", "geometry": {"type": "Point", "coordinates": [13.2612533, 9.5244539]}, "properties": {"city": "Gachiga", "place_id": 11722, "country_code": "CM", "display_name": "Mayo Sahel, Gachiga, Bénoué, North, Cameroon"}}, {"type": "Feature", "geometry": {"type": "Point", "coordinates": [12.0179339, 4.5021447]}, "properties": {"city": null, "place_id": 11723, "country_code": "CM", "display_name": "Mendoko, Nkoteng, Haute-Sanaga, Centre, Cameroon"}}, {"type": "Feature", "geometry": {"type": "Point", "coordinates": [11.8806921, 4.4366650]}, "properties": {"city": null, "place_id": 11724, "country_code": "CM", "display_name": "Adjaa, Mbandjock, Haute-Sanaga, Centre, Cameroon"}}, {"type": "Feature", "geometry": {"type": "Point", "coordinates": [14.4176058, 10.7525079]}, "properties": {"city": null, "place_id": 11725, "country_code": "CM", "display_name": "Guiziguèl, Pétté, Diamaré, Far-North, Cameroon"}}, {"type": "Feature", "geometry": {"type": "Point", "coordinates": [10.0978661, 6.2810988]}, "properties": {"city": null, "place_id": 11726, "country_code": "CM", "display_name": "Bu, Wum, Menchum, Northwest, Cameroon"}}, {"type": "Feature", "geometry": {"type": "Point", "coordinates": [9.9082792, 2.9369704]}, "properties": {"city": "Kribi I", "place_id": 11727, "country_code": "CM", "display_name": "Collège Saint-Joseph, Kribi-Ebolowa, Mpango, Kribi I, Communauté urbaine de Kribi, Océan, South, Cameroon"}}, {"type": "Feature", "geometry": {"type": "Point", "coordinates": [13.5667911, 7.3380978]}, "properties": {"city": "Ngaoundéré", "place_id": 11728, "country_code": "CM", "display_name": "Hotel Malo, Pont 2e de Mardock, Ngaoundéré, Ngaoundéré II, Communauté urbaine de Ngaoundéré, Vina, Adamawa, Cameroon"}}, {"type": "Feature", "geometry": {"type": "Point", "coordinates": [13.5842000, 7.3279000]}, "properties": {"city": "Ngaoundéré", "place_id": 11729, "country_code": "CM", "display_name": "Elisabeth, Rue du Petit Marche, Joli soir, Ngaoundéré, Ngaoundéré II, Communauté urbaine de Ngaoundéré, Vina, Adamawa, Cameroon"}}, {"type": "Feature", "geometry": {"type": "Point", "coordinates": [11.5166585, 3.8666946]}, "properties": {"city": "Yaoundé", "place_id": 11730, "country_code": "CM", "display_name": "CCA Maché central, Avenue du Pdt El Hadj Ahmadou Ahidjo, Centre Commercial, Yaoundé I, Yaoundé, Mfoundi, Centre, 30388 Ydï¿½, Cameroon"}}, {"type": "Feature", "geometry": {"type": "Point", "coordinates": [13.3976609, 9.3014042]}, "properties": {"city": "Garoua", "place_id": 11731, "country_code": "CM", "display_name": "Bac à Ordures, Boulevard Lamido Hayatou, Garoua, Garoua I, Communauté urbaine de Garoua, Bénoué, North, Cameroon"}}, {"type": "Feature", "geometry": {"type": "Point", "coordinates": [14.4959450, 4.4365684]}, "properties": {"city": "Batouri", "place_id": 11732, "country_code": "CM", "display_name": "Ambanga, Batouri, Kadey, East, Cameroon"}}, {"type": "Feature", "geometry": {"type": "Point", "coordinates": [14.8754881, 11.6128928]}, "properties": {"city": null, "place_id": 11733, "country_code": "CM", "display_name": "Ndereya, Logone-Birni, Logone-et-Chari, Far-North, Cameroon"}}, {"type": "Feature", "geometry": {"type": "Point", "coordinates": [10.2851136, 6.2819628]}, "properties": {"city": null, "place_id": 11734, "country_code": "CM", "display_name": "Rue Bimop, Ville de Fundong, Fundong, Boyo, Northwest, Cameroon"}}, {"type": "Feature", "geometry": {"type": "Point", "coordinates": [10.7013345, 4.9698115]}, "properties": {"city": null, "place_id": 74940, "country_code": "CM", "display_name": "Tonga, Ndé, West, Cameroon"}}, {"type": "Feature", "geometry": {"type": "Point", "coordinates": [10.7002209, 4.9668779]}, "properties": {"city": null, "place_id": 74941, "country_code": "CM", "display_name": "Tonga, Ndé, West, Cameroon"}}]}
